"SeqNo";"Type";"DHID";"Parent";"Name";"Latitude";"Longitude";"MunicipalityCode";"Municipality";"DistrictCode";"District";"Condition";"State";"Description";"Authority";"DelfiName";"TariffDHID";"TariffName"
"0";"S";"de:09161:1034";"de:09161:1034";"IN, Altwasserweg";"48,75309";"11,47567";"09161000";"Ingolstadt";"";"";"Served";"InOrder";"";"BEG";"-";"";""
"1";"Q";"de:09161:1034:0:1";"de:09161:1034";"1";"48,75311";"11,47668";"00000000";"-";"-";"-";"Served";"InOrder";"";"BEG";"-";"-";"-"
"2";"Q";"de:09161:1034:0:2";"de:09161:1034";"2";"48,75307";"11,47467";"00000000";"-";"-";"-";"Served";"InOrder";"";"BEG";"-";"-";"-"
"3";"S";"de:09161:109";"de:09161:109";"IN, Brodmühlweg";"48,76316";"11,41123";"09161000";"Ingolstadt";"";"";"Served";"InOrder";"";"BEG";"-";"";""
"4";"Q";"de:09161:109:0:2";"de:09161:109";"2";"48,76316";"11,41123";"00000000";"-";"-";"-";"Served";"InOrder";"";"BEG";"-";"-";"-"
"5";"S";"de:09161:113";"de:09161:113";"IN, Buchnerstraße";"48,75192";"11,44646";"09161000";"Ingolstadt";"";"";"Served";"InOrder";"";"BEG";"-";"";""
"6";"Q";"de:09161:113:0:1";"de:09161:113";"1";"48,7519";"11,44655";"00000000";"-";"-";"-";"Served";"InOrder";"";"BEG";"-";"-";"-"
"7";"Q";"de:09161:113:0:2";"de:09161:113";"2";"48,75196";"11,44641";"00000000";"-";"-";"-";"Served";"InOrder";"";"BEG";"-";"-";"-"
"8";"S";"de:09161:127";"de:09161:127";"IN, Canisiusstraße";"48,73807";"11,44606";"09161000";"Ingolstadt";"";"";"Served";"InOrder";"";"BEG";"-";"";""
"9";"Q";"de:09161:127:0:1";"de:09161:127";"1";"48,73805";"11,44597";"00000000";"-";"-";"-";"Served";"InOrder";"";"BEG";"-";"-";"-"
"10";"Q";"de:09161:127:0:10";"de:09161:127";"10";"48,73754";"11,4457";"00000000";"-";"-";"-";"Unserved";"InOrder";"";"BEG";"-";"-";"-"
"11";"Q";"de:09161:127:0:2";"de:09161:127";"2";"48,73809";"11,44608";"00000000";"-";"-";"-";"Served";"InOrder";"";"BEG";"-";"-";"-"
"12";"Q";"de:09161:127:0:20";"de:09161:127";"20";"48,73731";"11,44572";"00000000";"-";"-";"-";"Unserved";"InOrder";"";"BEG";"-";"-";"-"
"13";"S";"de:09161:128";"de:09161:128";"IN, Caspar-Schoppe-Straße";"48,73864";"11,41769";"09161000";"Ingolstadt";"";"";"Served";"InOrder";"";"BEG";"-";"";""
"14";"Q";"de:09161:128:0:1";"de:09161:128";"1";"48,73889";"11,41814";"00000000";"-";"-";"-";"Served";"InOrder";"";"BEG";"-";"-";"-"
"15";"Q";"de:09161:128:0:2";"de:09161:128";"2";"48,73837";"11,41724";"00000000";"-";"-";"-";"Served";"InOrder";"";"BEG";"-";"-";"-"
"16";"S";"de:09161:137";"de:09161:137";"IN, Dr.-Maier-Straße";"48,73677";"11,43371";"09161000";"Ingolstadt";"-";"-";"Served";"Unknown";"";"BEG";"-";"-";"-"
"17";"Q";"de:09161:137:0:2";"de:09161:137";"2";"48,73676";"11,43369";"00000000";"-";"-";"-";"Unknown";"Unknown";"2";"BEG";"-";"-";"-"
"18";"S";"de:09161:1489";"de:09161:1489";"Gerolfing, Handwerkerhof";"48,76051";"11,34474";"09161000";"Ingolstadt";"";"";"Served";"InOrder";"";"BEG";"-";"";""
"19";"Q";"de:09161:1489:0:99";"de:09161:1489";"99";"48,76051";"11,34474";"00000000";"-";"-";"-";"Served";"InOrder";"";"BEG";"-";"-";"-"
"20";"S";"de:09161:1492";"de:09161:1492";"IN, Audi-GVZ Halle O";"48,78496";"11,39591";"09161000";"Ingolstadt";"";"";"Served";"InOrder";"";"BEG";"-";"";""
"21";"Q";"de:09161:1492:0:1";"de:09161:1492";"1";"48,78488";"11,39586";"00000000";"-";"-";"-";"Unserved";"InOrder";"";"BEG";"-";"-";"-"
"22";"Q";"de:09161:1492:0:2";"de:09161:1492";"2";"48,78487";"11,39584";"00000000";"-";"-";"-";"Unserved";"InOrder";"";"BEG";"-";"-";"-"
"23";"Q";"de:09161:1492:0:99";"de:09161:1492";"99";"48,78504";"11,39596";"00000000";"-";"-";"-";"Served";"InOrder";"";"BEG";"-";"-";"-"
"24";"S";"de:09161:1521";"de:09161:1521";"Gerolfing, Ochsenmühle";"48,77055";"11,35674";"09161000";"Ingolstadt";"";"";"Served";"InOrder";"";"BEG";"-";"";""
"25";"Q";"de:09161:1521:0:1";"de:09161:1521";"1";"48,77061";"11,35676";"00000000";"-";"-";"-";"Served";"InOrder";"";"BEG";"-";"-";"-"
"26";"Q";"de:09161:1521:0:2";"de:09161:1521";"2";"48,77048";"11,35674";"00000000";"-";"-";"-";"Served";"InOrder";"";"BEG";"-";"-";"-"
"27";"S";"de:09161:1561";"de:09161:1561";"IN, Schwäblstraße";"48,75599";"11,43816";"09161000";"Ingolstadt";"-";"-";"Served";"Unknown";"";"BEG";"-";"-";"-"
"28";"Q";"de:09161:1561:0:98";"de:09161:1561";"98";"48,75583";"11,43836";"00000000";"-";"-";"-";"Unknown";"Unknown";"98";"BEG";"-";"-";"-"
"29";"Q";"de:09161:1561:0:99";"de:09161:1561";"99";"48,75617";"11,43799";"00000000";"-";"-";"-";"Unknown";"Unknown";"99";"BEG";"-";"-";"-"
"30";"S";"de:09161:1567";"de:09161:1567";"Gerolfing, Am Gwendt";"48,76047";"11,35127";"09161000";"Ingolstadt";"";"";"Served";"InOrder";"";"BEG";"-";"";""
"31";"Q";"de:09161:1567:0:1";"de:09161:1567";"1";"48,7606";"11,35135";"00000000";"-";"-";"-";"Served";"InOrder";"";"BEG";"-";"-";"-"
"32";"Q";"de:09161:1567:0:2";"de:09161:1567";"2";"48,76035";"11,35118";"00000000";"-";"-";"-";"Served";"InOrder";"";"BEG";"-";"-";"-"
"33";"S";"de:09161:1588";"de:09161:1588";"IN, Halbritterstraße";"48,7276";"11,44022";"09161000";"Ingolstadt";"";"";"Served";"InOrder";"";"BEG";"-";"";""
"34";"Q";"de:09161:1588:0:1";"de:09161:1588";"1";"48,7276";"11,44024";"00000000";"-";"-";"-";"Served";"InOrder";"";"BEG";"-";"-";"-"
"35";"S";"de:09161:1605";"de:09161:1605";"IN, Langer Oberfeldweg";"48,71253";"11,39463";"09161000";"Ingolstadt";"";"";"Served";"InOrder";"";"BEG";"-";"";""
"36";"Q";"de:09161:1605:0:1";"de:09161:1605";"1";"48,71256";"11,39464";"00000000";"-";"-";"-";"Served";"InOrder";"";"BEG";"-";"-";"-"
"37";"Q";"de:09161:1605:0:2";"de:09161:1605";"2";"48,7125";"11,39459";"00000000";"-";"-";"-";"Served";"InOrder";"";"BEG";"-";"-";"-"
"38";"S";"de:09161:1608";"de:09161:1608";"IN, Käthe-Kruse-Straße";"48,77435";"11,49183";"09161000";"Ingolstadt";"";"";"Served";"InOrder";"";"BEG";"-";"";""
"39";"Q";"de:09161:1608:0:99";"de:09161:1608";"99";"48,77435";"11,49183";"00000000";"-";"-";"-";"Served";"InOrder";"";"BEG";"-";"-";"-"
"40";"S";"de:09161:1624";"de:09161:1624";"IN, Donautherme Wonnemar";"48,76373";"11,44016";"09161000";"Ingolstadt";"";"";"Served";"InOrder";"";"BEG";"-";"";""
"41";"Q";"de:09161:1624:0:1";"de:09161:1624";"1";"48,76371";"11,44019";"00000000";"-";"-";"-";"Served";"InOrder";"";"BEG";"-";"-";"-"
"42";"Q";"de:09161:1624:0:2";"de:09161:1624";"2";"48,76374";"11,4402";"00000000";"-";"-";"-";"Served";"InOrder";"";"BEG";"-";"-";"-"
"43";"S";"de:09161:1625";"de:09161:1625";"IN, Saturn-Arena";"48,75872";"11,43928";"09161000";"Ingolstadt";"";"";"Served";"InOrder";"";"BEG";"-";"";""
"44";"Q";"de:09161:1625:0:98";"de:09161:1625";"98";"48,75834";"11,43877";"00000000";"-";"-";"-";"Served";"InOrder";"";"BEG";"-";"-";"-"
"45";"Q";"de:09161:1625:0:99";"de:09161:1625";"99";"48,75912";"11,43982";"00000000";"-";"-";"-";"Served";"InOrder";"";"BEG";"-";"-";"-"
"46";"S";"de:09161:166";"de:09161:166";"Einbogen";"48,73114";"11,41509";"09161000";"Ingolstadt";"";"";"Served";"InOrder";"";"BEG";"-";"";""
"47";"Q";"de:09161:166:0:1";"de:09161:166";"1";"48,73088";"11,4147";"00000000";"-";"-";"-";"Served";"InOrder";"";"BEG";"-";"-";"-"
"48";"Q";"de:09161:166:0:2";"de:09161:166";"2";"48,73145";"11,4156";"00000000";"-";"-";"-";"Served";"InOrder";"";"BEG";"-";"-";"-"
"49";"S";"de:09161:1672";"de:09161:1672";"IN, Aufeldstraße";"48,71924";"11,37488";"09161000";"Ingolstadt";"";"";"Served";"InOrder";"";"BEG";"-";"";""
"50";"Q";"de:09161:1672:0:99";"de:09161:1672";"99";"48,71924";"11,37488";"00000000";"-";"-";"-";"Served";"InOrder";"";"BEG";"-";"-";"-"
"51";"S";"de:09161:1675";"de:09161:1675";"Zuchering, Friedhof";"48,7117";"11,40014";"09161000";"Ingolstadt";"-";"-";"Served";"Unknown";"";"BEG";"-";"-";"-"
"52";"Q";"de:09161:1675:0:1";"de:09161:1675";"1";"48,71172";"11,40018";"00000000";"-";"-";"-";"Unknown";"Unknown";"1";"BEG";"-";"-";"-"
"53";"Q";"de:09161:1675:0:2";"de:09161:1675";"2";"48,71165";"11,40007";"00000000";"-";"-";"-";"Unknown";"Unknown";"2";"BEG";"-";"-";"-"
"54";"S";"de:09161:1676";"de:09161:1676";"IN, Karlskroner Straße";"48,70955";"11,40628";"09161000";"Ingolstadt";"";"";"Served";"InOrder";"";"BEG";"-";"";""
"55";"Q";"de:09161:1676:0:10";"de:09161:1676";"10";"48,71094";"11,40642";"00000000";"-";"-";"-";"Unserved";"InOrder";"";"BEG";"-";"-";"-"
"56";"Q";"de:09161:1676:0:20";"de:09161:1676";"20";"48,71082";"11,40674";"00000000";"-";"-";"-";"Unserved";"InOrder";"";"BEG";"-";"-";"-"
"57";"Q";"de:09161:1676:0:99";"de:09161:1676";"99";"48,70955";"11,40625";"00000000";"-";"-";"-";"Served";"InOrder";"";"BEG";"-";"-";"-"
"58";"S";"de:09161:1677";"de:09161:1677";"IN, Ingolstadt Village";"48,78446";"11,47993";"09161000";"Ingolstadt";"-";"-";"Served";"Unknown";"";"BEG";"-";"-";"-"
"59";"Q";"de:09161:1677:0:99";"de:09161:1677";"99";"48,78446";"11,47993";"00000000";"-";"-";"-";"Unknown";"Unknown";"99";"BEG";"-";"-";"-"
"60";"S";"de:09161:1685";"de:09161:1685";"IN, Weiherfeld";"48,70519";"11,42529";"09161000";"Ingolstadt";"-";"-";"Served";"Unknown";"";"BEG";"-";"-";"-"
"61";"Q";"de:09161:1685:0:99";"de:09161:1685";"99";"48,70518";"11,42529";"00000000";"-";"-";"-";"Unknown";"Unknown";"99";"BEG";"-";"-";"-"
"62";"S";"de:09161:1710";"de:09161:1710";"IN, Petrus-Canisius-Schule";"48,77718";"11,39855";"09161000";"Ingolstadt";"-";"-";"Served";"Unknown";"";"BEG";"-";"-";"-"
"63";"Q";"de:09161:1710:0:99";"de:09161:1710";"99";"48,77717";"11,39857";"00000000";"-";"-";"-";"Unknown";"Unknown";"99";"BEG";"-";"-";"-"
"64";"S";"de:09161:1711";"de:09161:1711";"IN, Ungerneder Schule";"48,77542";"11,41085";"09161000";"Ingolstadt";"-";"-";"Served";"Unknown";"";"BEG";"-";"-";"-"
"65";"Q";"de:09161:1711:0:99";"de:09161:1711";"99";"48,77542";"11,41084";"00000000";"-";"-";"-";"Unknown";"Unknown";"99";"BEG";"-";"-";"-"
"66";"S";"de:09161:1714";"de:09161:1714";"IN, TV Nordwest";"48,77227";"11,39591";"09161000";"Ingolstadt";"-";"-";"Served";"Unknown";"";"BEG";"-";"-";"-"
"67";"Q";"de:09161:1714:0:99";"de:09161:1714";"99";"48,77227";"11,39589";"00000000";"-";"-";"-";"Unknown";"Unknown";"99";"BEG";"-";"-";"-"
"68";"S";"de:09161:1731";"de:09161:1731";"IN, Speckweg";"48,74067";"11,42578";"09161000";"Ingolstadt";"";"";"Served";"InOrder";"";"BEG";"-";"";""
"69";"Q";"de:09161:1731:0:1";"de:09161:1731";"1";"48,74078";"11,42573";"00000000";"-";"-";"-";"Served";"InOrder";"";"BEG";"-";"-";"-"
"70";"Q";"de:09161:1731:0:10";"de:09161:1731";"10";"48,7406";"11,42582";"00000000";"-";"-";"-";"Unserved";"InOrder";"";"BEG";"-";"-";"-"
"71";"Q";"de:09161:1731:0:2";"de:09161:1731";"2";"48,74052";"11,42583";"00000000";"-";"-";"-";"Served";"InOrder";"";"BEG";"-";"-";"-"
"72";"Q";"de:09161:1731:0:20";"de:09161:1731";"20";"48,74115";"11,42837";"00000000";"-";"-";"-";"Unserved";"InOrder";"";"BEG";"-";"-";"-"
"73";"S";"de:09161:1750";"de:09161:1750";"Ingolstadt Audi";"48,79049";"11,40745";"09161000";"Ingolstadt";"-";"-";"Served";"Unknown";"";"BEG";"-";"-";"-"
"74";"A";"de:09161:1750:1";"de:09161:1750";"30";"48,79161";"11,40665";"00000000";"-";"-";"-";"Unknown";"Unknown";"Bus";"BEG";"-";"-";"-"
"75";"A";"de:09161:1750:2";"de:09161:1750";"1";"48,79049";"11,4079";"00000000";"-";"-";"-";"Unknown";"Unknown";"Bahn";"BEG";"-";"-";"-"
"76";"A";"de:09161:1750:91";"de:09161:1750";"91";"48,79222";"11,40594";"00000000";"-";"-";"-";"Unknown";"Unknown";"Eing Nordwest";"BEG";"-";"-";"-"
"77";"A";"de:09161:1750:92";"de:09161:1750";"92";"48,78981";"11,40886";"00000000";"-";"-";"-";"Unknown";"Unknown";"Eing Südost";"BEG";"-";"-";"-"
"78";"Q";"de:09161:1750:1:1";"de:09161:1750:1";"1";"48,79183";"11,4062";"00000000";"-";"-";"-";"Unknown";"Unknown";"Bus 1";"BEG";"-";"-";"-"
"79";"Q";"de:09161:1750:1:2";"de:09161:1750:1";"2";"48,79173";"11,40651";"00000000";"-";"-";"-";"Unknown";"Unknown";"Bus 2";"BEG";"-";"-";"-"
"80";"Q";"de:09161:1750:1:3";"de:09161:1750:1";"3";"48,79164";"11,40683";"00000000";"-";"-";"-";"Unknown";"Unknown";"Bus 3";"BEG";"-";"-";"-"
"81";"Q";"de:09161:1750:1:4";"de:09161:1750:1";"4";"48,79155";"11,40715";"00000000";"-";"-";"-";"Unknown";"Unknown";"Bus 4";"BEG";"-";"-";"-"
"82";"Q";"de:09161:1750:1:5";"de:09161:1750:1";"5";"48,79148";"11,40709";"00000000";"-";"-";"-";"Unknown";"Unknown";"Bus 5";"BEG";"-";"-";"-"
"83";"Q";"de:09161:1750:1:6";"de:09161:1750:1";"6";"48,79156";"11,4068";"00000000";"-";"-";"-";"Unknown";"Unknown";"Bus 6";"BEG";"-";"-";"-"
"84";"Q";"de:09161:1750:1:7";"de:09161:1750:1";"7";"48,79166";"11,40646";"00000000";"-";"-";"-";"Unknown";"Unknown";"Bus 7";"BEG";"-";"-";"-"
"85";"Q";"de:09161:1750:1:8";"de:09161:1750:1";"8";"48,79177";"11,40613";"00000000";"-";"-";"-";"Unknown";"Unknown";"Bus 8";"BEG";"-";"-";"-"
"86";"Q";"de:09161:1750:2:1";"de:09161:1750:2";"1";"48,79042";"11,40831";"00000000";"-";"-";"-";"Unknown";"Unknown";"Gleis 1";"BEG";"-";"-";"-"
"87";"Q";"de:09161:1750:2:2";"de:09161:1750:2";"2";"48,79034";"11,40825";"00000000";"-";"-";"-";"Unknown";"Unknown";"Gleis 2";"BEG";"-";"-";"-"
"88";"S";"de:09161:1754";"de:09161:1754";"IN, Audi-Sportpark";"48,74342";"11,48398";"09161000";"Ingolstadt";"-";"-";"Served";"Unknown";"";"BEG";"-";"-";"-"
"89";"S";"de:09161:179";"de:09161:179";"IN, Eriagstraße";"48,7484";"11,47051";"09161000";"Ingolstadt";"-";"-";"Served";"Unknown";"";"BEG";"-";"-";"-"
"90";"Q";"de:09161:179:0:1";"de:09161:179";"1";"48,7484";"11,47072";"00000000";"-";"-";"-";"Unknown";"Unknown";"1";"BEG";"-";"-";"-"
"91";"Q";"de:09161:179:0:2";"de:09161:179";"2";"48,7484";"11,4703";"00000000";"-";"-";"-";"Unknown";"Unknown";"2";"BEG";"-";"-";"-"
"92";"S";"de:09161:180";"de:09161:180";"IN, Erletstraße";"48,74178";"11,44828";"09161000";"Ingolstadt";"";"";"Served";"InOrder";"";"BEG";"-";"";""
"93";"Q";"de:09161:180:0:1";"de:09161:180";"1";"48,7418";"11,44837";"00000000";"-";"-";"-";"Served";"InOrder";"";"BEG";"-";"-";"-"
"94";"Q";"de:09161:180:0:10";"de:09161:180";"10";"48,74178";"11,4468";"00000000";"-";"-";"-";"Unserved";"InOrder";"";"BEG";"-";"-";"-"
"95";"Q";"de:09161:180:0:2";"de:09161:180";"2";"48,74176";"11,44815";"00000000";"-";"-";"-";"Served";"InOrder";"";"BEG";"-";"-";"-"
"96";"Q";"de:09161:180:0:20";"de:09161:180";"20";"48,74187";"11,44683";"00000000";"-";"-";"-";"Unserved";"InOrder";"";"BEG";"-";"-";"-"
"97";"Q";"de:09161:180:0:40";"de:09161:180";"40";"48,74213";"11,44683";"00000000";"-";"-";"-";"Unserved";"InOrder";"";"BEG";"-";"-";"-"
"98";"S";"de:09161:1812";"de:09161:1812";"IN, Brunnerstraße";"48,72427";"11,4042";"09161000";"Ingolstadt";"-";"-";"Served";"Unknown";"";"BEG";"-";"-";"-"
"99";"Q";"de:09161:1812:0:1";"de:09161:1812";"1";"48,72392";"11,40398";"00000000";"-";"-";"-";"Unknown";"Unknown";"1";"BEG";"-";"-";"-"
"100";"Q";"de:09161:1812:0:2";"de:09161:1812";"2";"48,72461";"11,4045";"00000000";"-";"-";"-";"Unknown";"Unknown";"2";"BEG";"-";"-";"-"
"101";"S";"de:09161:1813";"de:09161:1813";"IN, Argulastraße";"48,72275";"11,40784";"09161000";"Ingolstadt";"-";"-";"Served";"Unknown";"";"BEG";"-";"-";"-"
"102";"Q";"de:09161:1813:0:99";"de:09161:1813";"99";"48,72275";"11,40785";"00000000";"-";"-";"-";"Unknown";"Unknown";"99";"BEG";"-";"-";"-"
"103";"S";"de:09161:1840";"de:09161:1840";"IN, Audi-Sportpark";"48,74572";"11,48279";"09161000";"Ingolstadt";"-";"-";"Served";"Unknown";"";"BEG";"-";"-";"-"
"104";"Q";"de:09161:1840:0:96";"de:09161:1840";"96";"48,74596";"11,48278";"00000000";"-";"-";"-";"Unknown";"Unknown";"96";"BEG";"-";"-";"-"
"105";"Q";"de:09161:1840:0:97";"de:09161:1840";"97";"48,7458";"11,48249";"00000000";"-";"-";"-";"Unknown";"Unknown";"97";"BEG";"-";"-";"-"
"106";"Q";"de:09161:1840:0:98";"de:09161:1840";"98";"48,74554";"11,48304";"00000000";"-";"-";"-";"Unknown";"Unknown";"98";"BEG";"-";"-";"-"
"107";"Q";"de:09161:1840:0:99";"de:09161:1840";"99";"48,74557";"11,48276";"00000000";"-";"-";"-";"Unknown";"Unknown";"99";"BEG";"-";"-";"-"
"108";"S";"de:09161:1842";"de:09161:1842";"Friedrichshofen, Ochsenmühlstr";"48,77976";"11,3619";"09161000";"Ingolstadt";"";"";"Served";"InOrder";"";"BEG";"-";"";""
"109";"Q";"de:09161:1842:0:1";"de:09161:1842";"1";"48,77993";"11,36209";"00000000";"-";"-";"-";"Served";"InOrder";"";"BEG";"-";"-";"-"
"110";"Q";"de:09161:1842:0:2";"de:09161:1842";"2";"48,77957";"11,36168";"00000000";"-";"-";"-";"Served";"InOrder";"";"BEG";"-";"-";"-"
"111";"S";"de:09161:1845";"de:09161:1845";"IN, Hauptbahnhof Ost";"48,7448";"11,43933";"09161000";"Ingolstadt";"";"";"Served";"InOrder";"";"BEG";"-";"";""
"112";"Q";"de:09161:1845:0:10";"de:09161:1845";"10";"48,74529";"11,44149";"00000000";"-";"-";"-";"Unserved";"InOrder";"";"BEG";"-";"-";"-"
"113";"Q";"de:09161:1845:0:99";"de:09161:1845";"99";"48,7448";"11,43933";"00000000";"-";"-";"-";"Served";"InOrder";"";"BEG";"-";"-";"-"
"114";"S";"de:09161:1847";"de:09161:1847";"IN, Audi-Tor 7";"48,79235";"11,4157";"09161000";"Ingolstadt";"-";"-";"Served";"Unknown";"";"BEG";"-";"-";"-"
"115";"Q";"de:09161:1847:0:1";"de:09161:1847";"1";"48,79236";"11,41569";"00000000";"-";"-";"-";"Unknown";"Unknown";"1";"BEG";"-";"-";"-"
"116";"Q";"de:09161:1847:0:2";"de:09161:1847";"2";"48,79236";"11,41572";"00000000";"-";"-";"-";"Unknown";"Unknown";"2";"BEG";"-";"-";"-"
"117";"S";"de:09161:1850";"de:09161:1850";"IN, Audi-Tor 3";"48,78171";"11,42357";"09161000";"Ingolstadt";"-";"-";"Served";"Unknown";"";"BEG";"-";"-";"-"
"118";"Q";"de:09161:1850:0:1";"de:09161:1850";"1";"48,78185";"11,42354";"00000000";"-";"-";"-";"Unknown";"Unknown";"1";"BEG";"-";"-";"-"
"119";"Q";"de:09161:1850:0:2";"de:09161:1850";"2";"48,78159";"11,42364";"00000000";"-";"-";"-";"Unknown";"Unknown";"2";"BEG";"-";"-";"-"
"120";"S";"de:09161:1851";"de:09161:1851";"IN, Audi-A56";"48,78347";"11,41823";"09161000";"Ingolstadt";"";"";"Served";"InOrder";"";"BEG";"-";"";""
"121";"Q";"de:09161:1851:0:1";"de:09161:1851";"1";"48,78345";"11,4183";"00000000";"-";"-";"-";"Served";"InOrder";"";"BEG";"-";"-";"-"
"122";"Q";"de:09161:1851:0:2";"de:09161:1851";"2";"48,78347";"11,41817";"00000000";"-";"-";"-";"Served";"InOrder";"";"BEG";"-";"-";"-"
"123";"S";"de:09161:1853";"de:09161:1853";"IN, Audi-T35/T23";"48,79313";"11,41324";"09161000";"Ingolstadt";"";"";"Served";"InOrder";"";"BEG";"-";"";""
"124";"Q";"de:09161:1853:0:1";"de:09161:1853";"1";"48,79322";"11,41297";"00000000";"-";"-";"-";"Served";"InOrder";"";"BEG";"-";"-";"-"
"125";"Q";"de:09161:1853:0:2";"de:09161:1853";"2";"48,79307";"11,41347";"00000000";"-";"-";"-";"Served";"InOrder";"";"BEG";"-";"-";"-"
"126";"S";"de:09161:1854";"de:09161:1854";"IN, Continental / Stadtwerke";"48,77669";"11,42492";"09161000";"Ingolstadt";"";"";"Unserved";"InOrder";"";"BEG";"-";"";""
"127";"Q";"de:09161:1854:0:1";"de:09161:1854";"1";"48,77673";"11,42494";"00000000";"-";"-";"-";"Unserved";"InOrder";"";"BEG";"-";"-";"-"
"128";"Q";"de:09161:1854:0:2";"de:09161:1854";"2";"48,77665";"11,42492";"00000000";"-";"-";"-";"Unserved";"InOrder";"";"BEG";"-";"-";"-"
"129";"S";"de:09161:1856";"de:09161:1856";"IN, Lentinger Straße";"48,79147";"11,45095";"09161000";"Ingolstadt";"-";"-";"Served";"Unknown";"";"BEG";"-";"-";"-"
"130";"Q";"de:09161:1856:0:99";"de:09161:1856";"99";"48,79148";"11,45095";"00000000";"-";"-";"-";"Unknown";"Unknown";"99";"BEG";"-";"-";"-"
"131";"S";"de:09161:1867";"de:09161:1867";"IN, Hans-Denck-Str.";"48,71788";"11,40368";"09161000";"Ingolstadt";"";"";"Served";"InOrder";"";"BEG";"-";"";""
"132";"Q";"de:09161:1867:0:1";"de:09161:1867";"1";"48,71798";"11,40352";"00000000";"-";"-";"-";"Served";"InOrder";"";"BEG";"-";"-";"-"
"133";"Q";"de:09161:1867:0:10";"de:09161:1867";"10";"48,7163";"11,40497";"00000000";"-";"-";"-";"Unserved";"InOrder";"";"BEG";"-";"-";"-"
"134";"Q";"de:09161:1867:0:2";"de:09161:1867";"2";"48,71778";"11,40383";"00000000";"-";"-";"-";"Served";"InOrder";"";"BEG";"-";"-";"-"
"135";"Q";"de:09161:1867:0:20";"de:09161:1867";"20";"48,71642";"11,40475";"00000000";"-";"-";"-";"Unserved";"InOrder";"";"BEG";"-";"-";"-"
"136";"S";"de:09161:187";"de:09161:187";"IN, Feselenstraße";"48,75414";"11,44116";"09161000";"Ingolstadt";"-";"-";"Served";"Unknown";"";"BEG";"-";"-";"-"
"137";"Q";"de:09161:187:0:1";"de:09161:187";"1";"48,7541";"11,44129";"00000000";"-";"-";"-";"Unknown";"Unknown";"1";"BEG";"-";"-";"-"
"138";"Q";"de:09161:187:0:2";"de:09161:187";"2";"48,75415";"11,44111";"00000000";"-";"-";"-";"Unknown";"Unknown";"2";"BEG";"-";"-";"-"
"139";"S";"de:09161:1870";"de:09161:1870";"IN, Kurt-Huber-Str./Goethestr.";"48,77223";"11,4542";"09161000";"Ingolstadt";"";"";"Unserved";"InOrder";"";"BEG";"-";"";""
"140";"Q";"de:09161:1870:0:2";"de:09161:1870";"2";"48,77222";"11,4542";"00000000";"-";"-";"-";"Unserved";"InOrder";"";"BEG";"-";"-";"-"
"141";"S";"de:09161:1892";"de:09161:1892";"IN, Steigerwaldstraße";"48,77477";"11,36914";"09161000";"Ingolstadt";"";"";"Served";"InOrder";"";"BEG";"-";"";"-"
"142";"Q";"de:09161:1892:0:99";"de:09161:1892";"99";"48,77477";"11,36913";"00000000";"-";"-";"-";"Served";"InOrder";"";"BEG";"-";"-";"-"
"143";"S";"de:09161:1907";"de:09161:1907";"Ingolstadt, LGS Eingang Ost";"48,77793";"11,3984";"09161000";"Ingolstadt";"";"";"Served";"InOrder";"";"BEG";"-";"";""
"144";"Q";"de:09161:1907:0:99";"de:09161:1907";"99";"48,7779";"11,39826";"00000000";"-";"-";"-";"Served";"InOrder";"";"BEG";"-";"-";"-"
"145";"S";"de:09161:201";"de:09161:201";"IN, Friedrich-Ebert-Straße";"48,77016";"11,4383";"09161000";"Ingolstadt";"-";"-";"Served";"Unknown";"";"BEG";"-";"-";"-"
"146";"Q";"de:09161:201:0:1";"de:09161:201";"1";"48,77003";"11,43831";"00000000";"-";"-";"-";"Unknown";"Unknown";"1";"BEG";"-";"-";"-"
"147";"Q";"de:09161:201:0:2";"de:09161:201";"2";"48,77032";"11,43827";"00000000";"-";"-";"-";"Unknown";"Unknown";"2";"BEG";"-";"-";"-"
"148";"S";"de:09161:202";"de:09161:202";"IN, Frueaufstraße";"48,7351";"11,44508";"09161000";"Ingolstadt";"";"";"Served";"InOrder";"";"BEG";"-";"";""
"149";"Q";"de:09161:202:0:1";"de:09161:202";"1";"48,73489";"11,44499";"00000000";"-";"-";"-";"Served";"InOrder";"";"BEG";"-";"-";"-"
"150";"Q";"de:09161:202:0:2";"de:09161:202";"2";"48,73531";"11,44521";"00000000";"-";"-";"-";"Served";"InOrder";"";"BEG";"-";"-";"-"
"151";"S";"de:09161:231";"de:09161:231";"IN, Gaimersheimer Straße";"48,77853";"11,40341";"09161000";"Ingolstadt";"";"";"Served";"InOrder";"";"BEG";"-";"";""
"152";"Q";"de:09161:231:0:1";"de:09161:231";"1";"48,77858";"11,40295";"00000000";"-";"-";"-";"Served";"InOrder";"";"BEG";"-";"-";"-"
"153";"Q";"de:09161:231:0:2";"de:09161:231";"2";"48,77849";"11,40383";"00000000";"-";"-";"-";"Served";"InOrder";"";"BEG";"-";"-";"-"
"154";"S";"de:09161:232";"de:09161:232";"IN, Ganghoferstraße";"48,76797";"11,44926";"09161000";"Ingolstadt";"";"";"Served";"InOrder";"";"BEG";"-";"";""
"155";"Q";"de:09161:232:0:1";"de:09161:232";"1";"48,76797";"11,44941";"00000000";"-";"-";"-";"Served";"InOrder";"";"BEG";"-";"-";"-"
"156";"Q";"de:09161:232:0:2";"de:09161:232";"2";"48,76796";"11,44911";"00000000";"-";"-";"-";"Served";"InOrder";"";"BEG";"-";"-";"-"
"157";"S";"de:09161:244";"de:09161:244";"IN, Georg-Heiss-Straße";"48,71897";"11,43053";"09161000";"Ingolstadt";"";"";"Served";"InOrder";"";"BEG";"-";"";""
"158";"Q";"de:09161:244:0:1";"de:09161:244";"1";"48,71878";"11,43018";"00000000";"-";"-";"-";"Served";"InOrder";"";"BEG";"-";"-";"-"
"159";"Q";"de:09161:244:0:10";"de:09161:244";"10";"48,71997";"11,42971";"00000000";"-";"-";"-";"Unserved";"InOrder";"";"BEG";"-";"-";"-"
"160";"Q";"de:09161:244:0:2";"de:09161:244";"2";"48,71926";"11,43059";"00000000";"-";"-";"-";"Served";"InOrder";"";"BEG";"-";"-";"-"
"161";"Q";"de:09161:244:0:20";"de:09161:244";"20";"48,72005";"11,42971";"00000000";"-";"-";"-";"Unserved";"InOrder";"";"BEG";"-";"-";"-"
"162";"Q";"de:09161:244:0:3";"de:09161:244";"3";"48,71917";"11,43058";"00000000";"-";"-";"-";"Served";"InOrder";"";"BEG";"-";"-";"-"
"163";"Q";"de:09161:244:0:4";"de:09161:244";"4";"48,71858";"11,43112";"00000000";"-";"-";"-";"Served";"InOrder";"";"BEG";"-";"-";"-"
"164";"S";"de:09161:259";"de:09161:259";"IN, Grundnerstraße";"48,77922";"11,45456";"09161000";"Ingolstadt";"";"";"Served";"InOrder";"";"BEG";"-";"";""
"165";"Q";"de:09161:259:0:99";"de:09161:259";"99";"48,77922";"11,45456";"00000000";"-";"-";"-";"Served";"InOrder";"";"BEG";"-";"-";"-"
"166";"S";"de:09161:262";"de:09161:262";"IN, Gutenbergstraße";"48,77158";"11,45672";"09161000";"Ingolstadt";"";"";"Served";"InOrder";"";"BEG";"-";"";""
"167";"Q";"de:09161:262:0:99";"de:09161:262";"99";"48,77158";"11,4567";"00000000";"-";"-";"-";"Served";"InOrder";"";"BEG";"-";"-";"-"
"168";"S";"de:09161:266";"de:09161:266";"IN, Hackerstraße";"48,77299";"11,48466";"09161000";"Ingolstadt";"";"";"Served";"InOrder";"";"BEG";"-";"";""
"169";"Q";"de:09161:266:0:1";"de:09161:266";"1";"48,773";"11,48519";"00000000";"-";"-";"-";"Served";"InOrder";"";"BEG";"-";"-";"-"
"170";"Q";"de:09161:266:0:2";"de:09161:266";"2";"48,77293";"11,48418";"00000000";"-";"-";"-";"Served";"InOrder";"";"BEG";"-";"-";"-"
"171";"S";"de:09161:281";"de:09161:281";"IN, Hans-Kuhn-Straße";"48,72689";"11,41335";"09161000";"Ingolstadt";"-";"-";"Served";"Unknown";"";"BEG";"-";"-";"-"
"172";"Q";"de:09161:281:0:1";"de:09161:281";"1";"48,72678";"11,41337";"00000000";"-";"-";"-";"Unknown";"Unknown";"1";"BEG";"-";"-";"-"
"173";"Q";"de:09161:281:0:2";"de:09161:281";"2";"48,72696";"11,41334";"00000000";"-";"-";"-";"Unknown";"Unknown";"2";"BEG";"-";"-";"-"
"174";"S";"de:09161:2907";"de:09161:2907";"IN, Existenzgründerzentrum";"48,78207";"11,47492";"09161000";"Ingolstadt";"-";"-";"Served";"Unknown";"";"BEG";"-";"-";"-"
"175";"Q";"de:09161:2907:0:1";"de:09161:2907";"99";"48,78207";"11,47494";"00000000";"-";"-";"-";"Unknown";"Unknown";"99";"BEG";"-";"-";"-"
"176";"S";"de:09161:3";"de:09161:3";"IN, Rosenschwaigstraße";"48,71872";"11,37174";"09161000";"Ingolstadt";"";"";"Served";"InOrder";"";"BEG";"-";"";""
"177";"Q";"de:09161:3:0:1";"de:09161:3";"1";"48,71869";"11,37174";"00000000";"-";"-";"-";"Served";"InOrder";"";"BEG";"-";"-";"-"
"178";"Q";"de:09161:3:0:2";"de:09161:3";"2";"48,71876";"11,37172";"00000000";"-";"-";"-";"Served";"InOrder";"";"BEG";"-";"-";"-"
"179";"S";"de:09161:304";"de:09161:304";"IN, Herschelstraße";"48,77567";"11,40158";"09161000";"Ingolstadt";"";"";"Served";"InOrder";"";"BEG";"-";"";""
"180";"Q";"de:09161:304:0:99";"de:09161:304";"99";"48,77567";"11,4016";"00000000";"-";"-";"-";"Served";"InOrder";"";"BEG";"-";"-";"-"
"181";"S";"de:09161:308";"de:09161:308";"IN, Heysestraße";"48,76727";"11,44394";"09161000";"Ingolstadt";"-";"-";"Served";"Unknown";"";"BEG";"-";"-";"-"
"182";"Q";"de:09161:308:0:1";"de:09161:308";"1";"48,76729";"11,4441";"00000000";"-";"-";"-";"Unknown";"Unknown";"1";"BEG";"-";"-";"-"
"183";"Q";"de:09161:308:0:2";"de:09161:308";"2";"48,76723";"11,44377";"00000000";"-";"-";"-";"Unknown";"Unknown";"2";"BEG";"-";"-";"-"
"184";"S";"de:09161:325";"de:09161:325";"IN, Hugo-Wolf-Straße";"48,77269";"11,40986";"09161000";"Ingolstadt";"";"";"Served";"InOrder";"";"BEG";"-";"";""
"185";"Q";"de:09161:325:0:1";"de:09161:325";"1";"48,77276";"11,40983";"00000000";"-";"-";"-";"Served";"InOrder";"";"BEG";"-";"-";"-"
"186";"Q";"de:09161:325:0:2";"de:09161:325";"2";"48,77259";"11,40985";"00000000";"-";"-";"-";"Unserved";"InOrder";"";"BEG";"-";"-";"-"
"187";"S";"de:09161:328";"de:09161:328";"IN, Humboldtstraße";"48,75713";"11,40046";"09161000";"Ingolstadt";"";"";"Served";"InOrder";"";"BEG";"-";"";""
"188";"Q";"de:09161:328:0:99";"de:09161:328";"99";"48,75713";"11,40046";"00000000";"-";"-";"-";"Served";"InOrder";"";"BEG";"-";"-";"-"
"189";"S";"de:09161:331";"de:09161:331";"IN, Hundsbergerstraße";"48,72943";"11,40927";"09161000";"Ingolstadt";"";"";"Served";"InOrder";"";"BEG";"-";"";""
"190";"Q";"de:09161:331:0:1";"de:09161:331";"1";"48,72943";"11,40945";"00000000";"-";"-";"-";"Served";"InOrder";"";"BEG";"-";"-";"-"
"191";"Q";"de:09161:331:0:2";"de:09161:331";"2";"48,72943";"11,40911";"00000000";"-";"-";"-";"Served";"InOrder";"";"BEG";"-";"-";"-"
"192";"S";"de:09161:353";"de:09161:353";"IN, Karlshulder Straße";"48,72315";"11,42402";"09161000";"Ingolstadt";"";"";"Served";"InOrder";"";"BEG";"-";"";""
"193";"Q";"de:09161:353:0:1";"de:09161:353";"1";"48,72313";"11,42399";"00000000";"-";"-";"-";"Served";"InOrder";"";"BEG";"-";"-";"-"
"194";"Q";"de:09161:353:0:10";"de:09161:353";"10";"48,72239";"11,42048";"00000000";"-";"-";"-";"Unserved";"InOrder";"";"BEG";"-";"-";"-"
"195";"Q";"de:09161:353:0:2";"de:09161:353";"2";"48,72317";"11,42405";"00000000";"-";"-";"-";"Served";"InOrder";"";"BEG";"-";"-";"-"
"196";"Q";"de:09161:353:0:20";"de:09161:353";"20";"48,72228";"11,42058";"00000000";"-";"-";"-";"Unserved";"InOrder";"";"BEG";"-";"-";"-"
"197";"S";"de:09161:4";"de:09161:4";"IN, Weiherstraße";"48,71536";"11,3725";"09161000";"Ingolstadt";"";"";"Served";"InOrder";"";"BEG";"-";"";""
"198";"Q";"de:09161:4:0:1";"de:09161:4";"1";"48,71509";"11,37273";"00000000";"-";"-";"-";"Served";"InOrder";"";"BEG";"-";"-";"-"
"199";"Q";"de:09161:4:0:2";"de:09161:4";"2";"48,71559";"11,37233";"00000000";"-";"-";"-";"Served";"InOrder";"";"BEG";"-";"-";"-"
"200";"S";"de:09161:41";"de:09161:41";"IN, Am Hasenbergl";"48,70989";"11,40042";"09161000";"Ingolstadt";"";"";"Served";"InOrder";"";"BEG";"-";"";""
"201";"Q";"de:09161:41:0:1";"de:09161:41";"1";"48,71004";"11,40047";"00000000";"-";"-";"-";"Served";"InOrder";"";"BEG";"-";"-";"-"
"202";"Q";"de:09161:41:0:2";"de:09161:41";"2";"48,70974";"11,40031";"00000000";"-";"-";"-";"Served";"InOrder";"";"BEG";"-";"-";"-"
"203";"S";"de:09161:442";"de:09161:442";"IN, Langgasse";"48,73838";"11,41514";"09161000";"Ingolstadt";"";"";"Served";"InOrder";"";"BEG";"-";"";""
"204";"Q";"de:09161:442:0:1";"de:09161:442";"1";"48,73832";"11,41508";"00000000";"-";"-";"-";"Served";"InOrder";"";"BEG";"-";"-";"-"
"205";"Q";"de:09161:442:0:2";"de:09161:442";"2";"48,73844";"11,41522";"00000000";"-";"-";"-";"Served";"InOrder";"";"BEG";"-";"-";"-"
"206";"S";"de:09161:4438";"de:09161:4438";"IN, Isaak-Newton-Straße";"48,7835";"11,47615";"09161000";"Ingolstadt";"-";"-";"Served";"Unknown";"";"BEG";"-";"-";"-"
"207";"Q";"de:09161:4438:0:1";"de:09161:4438";"99";"48,78353";"11,47599";"00000000";"-";"-";"-";"Unknown";"Unknown";"99";"BEG";"-";"-";"-"
"208";"Q";"de:09161:4438:0:2";"de:09161:4438";"2";"48,78344";"11,47631";"00000000";"-";"-";"-";"Unknown";"Unknown";"2";"BEG";"-";"-";"-"
"209";"S";"de:09161:4492";"de:09161:4492";"IN, Aubürgerstraße";"48,73093";"11,4414";"09161000";"Ingolstadt";"";"";"Served";"InOrder";"";"BEG";"-";"";""
"210";"Q";"de:09161:4492:0:1";"de:09161:4492";"1";"48,73089";"11,44141";"00000000";"-";"-";"-";"Served";"InOrder";"";"BEG";"-";"-";"-"
"211";"Q";"de:09161:4492:0:2";"de:09161:4492";"2";"48,73096";"11,4414";"00000000";"-";"-";"-";"Served";"InOrder";"";"BEG";"-";"-";"-"
"212";"Q";"de:09161:738:0:10";"de:09161:4492";"10";"48,73221";"11,44121";"00000000";"-";"-";"-";"Unserved";"InOrder";"";"BEG";"-";"-";"-"
"213";"Q";"de:09161:738:0:20";"de:09161:4492";"20";"48,73231";"11,44121";"00000000";"-";"-";"-";"Unserved";"InOrder";"";"BEG";"-";"-";"-"
"214";"S";"de:09161:45";"de:09161:45";"IN, Am Neubruch";"48,76871";"11,49064";"09161000";"Ingolstadt";"";"";"Served";"InOrder";"";"BEG";"-";"";""
"215";"Q";"de:09161:45:0:1";"de:09161:45";"1";"48,7687";"11,48952";"00000000";"-";"-";"-";"Served";"InOrder";"";"BEG";"-";"-";"-"
"216";"Q";"de:09161:45:0:2";"de:09161:45";"2";"48,7687";"11,49175";"00000000";"-";"-";"-";"Served";"InOrder";"";"BEG";"-";"-";"-"
"217";"S";"de:09161:46";"de:09161:46";"IN, Am Pulverl";"48,74078";"11,41956";"09161000";"Ingolstadt";"";"";"Served";"InOrder";"";"BEG";"-";"";""
"218";"Q";"de:09161:46:0:1";"de:09161:46";"1";"48,74067";"11,41947";"00000000";"-";"-";"-";"Served";"InOrder";"";"BEG";"-";"-";"-"
"219";"Q";"de:09161:46:0:2";"de:09161:46";"2";"48,7409";"11,41965";"00000000";"-";"-";"-";"Served";"InOrder";"";"BEG";"-";"-";"-"
"220";"S";"de:09161:465";"de:09161:465";"IN, Stargarder Straße";"48,76067";"11,44195";"09161000";"Ingolstadt";"-";"-";"Served";"Unknown";"";"BEG";"-";"-";"-"
"221";"Q";"de:09161:465:0:1";"de:09161:465";"1";"48,76067";"11,44195";"00000000";"-";"-";"-";"Unknown";"Unknown";"1";"BEG";"-";"-";"-"
"222";"S";"de:09161:468";"de:09161:468";"IN, Linnestraße";"48,76002";"11,40948";"09161000";"Ingolstadt";"";"";"Served";"InOrder";"";"BEG";"-";"";""
"223";"Q";"de:09161:468:0:1";"de:09161:468";"1";"48,76019";"11,40962";"00000000";"-";"-";"-";"Served";"InOrder";"";"BEG";"-";"-";"-"
"224";"Q";"de:09161:468:0:2";"de:09161:468";"2";"48,75987";"11,40932";"00000000";"-";"-";"-";"Served";"InOrder";"";"BEG";"-";"-";"-"
"225";"S";"de:09161:473";"de:09161:473";"Mailing, Schule";"48,77254";"11,48102";"09161000";"Ingolstadt";"";"";"Served";"InOrder";"";"BEG";"-";"";""
"226";"Q";"de:09161:473:0:1";"de:09161:473";"1";"48,77248";"11,48086";"00000000";"-";"-";"-";"Served";"InOrder";"";"BEG";"-";"-";"-"
"227";"Q";"de:09161:473:0:2";"de:09161:473";"2";"48,77261";"11,48112";"00000000";"-";"-";"-";"Served";"InOrder";"";"BEG";"-";"-";"-"
"228";"S";"de:09161:505";"de:09161:505";"IN, Marienplatz";"48,76969";"11,47145";"09161000";"Ingolstadt";"";"";"Served";"InOrder";"";"BEG";"-";"";""
"229";"Q";"de:09161:505:0:1";"de:09161:505";"1";"48,76961";"11,47102";"00000000";"-";"-";"-";"Served";"InOrder";"";"BEG";"-";"-";"-"
"230";"Q";"de:09161:505:0:2";"de:09161:505";"2";"48,76976";"11,47182";"00000000";"-";"-";"-";"Served";"InOrder";"";"BEG";"-";"-";"-"
"231";"S";"de:09161:508";"de:09161:508";"IN, Martin-Hemm-Straße";"48,73436";"11,44291";"09161000";"Ingolstadt";"";"";"Served";"InOrder";"";"BEG";"-";"";""
"232";"Q";"de:09161:508:0:99";"de:09161:508";"99";"48,73436";"11,44297";"00000000";"-";"-";"-";"Served";"InOrder";"";"BEG";"-";"-";"-"
"233";"S";"de:09161:51";"de:09161:51";"IN, Am Sunder";"48,71799";"11,42408";"09161000";"Ingolstadt";"";"";"Served";"InOrder";"";"BEG";"-";"";""
"234";"Q";"de:09161:51:0:1";"de:09161:51";"1";"48,71819";"11,42441";"00000000";"-";"-";"-";"Served";"InOrder";"";"BEG";"-";"-";"-"
"235";"Q";"de:09161:51:0:10";"de:09161:51";"10";"48,71737";"11,42328";"00000000";"-";"-";"-";"Unserved";"InOrder";"";"BEG";"-";"-";"-"
"236";"Q";"de:09161:51:0:2";"de:09161:51";"2";"48,71778";"11,42374";"00000000";"-";"-";"-";"Served";"InOrder";"";"BEG";"-";"-";"-"
"237";"Q";"de:09161:51:0:20";"de:09161:51";"20";"48,7173";"11,42335";"00000000";"-";"-";"-";"Unserved";"InOrder";"";"BEG";"-";"-";"-"
"238";"S";"de:09161:512";"de:09161:512";"IN, Maximilianstraße";"48,7431";"11,42759";"09161000";"Ingolstadt";"";"";"Served";"InOrder";"";"BEG";"-";"";""
"239";"Q";"de:09161:512:0:1";"de:09161:512";"1";"48,74311";"11,42786";"00000000";"-";"-";"-";"Served";"InOrder";"";"BEG";"-";"-";"-"
"240";"Q";"de:09161:512:0:10";"de:09161:512";"10";"48,74324";"11,42511";"00000000";"-";"-";"-";"Unserved";"InOrder";"";"BEG";"-";"-";"-"
"241";"Q";"de:09161:512:0:2";"de:09161:512";"2";"48,74308";"11,42733";"00000000";"-";"-";"-";"Served";"InOrder";"";"BEG";"-";"-";"-"
"242";"S";"de:09161:519";"de:09161:519";"IN, Messerschmittstraße";"48,74772";"11,46472";"09161000";"Ingolstadt";"";"";"Served";"InOrder";"";"BEG";"-";"";""
"243";"Q";"de:09161:519:0:1";"de:09161:519";"1";"48,74766";"11,46463";"00000000";"-";"-";"-";"Served";"InOrder";"";"BEG";"-";"-";"-"
"244";"Q";"de:09161:519:0:2";"de:09161:519";"2";"48,74776";"11,46479";"00000000";"-";"-";"-";"Served";"InOrder";"";"BEG";"-";"-";"-"
"245";"S";"de:09161:527";"de:09161:527";"IN, Müllverwertungsanlage";"48,76586";"11,49103";"09161000";"Ingolstadt";"";"";"Served";"InOrder";"";"BEG";"-";"";""
"246";"Q";"de:09161:527:0:99";"de:09161:527";"99";"48,76586";"11,49102";"00000000";"-";"-";"-";"Served";"InOrder";"";"BEG";"-";"-";"-"
"247";"S";"de:09161:562";"de:09161:562";"IN, Oberstimmer Straße";"48,71064";"11,40389";"09161000";"Ingolstadt";"";"";"Served";"InOrder";"";"BEG";"-";"";""
"248";"Q";"de:09161:562:0:1";"de:09161:562";"1";"48,71065";"11,40381";"00000000";"-";"-";"-";"Served";"InOrder";"";"BEG";"-";"-";"-"
"249";"Q";"de:09161:562:0:2";"de:09161:562";"2";"48,71062";"11,40397";"00000000";"-";"-";"-";"Served";"InOrder";"";"BEG";"-";"-";"-"
"250";"S";"de:09161:564";"de:09161:564";"IN, Osnabrücker Straße";"48,73619";"11,4306";"09161000";"Ingolstadt";"";"";"Served";"InOrder";"";"BEG";"-";"";""
"251";"Q";"de:09161:564:0:2";"de:09161:564";"2";"48,73618";"11,43059";"00000000";"-";"-";"-";"Served";"InOrder";"";"BEG";"-";"-";"-"
"252";"S";"de:09161:566";"de:09161:566";"IN, Ostfriedhof";"48,76795";"11,47577";"09161000";"Ingolstadt";"";"";"Unserved";"InOrder";"";"BEG";"-";"";""
"253";"S";"de:09161:580";"de:09161:580";"IN, Peter-Steuart-Heim";"48,77705";"11,40171";"09161000";"Ingolstadt";"-";"-";"Served";"Unknown";"";"BEG";"-";"-";"-"
"254";"Q";"de:09161:580:0:1";"de:09161:580";"1";"48,77692";"11,40169";"00000000";"-";"-";"-";"Unknown";"Unknown";"1";"BEG";"-";"-";"-"
"255";"Q";"de:09161:580:0:2";"de:09161:580";"2";"48,77716";"11,40171";"00000000";"-";"-";"-";"Unknown";"Unknown";"2";"BEG";"-";"-";"-"
"256";"S";"de:09161:581";"de:09161:581";"IN, Pettenkoferstraße";"48,75616";"11,44419";"09161000";"Ingolstadt";"";"";"Served";"InOrder";"";"BEG";"-";"";""
"257";"Q";"de:09161:581:0:1";"de:09161:581";"1";"48,75571";"11,44374";"00000000";"-";"-";"-";"Served";"InOrder";"";"BEG";"-";"-";"-"
"258";"Q";"de:09161:581:0:10";"de:09161:581";"10";"48,75663";"11,44407";"00000000";"-";"-";"-";"Unserved";"InOrder";"";"BEG";"-";"-";"-"
"259";"Q";"de:09161:581:0:2";"de:09161:581";"2";"48,7556";"11,4436";"00000000";"-";"-";"-";"Served";"InOrder";"";"BEG";"-";"-";"-"
"260";"Q";"de:09161:581:0:20";"de:09161:581";"20";"48,75627";"11,44535";"00000000";"-";"-";"-";"Unserved";"InOrder";"";"BEG";"-";"-";"-"
"261";"S";"de:09161:613";"de:09161:613";"IN, Regensburger Straße";"48,76859";"11,45314";"09161000";"Ingolstadt";"";"";"Served";"InOrder";"";"BEG";"-";"";""
"262";"Q";"de:09161:613:0:1";"de:09161:613";"1";"48,76867";"11,45369";"00000000";"-";"-";"-";"Served";"InOrder";"";"BEG";"-";"-";"-"
"263";"Q";"de:09161:613:0:10";"de:09161:613";"10";"48,76833";"11,45252";"00000000";"-";"-";"-";"Unserved";"InOrder";"";"BEG";"-";"-";"-"
"264";"Q";"de:09161:613:0:2";"de:09161:613";"2";"48,76866";"11,4534";"00000000";"-";"-";"-";"Served";"InOrder";"";"BEG";"-";"-";"-"
"265";"Q";"de:09161:613:0:20";"de:09161:613";"20";"48,76868";"11,45302";"00000000";"-";"-";"-";"Unserved";"InOrder";"";"BEG";"-";"-";"-"
"266";"S";"de:09161:643";"de:09161:643";"IN, Schellingstraße";"48,76907";"11,46413";"09161000";"Ingolstadt";"";"";"Served";"InOrder";"";"BEG";"-";"";""
"267";"Q";"de:09161:643:0:1";"de:09161:643";"1";"48,76912";"11,46485";"00000000";"-";"-";"-";"Served";"InOrder";"";"BEG";"-";"-";"-"
"268";"Q";"de:09161:643:0:2";"de:09161:643";"2";"48,769";"11,46346";"00000000";"-";"-";"-";"Served";"InOrder";"";"BEG";"-";"-";"-"
"269";"S";"de:09161:644";"de:09161:644";"IN, Schergweg";"48,72268";"11,40208";"09161000";"Ingolstadt";"";"";"Served";"InOrder";"";"BEG";"-";"";""
"270";"Q";"de:09161:644:0:1";"de:09161:644";"1";"48,72267";"11,40213";"00000000";"-";"-";"-";"Served";"InOrder";"";"BEG";"-";"-";"-"
"271";"Q";"de:09161:644:0:2";"de:09161:644";"2";"48,72271";"11,40204";"00000000";"-";"-";"-";"Served";"InOrder";"";"BEG";"-";"-";"-"
"272";"S";"de:09161:652";"de:09161:652";"IN, Schrobenhausener Straße";"48,74121";"11,41409";"09161000";"Ingolstadt";"-";"-";"Served";"Unknown";"";"BEG";"-";"-";"-"
"273";"Q";"de:09161:652:0:1";"de:09161:652";"1";"48,74134";"11,41446";"00000000";"-";"-";"-";"Unknown";"Unknown";"1";"BEG";"-";"-";"-"
"274";"Q";"de:09161:652:0:2";"de:09161:652";"2";"48,74158";"11,41543";"00000000";"-";"-";"-";"Unknown";"Unknown";"2";"BEG";"-";"-";"-"
"275";"Q";"de:09161:652:0:3";"de:09161:652";"3";"48,74089";"11,413";"00000000";"-";"-";"-";"Unknown";"Unknown";"3";"BEG";"-";"-";"-"
"276";"Q";"de:09161:652:0:4";"de:09161:652";"4";"48,74097";"11,41331";"00000000";"-";"-";"-";"Unknown";"Unknown";"4";"BEG";"-";"-";"-"
"277";"S";"de:09161:668";"de:09161:668";"Seehof";"48,715";"11,42246";"09161000";"Ingolstadt";"";"";"Served";"InOrder";"";"BEG";"-";"";""
"278";"Q";"de:09161:668:0:1";"de:09161:668";"1";"48,71461";"11,42219";"00000000";"-";"-";"-";"Served";"InOrder";"";"BEG";"-";"-";"-"
"279";"Q";"de:09161:668:0:10";"de:09161:668";"10";"48,71409";"11,42136";"00000000";"-";"-";"-";"Unserved";"InOrder";"";"BEG";"-";"-";"-"
"280";"Q";"de:09161:668:0:2";"de:09161:668";"2";"48,71538";"11,42274";"00000000";"-";"-";"-";"Served";"InOrder";"";"BEG";"-";"-";"-"
"281";"Q";"de:09161:668:0:20";"de:09161:668";"20";"48,71401";"11,42379";"00000000";"-";"-";"-";"Unserved";"InOrder";"";"BEG";"-";"-";"-"
"282";"S";"de:09161:671";"de:09161:671";"IN, Seidelbaststraße";"48,77108";"11,47702";"09161000";"Ingolstadt";"";"";"Served";"InOrder";"";"BEG";"-";"";""
"283";"Q";"de:09161:671:0:1";"de:09161:671";"1";"48,77105";"11,47687";"00000000";"-";"-";"-";"Served";"InOrder";"";"BEG";"-";"-";"-"
"284";"Q";"de:09161:671:0:2";"de:09161:671";"2";"48,7711";"11,47715";"00000000";"-";"-";"-";"Served";"InOrder";"";"BEG";"-";"-";"-"
"285";"S";"de:09161:676";"de:09161:676";"IN, Spitalwaldstraße";"48,7263";"11,4087";"09161000";"Ingolstadt";"";"";"Served";"InOrder";"";"BEG";"-";"";""
"286";"Q";"de:09161:676:0:1";"de:09161:676";"1";"48,72632";"11,40895";"00000000";"-";"-";"-";"Served";"InOrder";"";"BEG";"-";"-";"-"
"287";"Q";"de:09161:676:0:2";"de:09161:676";"2";"48,72628";"11,40843";"00000000";"-";"-";"-";"Served";"InOrder";"";"BEG";"-";"-";"-"
"288";"S";"de:09161:680";"de:09161:680";"IN, St.-Martins-Platz";"48,77243";"11,48887";"09161000";"Ingolstadt";"";"";"Served";"InOrder";"";"BEG";"-";"";""
"289";"Q";"de:09161:680:0:10";"de:09161:680";"10";"48,77352";"11,48886";"00000000";"-";"-";"-";"Unserved";"InOrder";"";"BEG";"-";"-";"-"
"290";"Q";"de:09161:680:0:2";"de:09161:680";"2";"48,77249";"11,489";"00000000";"-";"-";"-";"Served";"InOrder";"";"BEG";"-";"-";"-"
"291";"Q";"de:09161:680:0:20";"de:09161:680";"20";"48,77357";"11,48791";"00000000";"-";"-";"-";"Served";"InOrder";"";"BEG";"-";"-";"-"
"292";"Q";"de:09161:680:0:4";"de:09161:680";"4";"48,7724";"11,48873";"00000000";"-";"-";"-";"Served";"InOrder";"";"BEG";"-";"-";"-"
"293";"S";"de:09161:709";"de:09161:709";"IN, Tassilostraße";"48,74604";"11,45223";"09161000";"Ingolstadt";"";"";"Served";"InOrder";"";"BEG";"-";"";""
"294";"Q";"de:09161:709:0:1";"de:09161:709";"1";"48,74601";"11,45219";"00000000";"-";"-";"-";"Served";"InOrder";"";"BEG";"-";"-";"-"
"295";"Q";"de:09161:709:0:2";"de:09161:709";"2";"48,74607";"11,4522";"00000000";"-";"-";"-";"Served";"InOrder";"";"BEG";"-";"-";"-"
"296";"S";"de:09161:718";"de:09161:718";"IN, Telemannstraße";"48,77106";"11,41373";"09161000";"Ingolstadt";"";"";"Served";"InOrder";"";"BEG";"-";"";""
"297";"Q";"de:09161:718:0:1";"de:09161:718";"1";"48,77136";"11,41353";"00000000";"-";"-";"-";"Served";"InOrder";"";"BEG";"-";"-";"-"
"298";"Q";"de:09161:718:0:2";"de:09161:718";"2";"48,77072";"11,41397";"00000000";"-";"-";"-";"Served";"InOrder";"";"BEG";"-";"-";"-"
"299";"S";"de:09161:720";"de:09161:720";"IN, Theodor-Heuss-Brücke";"48,77937";"11,43531";"09161000";"Ingolstadt";"-";"-";"Served";"Unknown";"";"BEG";"-";"-";"-"
"300";"Q";"de:09161:720:0:1";"de:09161:720";"1";"48,77942";"11,43535";"00000000";"-";"-";"-";"Unknown";"Unknown";"1";"BEG";"-";"-";"-"
"301";"Q";"de:09161:720:0:2";"de:09161:720";"2";"48,77928";"11,43525";"00000000";"-";"-";"-";"Unknown";"Unknown";"2";"BEG";"-";"-";"-"
"302";"S";"de:09161:723";"de:09161:723";"IN, Ungernederstraße";"48,77634";"11,40815";"09161000";"Ingolstadt";"";"";"Served";"InOrder";"";"BEG";"-";"";""
"303";"Q";"de:09161:723:0:1";"de:09161:723";"1";"48,77673";"11,40736";"00000000";"-";"-";"-";"Served";"InOrder";"";"BEG";"-";"-";"-"
"304";"Q";"de:09161:723:0:2";"de:09161:723";"2";"48,77591";"11,40888";"00000000";"-";"-";"-";"Served";"InOrder";"";"BEG";"-";"-";"-"
"305";"S";"de:09161:725";"de:09161:725";"IN, Unteranger";"48,7211";"11,43682";"09161000";"Ingolstadt";"";"";"Served";"InOrder";"";"BEG";"-";"";""
"306";"Q";"de:09161:725:0:1";"de:09161:725";"1";"48,72133";"11,43751";"00000000";"-";"-";"-";"Served";"InOrder";"";"BEG";"-";"-";"-"
"307";"Q";"de:09161:725:0:2";"de:09161:725";"2";"48,72084";"11,43612";"00000000";"-";"-";"-";"Served";"InOrder";"";"BEG";"-";"-";"-"
"308";"S";"de:09161:7329";"de:09161:7329";"IN, Schröplerstraße";"48,74824";"11,44723";"09161000";"Ingolstadt";"";"";"Served";"InOrder";"";"BEG";"-";"";""
"309";"Q";"de:09161:655:0:10";"de:09161:7329";"10";"48,74808";"11,44757";"00000000";"-";"-";"-";"Unserved";"InOrder";"";"BEG";"-";"-";"-"
"310";"Q";"de:09161:7329:0:1";"de:09161:7329";"1";"48,74818";"11,44725";"00000000";"-";"-";"-";"Served";"InOrder";"";"BEG";"-";"-";"-"
"311";"Q";"de:09161:7329:0:2";"de:09161:7329";"2";"48,7483";"11,44723";"00000000";"-";"-";"-";"Served";"InOrder";"";"BEG";"-";"-";"-"
"312";"Q";"de:09161:7329:0:20";"de:09161:7329";"20";"48,74805";"11,44767";"00000000";"-";"-";"-";"Unserved";"InOrder";"";"BEG";"-";"-";"-"
"313";"S";"de:09161:7416";"de:09161:7416";"IN, Sportzentrum Nordost";"48,7648";"11,45827";"09161000";"Ingolstadt";"-";"-";"Served";"Unknown";"";"BEG";"-";"-";"-"
"314";"Q";"de:09161:7416:0:1";"de:09161:7416";"99";"48,76479";"11,45827";"00000000";"-";"-";"-";"Unknown";"Unknown";"99";"BEG";"-";"-";"-"
"315";"S";"de:09161:7417";"de:09161:7417";"Etting, Schulbus";"48,80363";"11,40329";"09161000";"Ingolstadt";"-";"-";"Served";"Unknown";"";"BEG";"-";"-";"-"
"316";"Q";"de:09161:7417:0:1";"de:09161:7417";"99";"48,80363";"11,4033";"00000000";"-";"-";"-";"Unknown";"Unknown";"99";"BEG";"-";"-";"-"
"317";"S";"de:09161:7418";"de:09161:7418";"Oberhaunstadt, Schulbus";"48,78976";"11,44026";"09161000";"Ingolstadt";"-";"-";"Served";"Unknown";"";"BEG";"-";"-";"-"
"318";"Q";"de:09161:7418:0:1";"de:09161:7418";"99";"48,78975";"11,44026";"00000000";"-";"-";"-";"Unknown";"Unknown";"99";"BEG";"-";"-";"-"
"319";"S";"de:09161:7419";"de:09161:7419";"IN, ESV";"48,74537";"11,44252";"09161000";"Ingolstadt";"-";"-";"Served";"Unknown";"";"BEG";"-";"-";"-"
"320";"Q";"de:09161:7419:0:1";"de:09161:7419";"99";"48,74536";"11,44252";"00000000";"-";"-";"-";"Unknown";"Unknown";"99";"BEG";"-";"-";"-"
"321";"S";"de:09161:7420";"de:09161:7420";"IN, Brückenkopf Parkstraße";"48,7592";"11,42871";"09161000";"Ingolstadt";"-";"-";"Served";"Unknown";"";"BEG";"-";"-";"-"
"322";"Q";"de:09161:7420:0:1";"de:09161:7420";"99";"48,7592";"11,42873";"00000000";"-";"-";"-";"Unknown";"Unknown";"99";"BEG";"-";"-";"-"
"323";"S";"de:09161:7422";"de:09161:7422";"IN, Pionierkaserne";"48,75431";"11,44963";"09161000";"Ingolstadt";"";"";"Served";"InOrder";"";"BEG";"-";"";""
"324";"Q";"de:09161:7422:0:1";"de:09161:7422";"1";"48,7544";"11,44937";"00000000";"-";"-";"-";"Served";"InOrder";"";"BEG";"-";"-";"-"
"325";"Q";"de:09161:7422:0:2";"de:09161:7422";"2";"48,75423";"11,44987";"00000000";"-";"-";"-";"Served";"InOrder";"";"BEG";"-";"-";"-"
"326";"S";"de:09161:7423";"de:09161:7423";"Ingolstadt, Marie-Curie-Str.";"48,78654";"11,4812";"09161000";"Ingolstadt";"-";"-";"Served";"Unknown";"";"BEG";"-";"-";"-"
"327";"Q";"de:09161:7423:0:1";"de:09161:7423";"1";"48,78654";"11,4812";"00000000";"-";"-";"-";"Unknown";"Unknown";"";"BEG";"-";"-";"-"
"328";"S";"de:09161:7427";"de:09161:7427";"Ingolstadt, Schollstraße";"48,7769";"11,45946";"09161000";"Ingolstadt";"-";"-";"Served";"Unknown";"";"BEG";"-";"-";"-"
"329";"Q";"de:09161:7427:0:1";"de:09161:7427";"1";"48,77691";"11,45946";"00000000";"-";"-";"-";"Unknown";"Unknown";"";"BEG";"-";"-";"-"
"330";"S";"de:09161:7428";"de:09161:7428";"IN, Frühlingstraße";"48,76617";"11,43747";"09161000";"Ingolstadt";"";"";"Served";"InOrder";"";"BEG";"-";"";""
"331";"Q";"de:09161:1681:0:10";"de:09161:7428";"10";"48,7648";"11,43581";"00000000";"-";"-";"-";"Unserved";"InOrder";"";"BEG";"-";"-";"-"
"332";"Q";"de:09161:1681:0:20";"de:09161:7428";"20";"48,76493";"11,43614";"00000000";"-";"-";"-";"Unserved";"InOrder";"";"BEG";"-";"-";"-"
"333";"Q";"de:09161:1681:0:30";"de:09161:7428";"30";"48,7666";"11,43796";"00000000";"-";"-";"-";"Unserved";"InOrder";"";"BEG";"-";"-";"-"
"334";"Q";"de:09161:1681:0:40";"de:09161:7428";"40";"48,76665";"11,43789";"00000000";"-";"-";"-";"Unserved";"InOrder";"";"BEG";"-";"-";"-"
"335";"Q";"de:09161:1681:0:50";"de:09161:7428";"50";"48,7666";"11,43791";"00000000";"-";"-";"-";"Unserved";"InOrder";"";"BEG";"-";"-";"-"
"336";"Q";"de:09161:7428:0:1";"de:09161:7428";"1";"48,76635";"11,43746";"00000000";"-";"-";"-";"Served";"InOrder";"";"BEG";"-";"-";"-"
"337";"Q";"de:09161:7428:0:2";"de:09161:7428";"2";"48,76598";"11,43748";"00000000";"-";"-";"-";"Served";"InOrder";"";"BEG";"-";"-";"-"
"338";"S";"de:09161:7429";"de:09161:7429";"Ingolstadt, Tränktorstr.";"48,76135";"11,42631";"09161000";"Ingolstadt";"-";"-";"Served";"Unknown";"";"BEG";"-";"-";"-"
"339";"Q";"de:09161:7429:0:1";"de:09161:7429";"1";"48,76135";"11,42631";"00000000";"-";"-";"-";"Unknown";"Unknown";"";"BEG";"-";"-";"-"
"340";"S";"de:09161:7439";"de:09161:7439";"IN, Geibelstraße";"48,77207";"11,44743";"09161000";"Ingolstadt";"";"";"Served";"InOrder";"";"BEG";"-";"";""
"341";"Q";"de:09161:7439:0:1";"de:09161:7439";"1";"48,77204";"11,44745";"00000000";"-";"-";"-";"Served";"InOrder";"";"BEG";"-";"-";"-"
"342";"Q";"de:09161:7439:0:10";"de:09161:7439";"10";"48,77171";"11,4458";"00000000";"-";"-";"-";"Unserved";"InOrder";"";"BEG";"-";"-";"-"
"343";"Q";"de:09161:7439:0:2";"de:09161:7439";"2";"48,77211";"11,44743";"00000000";"-";"-";"-";"Served";"InOrder";"";"BEG";"-";"-";"-"
"344";"Q";"de:09161:7439:0:20";"de:09161:7439";"20";"48,77243";"11,44471";"00000000";"-";"-";"-";"Unserved";"InOrder";"";"BEG";"-";"-";"-"
"345";"S";"de:09161:7484";"de:09161:7484";"Unterhaunstadt, Lentinger Str.";"48,78794";"11,45094";"09161000";"Ingolstadt";"-";"-";"Served";"Unknown";"";"BEG";"-";"-";"-"
"346";"Q";"de:09161:7484:0:1";"de:09161:7484";"1";"48,78801";"11,45096";"00000000";"-";"-";"-";"Unknown";"Unknown";"";"BEG";"-";"-";"-"
"347";"Q";"de:09161:7484:0:2";"de:09161:7484";"2";"48,78788";"11,45088";"00000000";"-";"-";"-";"Unknown";"Unknown";"";"BEG";"-";"-";"-"
"348";"S";"de:09161:7485";"de:09161:7485";"Ingolstadt, Am Kreuzäcker";"48,79552";"11,44607";"09161000";"Ingolstadt";"-";"-";"Served";"Unknown";"";"BEG";"-";"-";"-"
"349";"Q";"de:09161:7485:0:1";"de:09161:7485";"1";"48,79567";"11,44694";"00000000";"-";"-";"-";"Unknown";"Unknown";"1";"BEG";"-";"-";"-"
"350";"Q";"de:09161:7485:0:2";"de:09161:7485";"2";"48,79531";"11,44525";"00000000";"-";"-";"-";"Unknown";"Unknown";"2";"BEG";"-";"-";"-"
"351";"S";"de:09161:7510";"de:09161:7510";"Dünzlau, Mühlackerweg";"48,77772";"11,32316";"09161000";"Ingolstadt";"";"";"Served";"InOrder";"";"BEG";"-";"";""
"352";"Q";"de:09161:7510:0:1";"de:09161:7510";"1";"48,77776";"11,32267";"00000000";"-";"-";"-";"Served";"InOrder";"";"BEG";"-";"-";"-"
"353";"Q";"de:09161:7510:0:10";"de:09161:7510";"10";"48,77764";"11,31955";"00000000";"-";"-";"-";"Unserved";"InOrder";"";"BEG";"-";"-";"-"
"354";"Q";"de:09161:7510:0:2";"de:09161:7510";"2";"48,77765";"11,3236";"00000000";"-";"-";"-";"Served";"InOrder";"";"BEG";"-";"-";"-"
"355";"Q";"de:09161:7510:0:20";"de:09161:7510";"20";"48,77764";"11,31935";"00000000";"-";"-";"-";"Unserved";"InOrder";"";"BEG";"-";"-";"-"
"356";"S";"de:09161:7515";"de:09161:7515";"Gerolfing, Langgässerstraße";"48,75568";"11,34466";"09161000";"Ingolstadt";"";"";"Served";"InOrder";"";"BEG";"-";"";""
"357";"Q";"de:09161:7515:0:1";"de:09161:7515";"1";"48,75574";"11,34466";"00000000";"-";"-";"-";"Served";"InOrder";"";"BEG";"-";"-";"-"
"358";"Q";"de:09161:7515:0:2";"de:09161:7515";"2";"48,75562";"11,34461";"00000000";"-";"-";"-";"Served";"InOrder";"";"BEG";"-";"-";"-"
"359";"S";"de:09161:7516";"de:09161:7516";"Gerolfing, Schule";"48,75173";"11,34343";"09161000";"Ingolstadt";"-";"-";"Served";"Unknown";"";"BEG";"-";"-";"-"
"360";"Q";"de:09161:7516:0:1";"de:09161:7516";"99";"48,75174";"11,34342";"00000000";"-";"-";"-";"Unknown";"Unknown";"99";"BEG";"-";"-";"-"
"361";"S";"de:09161:7517";"de:09161:7517";"Gerolfing, Dünzlauer Straße";"48,75398";"11,34479";"09161000";"Ingolstadt";"";"";"Served";"InOrder";"";"BEG";"-";"";""
"362";"Q";"de:09161:7517:0:1";"de:09161:7517";"1";"48,75402";"11,34462";"00000000";"-";"-";"-";"Served";"InOrder";"";"BEG";"-";"-";"-"
"363";"Q";"de:09161:7517:0:2";"de:09161:7517";"2";"48,75396";"11,34497";"00000000";"-";"-";"-";"Served";"InOrder";"";"BEG";"-";"-";"-"
"364";"S";"de:09161:7518";"de:09161:7518";"Gerolfing, Eichenwaldstraße";"48,75387";"11,34724";"09161000";"Ingolstadt";"";"";"Served";"InOrder";"";"BEG";"-";"";""
"365";"Q";"de:09161:7518:0:1";"de:09161:7518";"1";"48,75396";"11,34679";"00000000";"-";"-";"-";"Served";"InOrder";"";"BEG";"-";"-";"-"
"366";"Q";"de:09161:7518:0:2";"de:09161:7518";"2";"48,75379";"11,34773";"00000000";"-";"-";"-";"Served";"InOrder";"";"BEG";"-";"-";"-"
"367";"S";"de:09161:7519";"de:09161:7519";"Gerolfing, Schwanenstraße";"48,75563";"11,34878";"09161000";"Ingolstadt";"";"";"Served";"InOrder";"";"BEG";"-";"";""
"368";"Q";"de:09161:7519:0:1";"de:09161:7519";"1";"48,75528";"11,34869";"00000000";"-";"-";"-";"Served";"InOrder";"";"BEG";"-";"-";"-"
"369";"Q";"de:09161:7519:0:2";"de:09161:7519";"2";"48,75597";"11,34885";"00000000";"-";"-";"-";"Served";"InOrder";"";"BEG";"-";"-";"-"
"370";"Q";"de:09161:7519:0:20";"de:09161:7519";"20";"48,75732";"11,34923";"00000000";"-";"-";"-";"Unserved";"InOrder";"";"BEG";"-";"-";"-"
"371";"Q";"de:09161:7519:0:40";"de:09161:7519";"40";"48,75563";"11,34879";"00000000";"-";"-";"-";"Unserved";"InOrder";"";"BEG";"-";"-";"-"
"372";"S";"de:09161:7520";"de:09161:7520";"Gerolfing, Kornstraße";"48,75903";"11,34618";"09161000";"Ingolstadt";"";"";"Served";"InOrder";"";"BEG";"-";"";""
"373";"Q";"de:09161:7520:0:1";"de:09161:7520";"1";"48,75911";"11,34621";"00000000";"-";"-";"-";"Served";"InOrder";"";"BEG";"-";"-";"-"
"374";"Q";"de:09161:7520:0:2";"de:09161:7520";"2";"48,75897";"11,34614";"00000000";"-";"-";"-";"Served";"InOrder";"";"BEG";"-";"-";"-"
"375";"S";"de:09161:7521";"de:09161:7521";"IN, Scherzerstraße";"48,77307";"11,41721";"09161000";"Ingolstadt";"";"";"Served";"InOrder";"";"BEG";"-";"";""
"376";"Q";"de:09161:7521:0:1";"de:09161:7521";"1";"48,77316";"11,41722";"00000000";"-";"-";"-";"Served";"InOrder";"";"BEG";"-";"-";"-"
"377";"Q";"de:09161:7521:0:2";"de:09161:7521";"2";"48,773";"11,41722";"00000000";"-";"-";"-";"Served";"InOrder";"";"BEG";"-";"-";"-"
"378";"S";"de:09161:7525";"de:09161:7525";"IN, Audi-Tradition";"48,78527";"11,39794";"09161000";"Ingolstadt";"";"";"Served";"InOrder";"";"BEG";"-";"";""
"379";"Q";"de:09161:7525:0:1";"de:09161:7525";"1";"48,78487";"11,39819";"00000000";"-";"-";"-";"Served";"InOrder";"";"BEG";"-";"-";"-"
"380";"Q";"de:09161:7525:0:2";"de:09161:7525";"2";"48,78574";"11,39765";"00000000";"-";"-";"-";"Served";"InOrder";"";"BEG";"-";"-";"-"
"381";"S";"de:09161:7526";"de:09161:7526";"IN, Audi-GVZ Halle H";"48,78333";"11,3996";"09161000";"Ingolstadt";"";"";"Served";"InOrder";"";"BEG";"-";"";""
"382";"Q";"de:09161:7526:0:1";"de:09161:7526";"1";"48,78333";"11,39966";"00000000";"-";"-";"-";"Served";"InOrder";"";"BEG";"-";"-";"-"
"383";"Q";"de:09161:7526:0:2";"de:09161:7526";"2";"48,78334";"11,3995";"00000000";"-";"-";"-";"Served";"InOrder";"";"BEG";"-";"-";"-"
"384";"S";"de:09161:7527";"de:09161:7527";"IN, Audi-GVZ Halle G";"48,78197";"11,40246";"09161000";"Ingolstadt";"";"";"Served";"InOrder";"";"BEG";"-";"";""
"385";"Q";"de:09161:7527:0:1";"de:09161:7527";"1";"48,78188";"11,40269";"00000000";"-";"-";"-";"Served";"InOrder";"";"BEG";"-";"-";"-"
"386";"Q";"de:09161:7527:0:2";"de:09161:7527";"2";"48,78208";"11,40222";"00000000";"-";"-";"-";"Served";"InOrder";"";"BEG";"-";"-";"-"
"387";"S";"de:09161:7528";"de:09161:7528";"IN, Audi-GVZ";"48,78524";"11,40771";"09161000";"Ingolstadt";"";"";"Served";"InOrder";"";"BEG";"-";"";""
"388";"Q";"de:09161:7528:0:1";"de:09161:7528";"1";"48,78483";"11,40715";"00000000";"-";"-";"-";"Served";"InOrder";"";"BEG";"-";"-";"-"
"389";"Q";"de:09161:7528:0:2";"de:09161:7528";"2";"48,78565";"11,40822";"00000000";"-";"-";"-";"Served";"InOrder";"";"BEG";"-";"-";"-"
"390";"S";"de:09161:7531";"de:09161:7531";"IN, Stadttheater";"48,76323";"11,43083";"09161000";"Ingolstadt";"";"";"Served";"InOrder";"";"BEG";"-";"";""
"391";"Q";"de:09161:688:0:3";"de:09161:7531";"3";"48,76322";"11,43081";"00000000";"-";"-";"-";"Unserved";"InOrder";"";"BEG";"-";"-";"-"
"392";"Q";"de:09161:688:0:4";"de:09161:7531";"4";"48,76335";"11,43104";"00000000";"-";"-";"-";"Unserved";"InOrder";"";"BEG";"-";"-";"-"
"393";"Q";"de:09161:7531:0:1";"de:09161:7531";"1";"48,76316";"11,43073";"00000000";"-";"-";"-";"Served";"InOrder";"";"BEG";"-";"-";"-"
"394";"Q";"de:09161:7531:0:2";"de:09161:7531";"2";"48,76329";"11,43089";"00000000";"-";"-";"-";"Served";"InOrder";"";"BEG";"-";"-";"-"
"395";"S";"de:09161:7533";"de:09161:7533";"IN, Technische Hochschule";"48,76644";"11,43169";"09161000";"Ingolstadt";"";"";"Served";"InOrder";"";"BEG";"-";"";""
"396";"Q";"de:09161:7533:0:1";"de:09161:7533";"1";"48,76662";"11,43167";"00000000";"-";"-";"-";"Served";"InOrder";"";"BEG";"-";"-";"-"
"397";"Q";"de:09161:7533:0:2";"de:09161:7533";"2";"48,76626";"11,43176";"00000000";"-";"-";"-";"Served";"InOrder";"";"BEG";"-";"-";"-"
"398";"Q";"de:09161:7533:0:4";"de:09161:7533";"4";"48,76643";"11,43169";"00000000";"-";"-";"-";"Unserved";"InOrder";"";"BEG";"-";"-";"-"
"399";"S";"de:09161:7534";"de:09161:7534";"Ingolstadt, Nordbahnhof Ost";"48,7734";"11,43376";"09161000";"Ingolstadt";"-";"-";"Served";"Unknown";"";"BEG";"-";"-";"-"
"400";"Q";"de:09161:7534:0:1";"de:09161:7534";"1";"48,77337";"11,43383";"00000000";"-";"-";"-";"Unknown";"Unknown";"Bus 1";"BEG";"-";"-";"-"
"401";"Q";"de:09161:7534:0:2";"de:09161:7534";"2";"48,77337";"11,43373";"00000000";"-";"-";"-";"Unknown";"Unknown";"Bus 2";"BEG";"-";"-";"-"
"402";"S";"de:09161:7535";"de:09161:7535";"IN, Wielandstraße";"48,77702";"11,43442";"09161000";"Ingolstadt";"";"";"Served";"InOrder";"";"BEG";"-";"";""
"403";"Q";"de:09161:7535:0:1";"de:09161:7535";"1";"48,77702";"11,43436";"00000000";"-";"-";"-";"Served";"InOrder";"";"BEG";"-";"-";"-"
"404";"Q";"de:09161:7535:0:2";"de:09161:7535";"2";"48,77703";"11,43445";"00000000";"-";"-";"-";"Served";"InOrder";"";"BEG";"-";"-";"-"
"405";"S";"de:09161:7536";"de:09161:7536";"IN, Nobelstraße";"48,78495";"11,44244";"09161000";"Ingolstadt";"-";"-";"Served";"Unknown";"";"BEG";"-";"-";"-"
"406";"Q";"de:09161:7536:0:1";"de:09161:7536";"1";"48,78477";"11,44178";"00000000";"-";"-";"-";"Unknown";"Unknown";"1";"BEG";"-";"-";"-"
"407";"Q";"de:09161:7536:0:2";"de:09161:7536";"2";"48,78518";"11,443";"00000000";"-";"-";"-";"Unknown";"Unknown";"2";"BEG";"-";"-";"-"
"408";"S";"de:09161:7537";"de:09161:7537";"IN, Röntgenstraße";"48,78666";"11,4471";"09161000";"Ingolstadt";"";"";"Served";"InOrder";"";"BEG";"-";"";""
"409";"Q";"de:09161:7537:0:1";"de:09161:7537";"1";"48,78677";"11,44708";"00000000";"-";"-";"-";"Served";"InOrder";"";"BEG";"-";"-";"-"
"410";"Q";"de:09161:7537:0:2";"de:09161:7537";"2";"48,78654";"11,4471";"00000000";"-";"-";"-";"Served";"InOrder";"";"BEG";"-";"-";"-"
"411";"S";"de:09161:7538";"de:09161:7538";"Oberhaunstadt, Friedhof";"48,78904";"11,44269";"09161000";"Ingolstadt";"";"";"Served";"InOrder";"";"BEG";"-";"";""
"412";"Q";"de:09161:7538:0:1";"de:09161:7538";"1";"48,78894";"11,44324";"00000000";"-";"-";"-";"Served";"InOrder";"";"BEG";"-";"-";"-"
"413";"Q";"de:09161:7538:0:2";"de:09161:7538";"2";"48,78914";"11,44213";"00000000";"-";"-";"-";"Served";"InOrder";"";"BEG";"-";"-";"-"
"414";"S";"de:09161:7539";"de:09161:7539";"IN, Hegnenbergstraße";"48,79499";"11,44325";"09161000";"Ingolstadt";"";"";"Unserved";"InOrder";"";"BEG";"-";"";""
"415";"Q";"de:09161:7539:0:1";"de:09161:7539";"99";"48,79458";"11,44327";"00000000";"-";"-";"-";"Unserved";"InOrder";"";"BEG";"-";"-";"-"
"416";"Q";"de:09161:7539:0:20";"de:09161:7539";"20";"48,79539";"11,44323";"00000000";"-";"-";"-";"Unserved";"InOrder";"";"BEG";"-";"-";"-"
"417";"S";"de:09161:754";"de:09161:754";"IN, Weicheringer Straße";"48,71429";"11,40635";"09161000";"Ingolstadt";"";"";"Served";"InOrder";"";"BEG";"-";"";""
"418";"Q";"de:09161:754:0:1";"de:09161:754";"1";"48,71419";"11,40683";"00000000";"-";"-";"-";"Served";"InOrder";"";"BEG";"-";"-";"-"
"419";"Q";"de:09161:754:0:10";"de:09161:754";"10";"48,71399";"11,40824";"00000000";"-";"-";"-";"Unserved";"InOrder";"";"BEG";"-";"-";"-"
"420";"Q";"de:09161:754:0:2";"de:09161:754";"2";"48,71437";"11,40588";"00000000";"-";"-";"-";"Served";"InOrder";"";"BEG";"-";"-";"-"
"421";"Q";"de:09161:754:0:20";"de:09161:754";"20";"48,71399";"11,40824";"00000000";"-";"-";"-";"Unserved";"InOrder";"";"BEG";"-";"-";"-"
"422";"S";"de:09161:7540";"de:09161:7540";"IN, Lindberghstraße";"48,74757";"11,42829";"09161000";"Ingolstadt";"";"";"Served";"InOrder";"";"BEG";"-";"";""
"423";"Q";"de:09161:7540:0:1";"de:09161:7540";"1";"48,74755";"11,42824";"00000000";"-";"-";"-";"Served";"InOrder";"";"BEG";"-";"-";"-"
"424";"Q";"de:09161:7540:0:2";"de:09161:7540";"2";"48,74758";"11,42831";"00000000";"-";"-";"-";"Served";"InOrder";"";"BEG";"-";"-";"-"
"425";"S";"de:09161:7541";"de:09161:7541";"IN, Schulzentrum SW/Gustav-Adolf-Str.";"48,74533";"11,42406";"09161000";"Ingolstadt";"";"";"Served";"InOrder";"";"BEG";"-";"";""
"426";"Q";"de:09161:660:0:10";"de:09161:7541";"10";"48,7447";"11,42423";"00000000";"-";"-";"-";"Unserved";"InOrder";"";"BEG";"-";"-";"-"
"427";"Q";"de:09161:660:0:12";"de:09161:7541";"12";"48,74488";"11,42416";"00000000";"-";"-";"-";"Unserved";"InOrder";"";"BEG";"-";"-";"-"
"428";"Q";"de:09161:660:0:14";"de:09161:7541";"14";"48,74508";"11,42411";"00000000";"-";"-";"-";"Unserved";"InOrder";"";"BEG";"-";"-";"-"
"429";"Q";"de:09161:660:0:16";"de:09161:7541";"16";"48,74525";"11,42406";"00000000";"-";"-";"-";"Unserved";"InOrder";"";"BEG";"-";"-";"-"
"430";"Q";"de:09161:660:0:18";"de:09161:7541";"18";"48,74364";"11,4246";"00000000";"-";"-";"-";"Unserved";"InOrder";"";"BEG";"-";"-";"-"
"431";"Q";"de:09161:660:0:20";"de:09161:7541";"20";"48,74638";"11,42374";"00000000";"-";"-";"-";"Unserved";"InOrder";"";"BEG";"-";"-";"-"
"432";"Q";"de:09161:660:0:4";"de:09161:7541";"4";"48,74418";"11,42437";"00000000";"-";"-";"-";"Unserved";"InOrder";"";"BEG";"-";"-";"-"
"433";"Q";"de:09161:660:0:6";"de:09161:7541";"6";"48,74432";"11,42431";"00000000";"-";"-";"-";"Unserved";"InOrder";"";"BEG";"-";"-";"-"
"434";"Q";"de:09161:660:0:8";"de:09161:7541";"8";"48,74451";"11,42423";"00000000";"-";"-";"-";"Unserved";"InOrder";"";"BEG";"-";"-";"-"
"435";"Q";"de:09161:7541:0:2";"de:09161:7541";"2";"48,74401";"11,4244";"00000000";"-";"-";"-";"Served";"InOrder";"";"BEG";"-";"-";"-"
"436";"S";"de:09161:7544";"de:09161:7544";"IN, Audi-Tor 10";"48,78631";"11,40785";"09161000";"Ingolstadt";"";"";"Served";"InOrder";"";"BEG";"-";"";""
"437";"Q";"de:09161:7544:0:1";"de:09161:7544";"1";"48,7866";"11,4073";"00000000";"-";"-";"-";"Served";"InOrder";"";"BEG";"-";"-";"-"
"438";"Q";"de:09161:7544:0:2";"de:09161:7544";"2";"48,7867";"11,40701";"00000000";"-";"-";"-";"Served";"InOrder";"";"BEG";"-";"-";"-"
"439";"Q";"de:09161:7544:0:3";"de:09161:7544";"3";"48,78564";"11,40961";"00000000";"-";"-";"-";"Served";"InOrder";"";"BEG";"-";"-";"-"
"440";"Q";"de:09161:7544:0:4";"de:09161:7544";"4";"48,78566";"11,40932";"00000000";"-";"-";"-";"Served";"InOrder";"";"BEG";"-";"-";"-"
"441";"S";"de:09161:7545";"de:09161:7545";"IN, Audi-Forum";"48,78344";"11,41229";"09161000";"Ingolstadt";"";"";"Served";"InOrder";"";"BEG";"-";"";""
"442";"Q";"de:09161:7545:0:1";"de:09161:7545";"2";"48,7836";"11,41261";"00000000";"-";"-";"-";"Served";"InOrder";"";"BEG";"-";"-";"-"
"443";"Q";"de:09161:7545:0:10";"de:09161:7545";"10";"48,78286";"11,41329";"00000000";"-";"-";"-";"Unserved";"InOrder";"";"BEG";"-";"-";"-"
"444";"Q";"de:09161:7545:0:2";"de:09161:7545";"1";"48,78372";"11,41246";"00000000";"-";"-";"-";"Served";"InOrder";"";"BEG";"-";"-";"-"
"445";"Q";"de:09161:7545:0:20";"de:09161:7545";"20";"48,78406";"11,41201";"00000000";"-";"-";"-";"Unserved";"InOrder";"";"BEG";"-";"-";"-"
"446";"Q";"de:09161:7545:0:3";"de:09161:7545";"3";"48,783";"11,41158";"00000000";"-";"-";"-";"Unserved";"InOrder";"";"BEG";"-";"-";"-"
"447";"S";"de:09161:7546";"de:09161:7546";"IN, St.Johannes/Ettinger Str.";"48,77873";"11,4161";"09161000";"Ingolstadt";"";"";"Served";"InOrder";"";"BEG";"-";"";""
"448";"Q";"de:09161:7546:0:1";"de:09161:7546";"1";"48,77902";"11,41597";"00000000";"-";"-";"-";"Served";"InOrder";"";"BEG";"-";"-";"-"
"449";"Q";"de:09161:7546:0:2";"de:09161:7546";"2";"48,77843";"11,41619";"00000000";"-";"-";"-";"Served";"InOrder";"";"BEG";"-";"-";"-"
"450";"S";"de:09161:7547";"de:09161:7547";"Ingolstadt, FHS/Paradeplatz";"48,76657";"11,43164";"09161000";"Ingolstadt";"";"";"Unserved";"InOrder";"";"BEG";"-";"";""
"451";"Q";"de:09161:7547:0:1";"de:09161:7547";"";"48,76661";"11,43164";"00000000";"-";"-";"-";"Unserved";"InOrder";"";"BEG";"-";"-";"-"
"452";"Q";"de:09161:7547:0:2";"de:09161:7547";"";"48,76653";"11,43163";"00000000";"-";"-";"-";"Unserved";"InOrder";"";"BEG";"-";"-";"-"
"453";"S";"de:09161:7548";"de:09161:7548";"Gerolfing, Heindlmühle";"48,76951";"11,33967";"09161000";"Ingolstadt";"";"";"Served";"InOrder";"";"BEG";"-";"";""
"454";"Q";"de:09161:7548:0:1";"de:09161:7548";"1";"48,76962";"11,33957";"00000000";"-";"-";"-";"Served";"InOrder";"";"BEG";"-";"-";"-"
"455";"Q";"de:09161:7548:0:2";"de:09161:7548";"2";"48,7694";"11,3398";"00000000";"-";"-";"-";"Served";"InOrder";"";"BEG";"-";"-";"-"
"456";"S";"de:09161:755";"de:09161:755";"IN, Weismannstraße";"48,75792";"11,39623";"09161000";"Ingolstadt";"";"";"Served";"InOrder";"";"BEG";"-";"";""
"457";"Q";"de:09161:755:0:99";"de:09161:755";"99";"48,75792";"11,39623";"00000000";"-";"-";"-";"Served";"InOrder";"";"BEG";"-";"-";"-"
"458";"S";"de:09161:7564";"de:09161:7564";"IN, Hennenbühlstraße";"48,72165";"11,43963";"09161000";"Ingolstadt";"";"";"Served";"InOrder";"";"BEG";"-";"";""
"459";"Q";"de:09161:7564:0:1";"de:09161:7564";"1";"48,72171";"11,43965";"00000000";"-";"-";"-";"Served";"InOrder";"";"BEG";"-";"-";"-"
"460";"Q";"de:09161:7564:0:2";"de:09161:7564";"2";"48,72155";"11,43966";"00000000";"-";"-";"-";"Served";"InOrder";"";"BEG";"-";"-";"-"
"461";"S";"de:09161:7565";"de:09161:7565";"Unsernherrn, Schule";"48,72596";"11,44098";"09161000";"Ingolstadt";"";"";"Served";"InOrder";"";"BEG";"-";"";""
"462";"Q";"de:09161:7565:0:1";"de:09161:7565";"1";"48,72596";"11,44098";"00000000";"-";"-";"-";"Served";"InOrder";"";"BEG";"-";"-";"-"
"463";"S";"de:09161:7566";"de:09161:7566";"IN, Schneiderbauerstraße";"48,73583";"11,43868";"09161000";"Ingolstadt";"";"";"Served";"InOrder";"";"BEG";"-";"";""
"464";"Q";"de:09161:7566:0:1";"de:09161:7566";"1";"48,73608";"11,43852";"00000000";"-";"-";"-";"Served";"InOrder";"";"BEG";"-";"-";"-"
"465";"Q";"de:09161:7566:0:2";"de:09161:7566";"2";"48,73558";"11,43888";"00000000";"-";"-";"-";"Served";"InOrder";"";"BEG";"-";"-";"-"
"466";"S";"de:09161:7567";"de:09161:7567";"IN, Klinik Dr.Reiser";"48,73954";"11,43649";"09161000";"Ingolstadt";"";"";"Served";"InOrder";"";"BEG";"-";"";""
"467";"Q";"de:09161:7567:0:1";"de:09161:7567";"1";"48,7396";"11,43643";"00000000";"-";"-";"-";"Served";"InOrder";"";"BEG";"-";"-";"-"
"468";"Q";"de:09161:7567:0:2";"de:09161:7567";"2";"48,73948";"11,43656";"00000000";"-";"-";"-";"Served";"InOrder";"";"BEG";"-";"-";"-"
"469";"S";"de:09161:7568";"de:09161:7568";"IN, Waldeysenstraße";"48,78207";"11,4094";"09161000";"Ingolstadt";"";"";"Served";"InOrder";"";"BEG";"-";"";""
"470";"Q";"de:09161:7568:0:1";"de:09161:7568";"1";"48,78212";"11,40949";"00000000";"-";"-";"-";"Served";"InOrder";"";"BEG";"-";"-";"-"
"471";"Q";"de:09161:7568:0:2";"de:09161:7568";"2";"48,78204";"11,40926";"00000000";"-";"-";"-";"Served";"InOrder";"";"BEG";"-";"-";"-"
"472";"S";"de:09161:7569";"de:09161:7569";"IN, Nordfriedhof";"48,78112";"11,40692";"09161000";"Ingolstadt";"";"";"Served";"InOrder";"";"BEG";"-";"";""
"473";"Q";"de:09161:7569:0:1";"de:09161:7569";"1";"48,78114";"11,40711";"00000000";"-";"-";"-";"Served";"InOrder";"";"BEG";"-";"-";"-"
"474";"Q";"de:09161:7569:0:2";"de:09161:7569";"2";"48,78108";"11,40674";"00000000";"-";"-";"-";"Served";"InOrder";"";"BEG";"-";"-";"-"
"475";"S";"de:09161:7570";"de:09161:7570";"IN, Pfitznerstraße";"48,77886";"11,40883";"09161000";"Ingolstadt";"";"";"Served";"InOrder";"";"BEG";"-";"";""
"476";"Q";"de:09161:7570:0:1";"de:09161:7570";"1";"48,77872";"11,40852";"00000000";"-";"-";"-";"Served";"InOrder";"";"BEG";"-";"-";"-"
"477";"Q";"de:09161:7570:0:2";"de:09161:7570";"2";"48,77899";"11,40904";"00000000";"-";"-";"-";"Served";"InOrder";"";"BEG";"-";"-";"-"
"478";"S";"de:09161:7571";"de:09161:7571";"IN, Leharstraße";"48,77876";"11,41301";"09161000";"Ingolstadt";"";"";"Served";"InOrder";"";"BEG";"-";"";""
"479";"Q";"de:09161:7571:0:1";"de:09161:7571";"1";"48,7788";"11,41285";"00000000";"-";"-";"-";"Served";"InOrder";"";"BEG";"-";"-";"-"
"480";"Q";"de:09161:7571:0:2";"de:09161:7571";"2";"48,77874";"11,41314";"00000000";"-";"-";"-";"Served";"InOrder";"";"BEG";"-";"-";"-"
"481";"S";"de:09161:7572";"de:09161:7572";"IN, Pestalozzistraße";"48,77195";"11,44009";"09161000";"Ingolstadt";"";"";"Served";"InOrder";"";"BEG";"-";"";""
"482";"Q";"de:09161:7572:0:1";"de:09161:7572";"1";"48,7718";"11,43983";"00000000";"-";"-";"-";"Served";"InOrder";"";"BEG";"-";"-";"-"
"483";"Q";"de:09161:7572:0:2";"de:09161:7572";"2";"48,77208";"11,44036";"00000000";"-";"-";"-";"Served";"InOrder";"";"BEG";"-";"-";"-"
"484";"S";"de:09161:7596";"de:09161:7596";"IN, Johann-Michael-Sailer-Str.";"48,76965";"11,38662";"09161000";"Ingolstadt";"";"";"Served";"InOrder";"";"BEG";"-";"";""
"485";"Q";"de:09161:7596:0:1";"de:09161:7596";"1";"48,76962";"11,38661";"00000000";"-";"-";"-";"Served";"InOrder";"";"BEG";"-";"-";"-"
"486";"Q";"de:09161:7596:0:2";"de:09161:7596";"2";"48,7697";"11,38663";"00000000";"-";"-";"-";"Served";"InOrder";"";"BEG";"-";"-";"-"
"487";"S";"de:09161:7613";"de:09161:7613";"IN, Am Westpark 1";"48,77389";"11,38783";"09161000";"Ingolstadt";"";"";"Served";"InOrder";"";"BEG";"-";"";""
"488";"Q";"de:09161:7613:0:1";"de:09161:7613";"99";"48,77389";"11,38781";"00000000";"-";"-";"-";"Served";"InOrder";"";"BEG";"-";"-";"-"
"489";"S";"de:09161:7621";"de:09161:7621";"IN, Richard-Wagner-Straße";"48,77349";"11,40059";"09161000";"Ingolstadt";"";"";"Served";"InOrder";"";"BEG";"-";"";""
"490";"Q";"de:09161:7621:0:1";"de:09161:7621";"1";"48,77357";"11,39872";"00000000";"-";"-";"-";"Served";"InOrder";"";"BEG";"-";"-";"-"
"491";"Q";"de:09161:7621:0:2";"de:09161:7621";"2";"48,77343";"11,40236";"00000000";"-";"-";"-";"Served";"InOrder";"";"BEG";"-";"-";"-"
"492";"S";"de:09161:7622";"de:09161:7622";"IN, Keplerstraße";"48,77416";"11,40563";"09161000";"Ingolstadt";"";"";"Served";"InOrder";"";"BEG";"-";"";""
"493";"Q";"de:09161:7622:0:1";"de:09161:7622";"1";"48,77416";"11,40563";"00000000";"-";"-";"-";"Served";"InOrder";"";"BEG";"-";"-";"-"
"494";"S";"de:09161:7623";"de:09161:7623";"IN, St. Pius / Kroppstraße";"48,77555";"11,41186";"09161000";"Ingolstadt";"-";"-";"Served";"Unknown";"";"BEG";"-";"-";"-"
"495";"Q";"de:09161:7623:0:1";"de:09161:7623";"1";"48,77554";"11,41186";"00000000";"-";"-";"-";"Unknown";"Unknown";"1";"BEG";"-";"-";"-"
"496";"S";"de:09161:7624";"de:09161:7624";"IN, Kurt-Huber-Straße";"48,77201";"11,453";"09161000";"Ingolstadt";"";"";"Served";"InOrder";"";"BEG";"-";"";""
"497";"Q";"de:09161:7624:0:1";"de:09161:7624";"1";"48,77207";"11,45273";"00000000";"-";"-";"-";"Served";"InOrder";"";"BEG";"-";"-";"-"
"498";"Q";"de:09161:7624:0:2";"de:09161:7624";"2";"48,77175";"11,45213";"00000000";"-";"-";"-";"Served";"InOrder";"";"BEG";"-";"-";"-"
"499";"Q";"de:09161:7624:0:4";"de:09161:7624";"4";"48,77222";"11,4542";"00000000";"-";"-";"-";"Served";"InOrder";"";"BEG";"-";"-";"-"
"500";"S";"de:09161:7625";"de:09161:7625";"IN, St. Pius / Mozartstraße";"48,77523";"11,41303";"09161000";"Ingolstadt";"-";"-";"Served";"Unknown";"";"BEG";"-";"-";"-"
"501";"Q";"de:09161:526:0:2";"de:09161:7625";"2";"48,77524";"11,41303";"00000000";"-";"-";"-";"Unknown";"Unknown";"2";"BEG";"-";"-";"-"
"502";"S";"de:09161:7626";"de:09161:7626";"IN, Alban-Berg-Straße";"48,77421";"11,40691";"09161000";"Ingolstadt";"";"";"Served";"InOrder";"";"BEG";"-";"";""
"503";"Q";"de:09161:7626:0:2";"de:09161:7626";"2";"48,77421";"11,40691";"00000000";"-";"-";"-";"Served";"InOrder";"";"BEG";"-";"-";"-"
"504";"S";"de:09161:7627";"de:09161:7627";"IN, Bunsenstraße";"48,74157";"11,4732";"09161000";"Ingolstadt";"";"";"Served";"InOrder";"";"BEG";"-";"";""
"505";"Q";"de:09161:114:0:10";"de:09161:7627";"10";"48,74159";"11,47322";"00000000";"-";"-";"-";"Unserved";"InOrder";"";"BEG";"-";"-";"-"
"506";"Q";"de:09161:7627:0:1";"de:09161:7627";"1";"48,74223";"11,47342";"00000000";"-";"-";"-";"Unserved";"OutOfOrder";"";"BEG";"-";"-";"-"
"507";"Q";"de:09161:7627:0:2";"de:09161:7627";"99";"48,74151";"11,47309";"00000000";"-";"-";"-";"Served";"InOrder";"";"BEG";"-";"-";"-"
"508";"S";"de:09161:7630";"de:09161:7630";"IN, Theodor-Heuss-Straße";"48,77904";"11,44038";"09161000";"Ingolstadt";"";"";"Served";"InOrder";"";"BEG";"-";"";""
"509";"Q";"de:09161:7630:0:1";"de:09161:7630";"1";"48,77916";"11,44025";"00000000";"-";"-";"-";"Served";"InOrder";"";"BEG";"-";"-";"-"
"510";"Q";"de:09161:7630:0:2";"de:09161:7630";"2";"48,77895";"11,44051";"00000000";"-";"-";"-";"Served";"InOrder";"";"BEG";"-";"-";"-"
"511";"S";"de:09161:7635";"de:09161:7635";"IN, Audi - T2";"48,79258";"11,40809";"09161000";"Ingolstadt";"";"";"Served";"InOrder";"";"BEG";"-";"";""
"512";"Q";"de:09161:7635:0:1";"de:09161:7635";"1";"48,79247";"11,40815";"00000000";"-";"-";"-";"Served";"InOrder";"";"BEG";"-";"-";"-"
"513";"Q";"de:09161:7635:0:2";"de:09161:7635";"2";"48,79271";"11,40804";"00000000";"-";"-";"-";"Served";"InOrder";"";"BEG";"-";"-";"-"
"514";"S";"de:09161:7668";"de:09161:7668";"IN, Audi - T41";"48,79392";"11,4093";"09161000";"Ingolstadt";"-";"-";"Served";"Unknown";"";"BEG";"-";"-";"-"
"515";"Q";"de:09161:7668:0:1";"de:09161:7668";"1";"48,79398";"11,40931";"00000000";"-";"-";"-";"Unknown";"Unknown";"1";"BEG";"-";"-";"-"
"516";"Q";"de:09161:7668:0:2";"de:09161:7668";"2";"48,7939";"11,40936";"00000000";"-";"-";"-";"Unknown";"Unknown";"2";"BEG";"-";"-";"-"
"517";"S";"de:09161:7678";"de:09161:7678";"IN, Audi - Bahnhalt Süd";"48,78965";"11,4089";"09161000";"Ingolstadt";"";"";"Served";"InOrder";"";"BEG";"-";"";""
"518";"Q";"de:09161:7678:0:1";"de:09161:7678";"1";"48,78975";"11,40893";"00000000";"-";"-";"-";"Served";"InOrder";"";"BEG";"-";"-";"-"
"519";"Q";"de:09161:7678:0:2";"de:09161:7678";"2";"48,78956";"11,40889";"00000000";"-";"-";"-";"Served";"InOrder";"";"BEG";"-";"-";"-"
"520";"S";"de:09161:7688";"de:09161:7688";"IN, Buxheimer Weg";"48,76863";"11,40715";"09161000";"Ingolstadt";"-";"-";"Served";"Unknown";"";"BEG";"-";"-";"-"
"521";"Q";"de:09161:7688:0:1";"de:09161:7688";"1";"48,76862";"11,40704";"00000000";"-";"-";"-";"Unknown";"Unknown";"1";"BEG";"-";"-";"-"
"522";"Q";"de:09161:7688:0:2";"de:09161:7688";"2";"48,76863";"11,40715";"00000000";"-";"-";"-";"Unknown";"Unknown";"2";"BEG";"-";"-";"-"
"523";"S";"de:09161:769";"de:09161:769";"IN, Am Westpark/Audi-Ring";"48,77193";"11,3896";"09161000";"Ingolstadt";"-";"-";"Served";"Unknown";"";"BEG";"-";"-";"-"
"524";"Q";"de:09161:769:0:1";"de:09161:769";"1";"48,77237";"11,38904";"00000000";"-";"-";"-";"Unknown";"Unknown";"1";"BEG";"-";"-";"-"
"525";"Q";"de:09161:769:0:2";"de:09161:769";"2";"48,77233";"11,38986";"00000000";"-";"-";"-";"Unknown";"Unknown";"2";"BEG";"-";"-";"-"
"526";"Q";"de:09161:769:0:20";"de:09161:769";"20";"48,77108";"11,38994";"00000000";"-";"-";"-";"Unknown";"Unknown";"20";"BEG";"-";"-";"-"
"527";"S";"de:09161:773";"de:09161:773";"Winden (Ingolst.), Glöckelweg";"48,70259";"11,38888";"09161000";"Ingolstadt";"";"";"Served";"InOrder";"";"BEG";"-";"";""
"528";"Q";"de:09161:773:0:99";"de:09161:773";"99";"48,70259";"11,38887";"00000000";"-";"-";"-";"Served";"InOrder";"";"BEG";"-";"-";"-"
"529";"S";"de:09161:7837";"de:09161:7837";"IN, Kleingartenanlage";"48,79979";"11,40349";"09161000";"Ingolstadt";"-";"-";"Served";"Unknown";"";"BEG";"-";"-";"-"
"530";"Q";"de:09161:7837:0:1";"de:09161:7837";"1";"48,7997";"11,40345";"00000000";"-";"-";"-";"Unknown";"Unknown";"1";"BEG";"-";"-";"-"
"531";"Q";"de:09161:7837:0:2";"de:09161:7837";"2";"48,79987";"11,40348";"00000000";"-";"-";"-";"Unknown";"Unknown";"2";"BEG";"-";"-";"-"
"532";"S";"de:09161:7854";"de:09161:7854";"IN, Am Westerberg";"48,80898";"11,39954";"09161000";"Ingolstadt";"-";"-";"Served";"Unknown";"";"BEG";"-";"-";"-"
"533";"Q";"de:09161:7854:0:1";"de:09161:7854";"1";"48,80898";"11,39976";"00000000";"-";"-";"-";"Unknown";"Unknown";"1";"BEG";"-";"-";"-"
"534";"Q";"de:09161:7854:0:2";"de:09161:7854";"2";"48,80898";"11,39933";"00000000";"-";"-";"-";"Unknown";"Unknown";"2";"BEG";"-";"-";"-"
"535";"S";"de:09161:79";"de:09161:79";"IN, Aventinstraße";"48,75084";"11,4278";"09161000";"Ingolstadt";"";"";"Served";"InOrder";"";"BEG";"-";"";"-"
"536";"Q";"de:09161:79:0:1";"de:09161:79";"1";"48,75085";"11,4278";"00000000";"-";"-";"-";"Served";"InOrder";"";"BEG";"-";"-";"-"
"537";"S";"de:09161:790";"de:09161:790";"Zuchering, Schule";"48,71482";"11,40992";"09161000";"Ingolstadt";"";"";"Served";"InOrder";"";"BEG";"-";"";""
"538";"Q";"de:09161:790:0:98";"de:09161:790";"98";"48,71484";"11,40994";"00000000";"-";"-";"-";"Unserved";"InOrder";"";"BEG";"-";"-";"-"
"539";"Q";"de:09161:790:0:99";"de:09161:790";"99";"48,71487";"11,41001";"00000000";"-";"-";"-";"Served";"InOrder";"";"BEG";"-";"-";"-"
"540";"S";"de:09161:791";"de:09161:791";"IN, Zucheringer Straße";"48,71947";"11,40115";"09161000";"Ingolstadt";"";"";"Served";"InOrder";"";"BEG";"-";"";""
"541";"Q";"de:09161:791:0:1";"de:09161:791";"1";"48,71937";"11,40128";"00000000";"-";"-";"-";"Served";"InOrder";"";"BEG";"-";"-";"-"
"542";"Q";"de:09161:791:0:2";"de:09161:791";"2";"48,7196";"11,40102";"00000000";"-";"-";"-";"Served";"InOrder";"";"BEG";"-";"-";"-"
"543";"S";"de:09161:795";"de:09161:795";"IN, Am Westpark 2";"48,77516";"11,38774";"09161000";"Ingolstadt";"";"";"Served";"InOrder";"";"BEG";"-";"";"-"
"544";"Q";"de:09161:795:0:99";"de:09161:795";"99";"48,77517";"11,38773";"00000000";"-";"-";"-";"Served";"InOrder";"";"BEG";"-";"-";"-"
"545";"S";"de:09161:796";"de:09161:796";"IN, Am Westpark 3";"48,77491";"11,38748";"09161000";"Ingolstadt";"";"";"Served";"InOrder";"";"BEG";"-";"";"-"
"546";"Q";"de:09161:796:0:99";"de:09161:796";"99";"48,77491";"11,38748";"00000000";"-";"-";"-";"Served";"InOrder";"";"BEG";"-";"-";"-"
"547";"S";"de:09161:7980";"de:09161:7980";"IN, Christoph-Scheiner-Gymnasium";"48,76025";"11,42249";"09161000";"Ingolstadt";"";"";"Served";"InOrder";"";"BEG";"-";"";""
"548";"Q";"de:09161:7980:0:1";"de:09161:7980";"1";"48,76025";"11,42238";"00000000";"-";"-";"-";"Served";"InOrder";"";"BEG";"-";"-";"-"
"549";"Q";"de:09161:7980:0:2";"de:09161:7980";"2";"48,76025";"11,42248";"00000000";"-";"-";"-";"Served";"InOrder";"";"BEG";"-";"-";"-"
"550";"Q";"de:09161:7980:0:3";"de:09161:7980";"4";"48,76027";"11,42256";"00000000";"-";"-";"-";"Unserved";"InOrder";"";"BEG";"-";"-";"-"
"551";"S";"de:09161:7981";"de:09161:7981";"IN, St.-Michael-Straße";"48,80375";"11,40423";"09161000";"Ingolstadt";"";"";"Served";"InOrder";"";"BEG";"-";"";""
"552";"Q";"de:09161:7981:0:1";"de:09161:7981";"2";"48,80378";"11,40414";"00000000";"-";"-";"-";"Served";"InOrder";"";"BEG";"-";"-";"-"
"553";"Q";"de:09161:7981:0:2";"de:09161:7981";"1";"48,80365";"11,40449";"00000000";"-";"-";"-";"Served";"InOrder";"";"BEG";"-";"-";"-"
"554";"Q";"de:09161:7981:0:3";"de:09161:7981";"99";"48,80381";"11,40404";"00000000";"-";"-";"-";"Served";"InOrder";"";"BEG";"-";"-";"-"
"555";"S";"de:09161:7983";"de:09161:7983";"IN, St. Anton";"48,74737";"11,43384";"09161000";"Ingolstadt";"";"";"Served";"InOrder";"";"BEG";"-";"";""
"556";"Q";"de:09161:1648:0:3";"de:09161:7983";"3";"48,74736";"11,43385";"00000000";"-";"-";"-";"Served";"InOrder";"";"BEG";"-";"-";"-"
"557";"Q";"de:09161:7983:0:1";"de:09161:7983";"1";"48,74758";"11,43306";"00000000";"-";"-";"-";"Served";"InOrder";"";"BEG";"-";"-";"-"
"558";"Q";"de:09161:7983:0:2";"de:09161:7983";"2";"48,74701";"11,43464";"00000000";"-";"-";"-";"Served";"InOrder";"";"BEG";"-";"-";"-"
"559";"S";"de:09161:7984";"de:09161:7984";"IN, St. Markus";"48,75132";"11,43245";"09161000";"Ingolstadt";"";"";"Served";"InOrder";"";"BEG";"-";"";""
"560";"Q";"de:09161:7984:0:1";"de:09161:7984";"1";"48,75134";"11,43244";"00000000";"-";"-";"-";"Served";"InOrder";"";"BEG";"-";"-";"-"
"561";"Q";"de:09161:7984:0:2";"de:09161:7984";"2";"48,75129";"11,43249";"00000000";"-";"-";"-";"Served";"InOrder";"";"BEG";"-";"-";"-"
"562";"Q";"de:09161:7984:0:3";"de:09161:7984";"3";"48,75156";"11,43237";"00000000";"-";"-";"-";"Served";"InOrder";"";"BEG";"-";"-";"-"
"563";"Q";"de:09161:7984:0:4";"de:09161:7984";"4";"48,75109";"11,43265";"00000000";"-";"-";"-";"Served";"InOrder";"";"BEG";"-";"-";"-"
"564";"Q";"de:09161:7984:0:5";"de:09161:7984";"5";"48,75139";"11,4332";"00000000";"-";"-";"-";"Unserved";"InOrder";"";"BEG";"-";"-";"-"
"565";"S";"de:09161:7985";"de:09161:7985";"IN, Rankestraße";"48,75431";"11,43122";"09161000";"Ingolstadt";"";"";"Served";"InOrder";"";"BEG";"-";"";""
"566";"Q";"de:09161:7985:0:1";"de:09161:7985";"1";"48,75428";"11,43111";"00000000";"-";"-";"-";"Served";"InOrder";"";"BEG";"-";"-";"-"
"567";"Q";"de:09161:7985:0:2";"de:09161:7985";"2";"48,75431";"11,43121";"00000000";"-";"-";"-";"Served";"InOrder";"";"BEG";"-";"-";"-"
"568";"S";"de:09161:7986";"de:09161:7986";"IN, Körnerstraße";"48,7733";"11,4425";"09161000";"Ingolstadt";"";"";"Served";"InOrder";"";"BEG";"-";"";""
"569";"Q";"de:09161:7986:0:1";"de:09161:7986";"1";"48,77326";"11,44259";"00000000";"-";"-";"-";"Served";"InOrder";"";"BEG";"-";"-";"-"
"570";"Q";"de:09161:7986:0:2";"de:09161:7986";"2";"48,77335";"11,4424";"00000000";"-";"-";"-";"Served";"InOrder";"";"BEG";"-";"-";"-"
"571";"S";"de:09161:7987";"de:09161:7987";"IN, Weningstraße";"48,75503";"11,4379";"09161000";"Ingolstadt";"";"";"Served";"InOrder";"";"BEG";"-";"";""
"572";"Q";"de:09161:7987:0:1";"de:09161:7987";"1";"48,75498";"11,4383";"00000000";"-";"-";"-";"Served";"InOrder";"";"BEG";"-";"-";"-"
"573";"Q";"de:09161:7987:0:2";"de:09161:7987";"2";"48,75506";"11,43748";"00000000";"-";"-";"-";"Served";"InOrder";"";"BEG";"-";"-";"-"
"574";"S";"de:09161:7988";"de:09161:7988";"IN, Asamstraße";"48,75314";"11,44016";"09161000";"Ingolstadt";"";"";"Served";"InOrder";"";"BEG";"-";"";""
"575";"Q";"de:09161:7988:0:1";"de:09161:7988";"1";"48,7533";"11,44009";"00000000";"-";"-";"-";"Served";"InOrder";"";"BEG";"-";"-";"-"
"576";"Q";"de:09161:7988:0:2";"de:09161:7988";"2";"48,75299";"11,44023";"00000000";"-";"-";"-";"Served";"InOrder";"";"BEG";"-";"-";"-"
"577";"S";"de:09161:7989";"de:09161:7989";"IN, Fraunhoferstraße";"48,75026";"11,44125";"09161000";"Ingolstadt";"";"";"Unserved";"InOrder";"";"BEG";"-";"";""
"578";"Q";"de:09161:7989:0:1";"de:09161:7989";"1";"48,74963";"11,4415";"00000000";"-";"-";"-";"Unserved";"InOrder";"";"BEG";"-";"-";"-"
"579";"Q";"de:09161:7989:0:10";"de:09161:7989";"10";"48,7506";"11,44109";"00000000";"-";"-";"-";"Unserved";"InOrder";"";"BEG";"-";"-";"-"
"580";"Q";"de:09161:7989:0:2";"de:09161:7989";"2";"48,75088";"11,44104";"00000000";"-";"-";"-";"Unserved";"InOrder";"";"BEG";"-";"-";"-"
"581";"S";"de:09161:7990";"de:09161:7990";"IN, Paul-Wegmann-Halle";"48,74583";"11,4434";"09161000";"Ingolstadt";"";"";"Served";"InOrder";"";"BEG";"-";"";""
"582";"Q";"de:09161:7990:0:1";"de:09161:7990";"1";"48,74632";"11,4432";"00000000";"-";"-";"-";"Served";"InOrder";"";"BEG";"-";"-";"-"
"583";"Q";"de:09161:7990:0:10";"de:09161:7990";"10";"48,74528";"11,44352";"00000000";"-";"-";"-";"Unserved";"InOrder";"";"BEG";"-";"-";"-"
"584";"Q";"de:09161:7990:0:2";"de:09161:7990";"2";"48,74539";"11,4436";"00000000";"-";"-";"-";"Served";"InOrder";"";"BEG";"-";"-";"-"
"585";"S";"de:09161:7991";"de:09161:7991";"IN, Hans-Mielich-Straße";"48,74336";"11,44477";"09161000";"Ingolstadt";"-";"-";"Served";"Unknown";"";"BEG";"-";"-";"-"
"586";"Q";"de:09161:7991:0:1";"de:09161:7991";"1";"48,7435";"11,44464";"00000000";"-";"-";"-";"Unknown";"Unknown";"1";"BEG";"-";"-";"-"
"587";"Q";"de:09161:7991:0:2";"de:09161:7991";"2";"48,74325";"11,44492";"00000000";"-";"-";"-";"Unknown";"Unknown";"2";"BEG";"-";"-";"-"
"588";"S";"de:09161:7992";"de:09161:7992";"IN, Geisenfelder Straße";"48,74079";"11,44999";"09161000";"Ingolstadt";"-";"-";"Served";"Unknown";"";"BEG";"-";"-";"-"
"589";"Q";"de:09161:7992:0:1";"de:09161:7992";"1";"48,74069";"11,45033";"00000000";"-";"-";"-";"Unknown";"Unknown";"1";"BEG";"-";"-";"-"
"590";"Q";"de:09161:7992:0:2";"de:09161:7992";"2";"48,74088";"11,44964";"00000000";"-";"-";"-";"Unknown";"Unknown";"2";"BEG";"-";"-";"-"
"591";"S";"de:09161:7993";"de:09161:7993";"IN, Am Stadtweg";"48,7399";"11,45298";"09161000";"Ingolstadt";"";"";"Served";"InOrder";"";"BEG";"-";"";""
"592";"Q";"de:09161:50:0:20";"de:09161:7993";"20";"48,74031";"11,4518";"00000000";"-";"-";"-";"Unserved";"InOrder";"";"BEG";"-";"-";"-"
"593";"Q";"de:09161:7993:0:1";"de:09161:7993";"1";"48,73961";"11,4537";"00000000";"-";"-";"-";"Served";"InOrder";"";"BEG";"-";"-";"-"
"594";"Q";"de:09161:7993:0:2";"de:09161:7993";"2";"48,74015";"11,45238";"00000000";"-";"-";"-";"Served";"InOrder";"";"BEG";"-";"-";"-"
"595";"S";"de:09161:7994";"de:09161:7994";"IN, Plunder";"48,73357";"11,47576";"09161000";"Ingolstadt";"";"";"Served";"InOrder";"";"BEG";"-";"";""
"596";"Q";"de:09161:596:0:99";"de:09161:7994";"99";"48,7335";"11,47512";"00000000";"-";"-";"-";"Unserved";"InOrder";"";"BEG";"-";"-";"-"
"597";"Q";"de:09161:7994:0:1";"de:09161:7994";"1";"48,73369";"11,47649";"00000000";"-";"-";"-";"Served";"InOrder";"";"BEG";"-";"-";"-"
"598";"Q";"de:09161:7994:0:2";"de:09161:7994";"2";"48,7335";"11,47512";"00000000";"-";"-";"-";"Served";"InOrder";"";"BEG";"-";"-";"-"
"599";"S";"de:09161:7995";"de:09161:7995";"Niederfeld";"48,73438";"11,47999";"09161000";"Ingolstadt";"";"";"Served";"InOrder";"";"BEG";"-";"";""
"600";"Q";"de:09161:7995:0:1";"de:09161:7995";"99";"48,73436";"11,48001";"00000000";"-";"-";"-";"Served";"InOrder";"";"BEG";"-";"-";"-"
"601";"S";"de:09161:7996";"de:09161:7996";"IN, Universität (Kreuztor)";"48,76556";"11,41662";"09161000";"Ingolstadt";"";"";"Served";"InOrder";"";"BEG";"-";"";""
"602";"Q";"de:09161:7996:0:1";"de:09161:7996";"1";"48,76537";"11,41656";"00000000";"-";"-";"-";"Served";"InOrder";"";"BEG";"-";"-";"-"
"603";"Q";"de:09161:7996:0:2";"de:09161:7996";"2";"48,76578";"11,41672";"00000000";"-";"-";"-";"Served";"InOrder";"";"BEG";"-";"-";"-"
"604";"Q";"de:09161:7996:0:3";"de:09161:7996";"3";"48,76556";"11,41663";"00000000";"-";"-";"-";"Unserved";"InOrder";"";"BEG";"-";"-";"-"
"605";"Q";"de:09161:7996:0:4";"de:09161:7996";"4";"48,76561";"11,41673";"00000000";"-";"-";"-";"Unserved";"InOrder";"";"BEG";"-";"-";"-"
"606";"S";"de:09161:7997";"de:09161:7997";"IN, Brückenkopf";"48,75964";"11,43025";"09161000";"Ingolstadt";"";"";"Served";"InOrder";"";"BEG";"-";"";""
"607";"Q";"de:09161:7997:0:1";"de:09161:7997";"1";"48,75955";"11,43033";"00000000";"-";"-";"-";"Served";"InOrder";"";"BEG";"-";"-";"-"
"608";"Q";"de:09161:7997:0:2";"de:09161:7997";"2";"48,75972";"11,43021";"00000000";"-";"-";"-";"Served";"InOrder";"";"BEG";"-";"-";"-"
"609";"S";"de:09161:7998";"de:09161:7998";"Rothenthurm";"48,73577";"11,45844";"09161000";"Ingolstadt";"";"";"Served";"InOrder";"";"BEG";"-";"";""
"610";"Q";"de:09161:633:0:10";"de:09161:7998";"10";"48,7362";"11,4604";"00000000";"-";"-";"-";"Unserved";"InOrder";"";"BEG";"-";"-";"-"
"611";"Q";"de:09161:633:0:20";"de:09161:7998";"20";"48,7362";"11,4604";"00000000";"-";"-";"-";"Unserved";"InOrder";"";"BEG";"-";"-";"-"
"612";"Q";"de:09161:633:0:40";"de:09161:7998";"40";"48,73577";"11,45812";"00000000";"-";"-";"-";"Unserved";"InOrder";"";"BEG";"-";"-";"-"
"613";"Q";"de:09161:7998:0:1";"de:09161:7998";"1";"48,73578";"11,45869";"00000000";"-";"-";"-";"Served";"InOrder";"";"BEG";"-";"-";"-"
"614";"Q";"de:09161:7998:0:2";"de:09161:7998";"2";"48,73572";"11,45856";"00000000";"-";"-";"-";"Served";"InOrder";"";"BEG";"-";"-";"-"
"615";"S";"de:09161:7999";"de:09161:7999";"IN, Auf der Schanz";"48,76849";"11,4185";"09161000";"Ingolstadt";"";"";"Served";"InOrder";"";"BEG";"-";"";""
"616";"Q";"de:09161:7999:0:1";"de:09161:7999";"1";"48,76853";"11,41849";"00000000";"-";"-";"-";"Served";"InOrder";"";"BEG";"-";"-";"-"
"617";"Q";"de:09161:7999:0:2";"de:09161:7999";"2";"48,76845";"11,41852";"00000000";"-";"-";"-";"Served";"InOrder";"";"BEG";"-";"-";"-"
"618";"S";"de:09161:80";"de:09161:80";"IN, Pfingstäckerweg";"48,77811";"11,36913";"09161000";"Ingolstadt";"-";"-";"Served";"Unknown";"";"BEG";"-";"-";"-"
"619";"Q";"de:09161:80:0:1";"de:09161:80";"99";"48,77811";"11,36914";"00000000";"-";"-";"-";"Unknown";"Unknown";"99";"BEG";"-";"-";"-"
"620";"S";"de:09161:8000";"de:09161:8000";"IN, Rathausplatz/Schutterstr.";"48,76241";"11,42547";"09161000";"Ingolstadt";"";"";"Served";"InOrder";"";"BEG";"-";"";""
"621";"Q";"de:09161:8000:0:1";"de:09161:8000";"1";"48,76239";"11,42575";"00000000";"-";"-";"-";"Served";"InOrder";"";"BEG";"-";"-";"-"
"622";"Q";"de:09161:8000:0:2";"de:09161:8000";"2";"48,76242";"11,42623";"00000000";"-";"-";"-";"Served";"InOrder";"";"BEG";"-";"-";"-"
"623";"Q";"de:09161:8000:0:20";"de:09161:8000";"20";"48,76262";"11,42655";"00000000";"-";"-";"-";"Unserved";"InOrder";"";"BEG";"-";"-";"-"
"624";"Q";"de:09161:8000:0:3";"de:09161:8000";"3";"48,76249";"11,4261";"00000000";"-";"-";"-";"Unserved";"InOrder";"";"BEG";"-";"-";"-"
"625";"Q";"de:09161:8000:0:4";"de:09161:8000";"4";"48,7625";"11,42619";"00000000";"-";"-";"-";"Unserved";"InOrder";"";"BEG";"-";"-";"-"
"626";"Q";"de:09161:8000:0:5";"de:09161:8000";"5";"48,76228";"11,4253";"00000000";"-";"-";"-";"Served";"InOrder";"";"BEG";"-";"-";"-"
"627";"Q";"de:09161:8000:0:6";"de:09161:8000";"6";"48,76244";"11,42524";"00000000";"-";"-";"-";"Served";"InOrder";"";"BEG";"-";"-";"-"
"628";"S";"de:09161:8001";"de:09161:8001";"IN, Harderstraße";"48,76575";"11,4233";"09161000";"Ingolstadt";"";"";"Served";"InOrder";"";"BEG";"-";"";""
"629";"Q";"de:09161:8001:0:1";"de:09161:8001";"1";"48,76579";"11,42335";"00000000";"-";"-";"-";"Served";"InOrder";"";"BEG";"-";"-";"-"
"630";"Q";"de:09161:8001:0:2";"de:09161:8001";"2";"48,76572";"11,42326";"00000000";"-";"-";"-";"Served";"InOrder";"";"BEG";"-";"-";"-"
"631";"S";"de:09161:8003";"de:09161:8003";"IN, Heydeckstraße";"48,76928";"11,4333";"09161000";"Ingolstadt";"";"";"Served";"InOrder";"";"BEG";"-";"";""
"632";"Q";"de:09161:8003:0:1";"de:09161:8003";"1";"48,76948";"11,43377";"00000000";"-";"-";"-";"Served";"InOrder";"";"BEG";"-";"-";"-"
"633";"Q";"de:09161:8003:0:2";"de:09161:8003";"2";"48,76905";"11,43283";"00000000";"-";"-";"-";"Served";"InOrder";"";"BEG";"-";"-";"-"
"634";"S";"de:09161:8004";"de:09161:8004";"IN, Unterer Grasweg";"48,7739";"11,43737";"09161000";"Ingolstadt";"-";"-";"Served";"Unknown";"";"BEG";"-";"-";"-"
"635";"Q";"de:09161:8004:0:1";"de:09161:8004";"1";"48,77355";"11,43751";"00000000";"-";"-";"-";"Unknown";"Unknown";"1";"BEG";"-";"-";"-"
"636";"Q";"de:09161:8004:0:2";"de:09161:8004";"2";"48,77423";"11,43726";"00000000";"-";"-";"-";"Unknown";"Unknown";"2";"BEG";"-";"-";"-"
"637";"S";"de:09161:8005";"de:09161:8005";"IN, Oberer Grasweg";"48,77819";"11,43869";"09161000";"Ingolstadt";"";"";"Served";"InOrder";"";"BEG";"-";"";""
"638";"Q";"de:09161:8005:0:1";"de:09161:8005";"1";"48,77782";"11,43853";"00000000";"-";"-";"-";"Served";"InOrder";"";"BEG";"-";"-";"-"
"639";"Q";"de:09161:8005:0:2";"de:09161:8005";"2";"48,77855";"11,43883";"00000000";"-";"-";"-";"Served";"InOrder";"";"BEG";"-";"-";"-"
"640";"S";"de:09161:8006";"de:09161:8006";"IN, Nürnberger Straße";"48,77119";"11,43595";"09161000";"Ingolstadt";"-";"-";"Served";"Unknown";"";"BEG";"-";"-";"-"
"641";"Q";"de:09161:8006:0:2";"de:09161:8006";"2";"48,77119";"11,43595";"00000000";"-";"-";"-";"Unknown";"Unknown";"2";"BEG";"-";"-";"-"
"642";"S";"de:09161:8007";"de:09161:8007";"Ingolstadt, Nordbahnhof West";"48,77274";"11,43194";"09161000";"Ingolstadt";"-";"-";"Served";"Unknown";"";"BEG";"-";"-";"-"
"643";"A";"de:09161:8007:2";"de:09161:8007";"1";"48,77281";"11,43232";"00000000";"-";"-";"-";"Unknown";"Unknown";"Bus";"BEG";"-";"-";"-"
"644";"Q";"de:09161:8007:2:1";"de:09161:8007:2";"1";"48,77293";"11,43223";"00000000";"-";"-";"-";"Unknown";"Unknown";"Bus 1";"BEG";"-";"-";"-"
"645";"Q";"de:09161:8007:2:2";"de:09161:8007:2";"2";"48,77281";"11,43234";"00000000";"-";"-";"-";"Unknown";"Unknown";"Bus 2";"BEG";"-";"-";"-"
"646";"Q";"de:09161:8007:2:3";"de:09161:8007:2";"3";"48,77298";"11,43198";"00000000";"-";"-";"-";"Unknown";"Unknown";"Bus 3";"BEG";"-";"-";"-"
"647";"Q";"de:09161:8007:2:4";"de:09161:8007:2";"4";"48,7729";"11,43218";"00000000";"-";"-";"-";"Unknown";"Unknown";"Bus 4";"BEG";"-";"-";"-"
"648";"Q";"de:09161:8007:2:5";"de:09161:8007:2";"5";"48,77279";"11,43227";"00000000";"-";"-";"-";"Unknown";"Unknown";"Bus 5";"BEG";"-";"-";"-"
"649";"S";"de:09161:8008";"de:09161:8008";"IN, Rechbergstraße";"48,77";"11,42962";"09161000";"Ingolstadt";"";"";"Served";"InOrder";"";"BEG";"-";"";""
"650";"Q";"de:09161:8008:0:1";"de:09161:8008";"1";"48,77005";"11,42969";"00000000";"-";"-";"-";"Served";"InOrder";"";"BEG";"-";"-";"-"
"651";"Q";"de:09161:8008:0:2";"de:09161:8008";"2";"48,76997";"11,42955";"00000000";"-";"-";"-";"Served";"InOrder";"";"BEG";"-";"-";"-"
"652";"S";"de:09161:8009";"de:09161:8009";"IN, Lena-Christ-Straße";"48,78017";"11,43756";"09161000";"Ingolstadt";"-";"-";"Served";"Unknown";"";"BEG";"-";"-";"-"
"653";"Q";"de:09161:8009:0:1";"de:09161:8009";"1";"48,7801";"11,43797";"00000000";"-";"-";"-";"Unknown";"Unknown";"1";"BEG";"-";"-";"-"
"654";"Q";"de:09161:8009:0:2";"de:09161:8009";"2";"48,78025";"11,43719";"00000000";"-";"-";"-";"Unknown";"Unknown";"2";"BEG";"-";"-";"-"
"655";"S";"de:09161:8010";"de:09161:8010";"IN, Am Augraben";"48,78506";"11,43909";"09161000";"Ingolstadt";"";"";"Served";"InOrder";"";"BEG";"-";"";""
"656";"Q";"de:09161:8010:0:1";"de:09161:8010";"1";"48,78504";"11,43914";"00000000";"-";"-";"-";"Served";"InOrder";"";"BEG";"-";"-";"-"
"657";"Q";"de:09161:8010:0:10";"de:09161:8010";"10";"48,78574";"11,43883";"00000000";"-";"-";"-";"Unserved";"InOrder";"";"BEG";"-";"-";"-"
"658";"Q";"de:09161:8010:0:2";"de:09161:8010";"2";"48,78511";"11,43901";"00000000";"-";"-";"-";"Served";"InOrder";"";"BEG";"-";"-";"-"
"659";"Q";"de:09161:8010:0:20";"de:09161:8010";"20";"48,78553";"11,43855";"00000000";"-";"-";"-";"Unserved";"InOrder";"";"BEG";"-";"-";"-"
"660";"S";"de:09161:8011";"de:09161:8011";"IN, Mariengarten";"48,78693";"11,43569";"09161000";"Ingolstadt";"-";"-";"Served";"Unknown";"";"BEG";"-";"-";"-"
"661";"Q";"de:09161:8011:0:1";"de:09161:8011";"1";"48,78615";"11,4357";"00000000";"-";"-";"-";"Unknown";"Unknown";"1";"BEG";"-";"-";"-"
"662";"Q";"de:09161:8011:0:2";"de:09161:8011";"2";"48,78771";"11,4356";"00000000";"-";"-";"-";"Unknown";"Unknown";"2";"BEG";"-";"-";"-"
"663";"S";"de:09161:8012";"de:09161:8012";"IN, Gratzerstraße";"48,78781";"11,43907";"09161000";"Ingolstadt";"-";"-";"Served";"Unknown";"";"BEG";"-";"-";"-"
"664";"S";"de:09161:8013";"de:09161:8013";"IN, Weckenweg";"48,79012";"11,43845";"09161000";"Ingolstadt";"";"";"Served";"InOrder";"";"BEG";"-";"";""
"665";"Q";"de:09161:8013:0:1";"de:09161:8013";"1";"48,7902";"11,43828";"00000000";"-";"-";"-";"Served";"InOrder";"";"BEG";"-";"-";"-"
"666";"Q";"de:09161:8013:0:2";"de:09161:8013";"2";"48,79007";"11,43859";"00000000";"-";"-";"-";"Served";"InOrder";"";"BEG";"-";"-";"-"
"667";"S";"de:09161:8014";"de:09161:8014";"IN, Beilngrieser Straße";"48,79296";"11,44039";"09161000";"Ingolstadt";"-";"-";"Served";"Unknown";"";"BEG";"-";"-";"-"
"668";"Q";"de:09161:8014:0:1";"de:09161:8014";"2";"48,79229";"11,4395";"00000000";"-";"-";"-";"Unknown";"Unknown";"2";"BEG";"-";"-";"-"
"669";"Q";"de:09161:8014:0:2";"de:09161:8014";"1";"48,79363";"11,44128";"00000000";"-";"-";"-";"Unknown";"Unknown";"1";"BEG";"-";"-";"-"
"670";"S";"de:09161:8025";"de:09161:8025";"Oberhaunstadt, Dorfplatz";"48,79393";"11,44213";"09161000";"Ingolstadt";"";"";"Served";"InOrder";"";"BEG";"-";"";""
"671";"Q";"de:09161:8025:0:1";"de:09161:8025";"2";"48,79393";"11,44213";"00000000";"-";"-";"-";"Served";"InOrder";"";"BEG";"-";"-";"-"
"672";"S";"de:09161:8026";"de:09161:8026";"IN, Taschenturm";"48,76187";"11,41947";"09161000";"Ingolstadt";"-";"-";"Served";"Unknown";"";"BEG";"-";"-";"-"
"673";"Q";"de:09161:8026:0:1";"de:09161:8026";"1";"48,76196";"11,41929";"00000000";"-";"-";"-";"Unknown";"Unknown";"1";"BEG";"-";"-";"-"
"674";"Q";"de:09161:8026:0:2";"de:09161:8026";"2";"48,76181";"11,41962";"00000000";"-";"-";"-";"Unknown";"Unknown";"2";"BEG";"-";"-";"-"
"675";"S";"de:09161:8027";"de:09161:8027";"IN, Westfriedhof";"48,76597";"11,41124";"09161000";"Ingolstadt";"";"";"Served";"InOrder";"";"BEG";"-";"";""
"676";"Q";"de:09161:8027:0:1";"de:09161:8027";"1";"48,76609";"11,41111";"00000000";"-";"-";"-";"Served";"InOrder";"";"BEG";"-";"-";"-"
"677";"Q";"de:09161:8027:0:2";"de:09161:8027";"2";"48,76579";"11,41144";"00000000";"-";"-";"-";"Served";"InOrder";"";"BEG";"-";"-";"-"
"678";"S";"de:09161:8028";"de:09161:8028";"IN, Heidemannstraße";"48,76597";"11,40823";"09161000";"Ingolstadt";"-";"-";"Served";"Unknown";"";"BEG";"-";"-";"-"
"679";"Q";"de:09161:8028:0:1";"de:09161:8028";"1";"48,76594";"11,40746";"00000000";"-";"-";"-";"Unknown";"Unknown";"1";"BEG";"-";"-";"-"
"680";"Q";"de:09161:8028:0:2";"de:09161:8028";"2";"48,76603";"11,40913";"00000000";"-";"-";"-";"Unknown";"Unknown";"2";"BEG";"-";"-";"-"
"681";"S";"de:09161:8029";"de:09161:8029";"IN, Zoo Wasserstern";"48,76548";"11,4024";"09161000";"Ingolstadt";"";"";"Served";"InOrder";"";"BEG";"-";"";""
"682";"Q";"de:09161:8029:0:1";"de:09161:8029";"1";"48,76549";"11,40219";"00000000";"-";"-";"-";"Served";"InOrder";"";"BEG";"-";"-";"-"
"683";"Q";"de:09161:8029:0:2";"de:09161:8029";"2";"48,76547";"11,40259";"00000000";"-";"-";"-";"Served";"InOrder";"";"BEG";"-";"-";"-"
"684";"S";"de:09161:8030";"de:09161:8030";"IN, Degenhartstraße";"48,76426";"11,39561";"09161000";"Ingolstadt";"";"";"Served";"InOrder";"";"BEG";"-";"";""
"685";"Q";"de:09161:8030:0:1";"de:09161:8030";"1";"48,76432";"11,39578";"00000000";"-";"-";"-";"Served";"InOrder";"";"BEG";"-";"-";"-"
"686";"Q";"de:09161:8030:0:2";"de:09161:8030";"2";"48,76421";"11,39543";"00000000";"-";"-";"-";"Served";"InOrder";"";"BEG";"-";"-";"-"
"687";"S";"de:09161:8031";"de:09161:8031";"IN, Haslangstraße";"48,76342";"11,38817";"09161000";"Ingolstadt";"";"";"Served";"InOrder";"";"BEG";"-";"";""
"688";"Q";"de:09161:8031:0:1";"de:09161:8031";"1";"48,76355";"11,3874";"00000000";"-";"-";"-";"Served";"InOrder";"";"BEG";"-";"-";"-"
"689";"Q";"de:09161:8031:0:2";"de:09161:8031";"2";"48,76329";"11,38889";"00000000";"-";"-";"-";"Served";"InOrder";"";"BEG";"-";"-";"-"
"690";"S";"de:09161:8032";"de:09161:8032";"IN, Sustrisstraße";"48,76395";"11,38147";"09161000";"Ingolstadt";"";"";"Served";"InOrder";"";"BEG";"-";"";""
"691";"Q";"de:09161:8032:0:1";"de:09161:8032";"1";"48,76397";"11,38154";"00000000";"-";"-";"-";"Served";"InOrder";"";"BEG";"-";"-";"-"
"692";"Q";"de:09161:8032:0:2";"de:09161:8032";"2";"48,76394";"11,38137";"00000000";"-";"-";"-";"Served";"InOrder";"";"BEG";"-";"-";"-"
"693";"S";"de:09161:8033";"de:09161:8033";"IN, Klinikum";"48,77004";"11,38059";"09161000";"Ingolstadt";"-";"-";"Served";"Unknown";"";"BEG";"-";"-";"-"
"694";"Q";"de:09161:8033:0:1";"de:09161:8033";"1";"48,77013";"11,38075";"00000000";"-";"-";"-";"Unknown";"Unknown";"stadtauswärts";"BEG";"-";"-";"-"
"695";"Q";"de:09161:8033:0:2";"de:09161:8033";"2";"48,77014";"11,38046";"00000000";"-";"-";"-";"Unknown";"Unknown";"stadteinwärts";"BEG";"-";"-";"-"
"696";"Q";"de:09161:8033:0:3";"de:09161:8033";"99";"48,76985";"11,38039";"00000000";"-";"-";"-";"Unknown";"Unknown";"99";"BEG";"-";"-";"-"
"697";"S";"de:09161:8034";"de:09161:8034";"IN, Peringerstraße";"48,77795";"11,45078";"09161000";"Ingolstadt";"";"";"Served";"InOrder";"";"BEG";"-";"";""
"698";"Q";"de:09161:577:0:20";"de:09161:8034";"20";"48,77737";"11,45053";"00000000";"-";"-";"-";"Unserved";"InOrder";"";"BEG";"-";"-";"-"
"699";"Q";"de:09161:577:0:3";"de:09161:8034";"3";"48,7778";"11,45065";"00000000";"-";"-";"-";"Served";"InOrder";"";"BEG";"-";"-";"-"
"700";"Q";"de:09161:8034:0:1";"de:09161:8034";"1";"48,77824";"11,45057";"00000000";"-";"-";"-";"Served";"InOrder";"";"BEG";"-";"-";"-"
"701";"Q";"de:09161:8034:0:2";"de:09161:8034";"2";"48,77782";"11,45109";"00000000";"-";"-";"-";"Served";"InOrder";"";"BEG";"-";"-";"-"
"702";"S";"de:09161:8035";"de:09161:8035";"IN, Am Dachsberg";"48,77668";"11,37636";"09161000";"Ingolstadt";"";"";"Served";"InOrder";"";"BEG";"-";"";""
"703";"Q";"de:09161:8035:0:1";"de:09161:8035";"1";"48,7766";"11,37661";"00000000";"-";"-";"-";"Served";"InOrder";"";"BEG";"-";"-";"-"
"704";"Q";"de:09161:8035:0:2";"de:09161:8035";"2";"48,77669";"11,3765";"00000000";"-";"-";"-";"Served";"InOrder";"";"BEG";"-";"-";"-"
"705";"Q";"de:09161:8035:0:3";"de:09161:8035";"3";"48,77684";"11,37531";"00000000";"-";"-";"-";"Unserved";"InOrder";"";"BEG";"-";"-";"-"
"706";"Q";"de:09161:8035:0:99";"de:09161:8035";"99";"48,77684";"11,37531";"00000000";"-";"-";"-";"Unserved";"InOrder";"";"BEG";"-";"-";"-"
"707";"S";"de:09161:8036";"de:09161:8036";"IN, Jupiterstraße";"48,78052";"11,36932";"09161000";"Ingolstadt";"";"";"Served";"InOrder";"";"BEG";"-";"";""
"708";"Q";"de:09161:8036:0:1";"de:09161:8036";"1";"48,78054";"11,36943";"00000000";"-";"-";"-";"Served";"InOrder";"";"BEG";"-";"-";"-"
"709";"Q";"de:09161:8036:0:2";"de:09161:8036";"2";"48,78052";"11,36925";"00000000";"-";"-";"-";"Served";"InOrder";"";"BEG";"-";"-";"-"
"710";"S";"de:09161:8040";"de:09161:8040";"Ingolstadt, Audi 51";"48,78889";"11,41907";"09161000";"Ingolstadt";"-";"-";"Served";"Unknown";"";"BEG";"-";"-";"-"
"711";"Q";"de:09161:8040:0:1";"de:09161:8040";"1";"48,78881";"11,41899";"00000000";"-";"-";"-";"Unknown";"Unknown";"";"BEG";"-";"-";"-"
"712";"S";"de:09161:8046";"de:09161:8046";"IN, Stadtwerke / Continental";"48,77562";"11,42511";"09161000";"Ingolstadt";"";"";"Served";"InOrder";"";"BEG";"-";"";""
"713";"Q";"de:09161:691:0:20";"de:09161:8046";"20";"48,7748";"11,42537";"00000000";"-";"-";"-";"Unserved";"InOrder";"";"BEG";"-";"-";"-"
"714";"Q";"de:09161:8046:0:1";"de:09161:8046";"1";"48,77513";"11,42445";"00000000";"-";"-";"-";"Served";"InOrder";"";"BEG";"-";"-";"-"
"715";"Q";"de:09161:8046:0:2";"de:09161:8046";"2";"48,77536";"11,42594";"00000000";"-";"-";"-";"Served";"InOrder";"";"BEG";"-";"-";"-"
"716";"Q";"de:09161:8046:0:3";"de:09161:8046";"3";"48,77671";"11,42492";"00000000";"-";"-";"-";"Served";"InOrder";"";"BEG";"-";"-";"-"
"717";"Q";"de:09161:8046:0:4";"de:09161:8046";"4";"48,77665";"11,42493";"00000000";"-";"-";"-";"Served";"InOrder";"";"BEG";"-";"-";"-"
"718";"S";"de:09161:8047";"de:09161:8047";"IN, Hindemithstraße";"48,77528";"11,4201";"09161000";"Ingolstadt";"";"";"Served";"InOrder";"";"BEG";"-";"";""
"719";"Q";"de:09161:8047:0:1";"de:09161:8047";"1";"48,77528";"11,42009";"00000000";"-";"-";"-";"Served";"InOrder";"";"BEG";"-";"-";"-"
"720";"S";"de:09161:8048";"de:09161:8048";"Ingolstadt, Eckstallerstraße";"48,77304";"11,42607";"09161000";"Ingolstadt";"";"";"Unserved";"InOrder";"";"BEG";"-";"";""
"721";"Q";"de:09161:8048:0:1";"de:09161:8048";"";"48,77294";"11,42613";"00000000";"-";"-";"-";"Unserved";"InOrder";"";"BEG";"-";"-";"-"
"722";"Q";"de:09161:8048:0:2";"de:09161:8048";"";"48,77311";"11,42609";"00000000";"-";"-";"-";"Unserved";"InOrder";"";"BEG";"-";"-";"-"
"723";"S";"de:09161:8049";"de:09161:8049";"IN, Lannerstraße";"48,77497";"11,4209";"09161000";"Ingolstadt";"-";"-";"Served";"Unknown";"";"BEG";"-";"-";"-"
"724";"Q";"de:09161:8049:0:2";"de:09161:8049";"2";"48,77497";"11,42088";"00000000";"-";"-";"-";"Unknown";"Unknown";"2";"BEG";"-";"-";"-"
"725";"S";"de:09161:8050";"de:09161:8050";"IN, Ettinger Straße";"48,77559";"11,41706";"09161000";"Ingolstadt";"";"";"Served";"InOrder";"";"BEG";"-";"";""
"726";"Q";"de:09161:8050:0:1";"de:09161:8050";"1";"48,77655";"11,4169";"00000000";"-";"-";"-";"Served";"InOrder";"";"BEG";"-";"-";"-"
"727";"Q";"de:09161:8050:0:2";"de:09161:8050";"2";"48,77601";"11,41691";"00000000";"-";"-";"-";"Served";"InOrder";"";"BEG";"-";"-";"-"
"728";"Q";"de:09161:8050:0:3";"de:09161:8050";"3";"48,77523";"11,41655";"00000000";"-";"-";"-";"Served";"InOrder";"";"BEG";"-";"-";"-"
"729";"Q";"de:09161:8050:0:4";"de:09161:8050";"4";"48,77491";"11,41776";"00000000";"-";"-";"-";"Served";"InOrder";"";"BEG";"-";"-";"-"
"730";"S";"de:09161:8052";"de:09161:8052";"IN, Audi - Senefelderstraße";"48,78112";"11,41455";"09161000";"Ingolstadt";"";"";"Served";"InOrder";"";"BEG";"-";"";""
"731";"Q";"de:09161:8052:0:1";"de:09161:8052";"1";"48,78107";"11,41465";"00000000";"-";"-";"-";"Served";"InOrder";"";"BEG";"-";"-";"-"
"732";"Q";"de:09161:8052:0:2";"de:09161:8052";"2";"48,78121";"11,41443";"00000000";"-";"-";"-";"Served";"InOrder";"";"BEG";"-";"-";"-"
"733";"S";"de:09161:8053";"de:09161:8053";"Ingolstadt, Audi Werkzeugbau";"48,78012";"11,41942";"09161000";"Ingolstadt";"-";"-";"Served";"Unknown";"";"BEG";"-";"-";"-"
"734";"Q";"de:09161:8053:0:1";"de:09161:8053";"1";"48,78008";"11,41942";"00000000";"-";"-";"-";"Unknown";"Unknown";"";"BEG";"-";"-";"-"
"735";"S";"de:09161:8054";"de:09161:8054";"IN, August-Horch-Straße";"48,79546";"11,4029";"09161000";"Ingolstadt";"";"";"Served";"InOrder";"";"BEG";"-";"";""
"736";"Q";"de:09161:8054:0:1";"de:09161:8054";"1";"48,7939";"11,40252";"00000000";"-";"-";"-";"Served";"InOrder";"";"BEG";"-";"-";"-"
"737";"Q";"de:09161:8054:0:10";"de:09161:8054";"10";"48,797";"11,4032";"00000000";"-";"-";"-";"Unserved";"InOrder";"";"BEG";"-";"-";"-"
"738";"Q";"de:09161:8054:0:2";"de:09161:8054";"2";"48,79531";"11,40274";"00000000";"-";"-";"-";"Served";"InOrder";"";"BEG";"-";"-";"-"
"739";"S";"de:09161:8055";"de:09161:8055";"IN, Echenzeller Weg";"48,80556";"11,39864";"09161000";"Ingolstadt";"-";"-";"Served";"Unknown";"";"BEG";"-";"-";"-"
"740";"Q";"de:09161:8055:0:1";"de:09161:8055";"99";"48,80574";"11,3983";"00000000";"-";"-";"-";"Unknown";"Unknown";"99";"BEG";"-";"-";"-"
"741";"Q";"de:09161:8055:0:10";"de:09161:8055";"10";"48,80642";"11,39771";"00000000";"-";"-";"-";"Unknown";"Unknown";"10";"BEG";"-";"-";"-"
"742";"Q";"de:09161:8055:0:2";"de:09161:8055";"2";"48,80536";"11,39897";"00000000";"-";"-";"-";"Unknown";"Unknown";"2";"BEG";"-";"-";"-"
"743";"S";"de:09161:8056";"de:09161:8056";"IN, Adlmannsberger Weg";"48,80682";"11,40607";"09161000";"Ingolstadt";"";"";"Served";"InOrder";"";"BEG";"-";"";""
"744";"Q";"de:09161:8056:0:1";"de:09161:8056";"2";"48,80709";"11,40626";"00000000";"-";"-";"-";"Served";"InOrder";"";"BEG";"-";"-";"-"
"745";"Q";"de:09161:8056:0:2";"de:09161:8056";"1";"48,80655";"11,40593";"00000000";"-";"-";"-";"Served";"InOrder";"";"BEG";"-";"-";"-"
"746";"S";"de:09161:8061";"de:09161:8061";"IN, Uhlandstraße";"48,7754";"11,44447";"09161000";"Ingolstadt";"";"";"Served";"InOrder";"";"BEG";"-";"";""
"747";"Q";"de:09161:8061:0:1";"de:09161:8061";"1";"48,77539";"11,44453";"00000000";"-";"-";"-";"Served";"InOrder";"";"BEG";"-";"-";"-"
"748";"Q";"de:09161:8061:0:2";"de:09161:8061";"2";"48,77542";"11,4444";"00000000";"-";"-";"-";"Served";"InOrder";"";"BEG";"-";"-";"-"
"749";"S";"de:09161:8062";"de:09161:8062";"IN, Schölnhammerstraße";"48,77758";"11,45534";"09161000";"Ingolstadt";"";"";"Served";"InOrder";"";"BEG";"-";"";""
"750";"Q";"de:09161:8062:0:1";"de:09161:8062";"1";"48,77731";"11,45546";"00000000";"-";"-";"-";"Served";"InOrder";"";"BEG";"-";"-";"-"
"751";"Q";"de:09161:8062:0:2";"de:09161:8062";"99";"48,77784";"11,45519";"00000000";"-";"-";"-";"Served";"InOrder";"";"BEG";"-";"-";"-"
"752";"S";"de:09161:808";"de:09161:808";"IN, Schulzentrum SW/Maximilianstr.";"48,74302";"11,42247";"09161000";"Ingolstadt";"";"";"Served";"InOrder";"";"BEG";"-";"";""
"753";"Q";"de:09161:808:0:1";"de:09161:808";"1";"48,743";"11,42237";"00000000";"-";"-";"-";"Served";"InOrder";"";"BEG";"-";"-";"-"
"754";"Q";"de:09161:808:0:10";"de:09161:808";"10";"48,74323";"11,42522";"00000000";"-";"-";"-";"Unserved";"OutOfOrder";"";"BEG";"-";"-";"-"
"755";"Q";"de:09161:808:0:2";"de:09161:808";"2";"48,74303";"11,42258";"00000000";"-";"-";"-";"Served";"InOrder";"";"BEG";"-";"-";"-"
"756";"S";"de:09161:8092";"de:09161:8092";"IN, Urnenfelderstraße";"48,7092";"11,41371";"09161000";"Ingolstadt";"";"";"Served";"InOrder";"";"BEG";"-";"";""
"757";"Q";"de:09161:8092:0:1";"de:09161:8092";"1";"48,70954";"11,4142";"00000000";"-";"-";"-";"Served";"InOrder";"";"BEG";"-";"-";"-"
"758";"Q";"de:09161:8092:0:2";"de:09161:8092";"2";"48,70977";"11,41412";"00000000";"-";"-";"-";"Served";"InOrder";"";"BEG";"-";"-";"-"
"759";"Q";"de:09161:8092:0:99";"de:09161:8092";"99";"48,70849";"11,41304";"00000000";"-";"-";"-";"Unserved";"InOrder";"";"BEG";"-";"-";"-"
"760";"S";"de:09161:8095";"de:09161:8095";"IN, Haltmayrstraße";"48,76838";"11,40099";"09161000";"Ingolstadt";"";"";"Served";"InOrder";"";"BEG";"-";"";""
"761";"Q";"de:09161:8095:0:1";"de:09161:8095";"1";"48,76839";"11,40138";"00000000";"-";"-";"-";"Served";"InOrder";"";"BEG";"-";"-";"-"
"762";"Q";"de:09161:8095:0:2";"de:09161:8095";"2";"48,76835";"11,40056";"00000000";"-";"-";"-";"Served";"InOrder";"";"BEG";"-";"-";"-"
"763";"S";"de:09161:8143";"de:09161:8143";"IN, An der Lagerschanze";"48,7368";"11,41937";"09161000";"Ingolstadt";"";"";"Served";"InOrder";"";"BEG";"-";"";""
"764";"Q";"de:09161:8143:0:1";"de:09161:8143";"1";"48,73671";"11,41906";"00000000";"-";"-";"-";"Served";"InOrder";"";"BEG";"-";"-";"-"
"765";"Q";"de:09161:8143:0:2";"de:09161:8143";"2";"48,73688";"11,41965";"00000000";"-";"-";"-";"Served";"InOrder";"";"BEG";"-";"-";"-"
"766";"S";"de:09161:834";"de:09161:834";"IN, St.Anton/Münchener Straße";"48,74727";"11,43386";"09161000";"Ingolstadt";"-";"-";"Served";"Unknown";"";"BEG";"-";"-";"-"
"767";"S";"de:09161:844";"de:09161:844";"IN, Westfriedhof/Brodmühlweg";"48,76408";"11,41198";"09161000";"Ingolstadt";"-";"-";"Served";"Unknown";"";"BEG";"-";"-";"-"
"768";"Q";"de:09161:844:0:1";"de:09161:844";"1";"48,76408";"11,41196";"00000000";"-";"-";"-";"Unknown";"Unknown";"1";"BEG";"-";"-";"-"
"769";"S";"de:09161:846";"de:09161:846";"IN, St.Anton/Bahnhofstraße";"48,7471";"11,43436";"09161000";"Ingolstadt";"-";"-";"Served";"Unknown";"";"BEG";"-";"-";"-"
"770";"S";"de:09161:8484";"de:09161:8484";"Irgertsheim, Laubenstraße";"48,76534";"11,27497";"09161000";"Ingolstadt";"";"";"Served";"InOrder";"";"BEG";"-";"";""
"771";"Q";"de:09161:8484:0:1";"de:09161:8484";"1";"48,76538";"11,27497";"00000000";"-";"-";"-";"Served";"InOrder";"";"BEG";"-";"-";"-"
"772";"Q";"de:09161:8484:0:2";"de:09161:8484";"2";"48,76528";"11,27498";"00000000";"-";"-";"-";"Served";"InOrder";"";"BEG";"-";"-";"-"
"773";"S";"de:09161:8485";"de:09161:8485";"Dünzlau, Hofmarkstraße";"48,77728";"11,32692";"09161000";"Ingolstadt";"";"";"Served";"InOrder";"";"BEG";"-";"";""
"774";"Q";"de:09161:8485:0:1";"de:09161:8485";"1";"48,77725";"11,32711";"00000000";"-";"-";"-";"Served";"InOrder";"";"BEG";"-";"-";"-"
"775";"Q";"de:09161:8485:0:2";"de:09161:8485";"2";"48,77731";"11,3267";"00000000";"-";"-";"-";"Served";"InOrder";"";"BEG";"-";"-";"-"
"776";"S";"de:09161:849";"de:09161:849";"IN, Audi-Parkplatz";"48,78506";"11,40827";"09161000";"Ingolstadt";"";"";"Served";"InOrder";"";"BEG";"-";"";""
"777";"Q";"de:09161:849:0:98";"de:09161:849";"98";"48,7851";"11,40856";"00000000";"-";"-";"-";"Served";"InOrder";"";"BEG";"-";"-";"-"
"778";"Q";"de:09161:849:0:99";"de:09161:849";"99";"48,78508";"11,408";"00000000";"-";"-";"-";"Served";"InOrder";"";"BEG";"-";"-";"-"
"779";"S";"de:09161:8491";"de:09161:8491";"IN, Wallmeisterstraße";"48,71243";"11,40532";"09161000";"Ingolstadt";"";"";"Served";"InOrder";"";"BEG";"-";"";""
"780";"Q";"de:09161:8491:0:1";"de:09161:8491";"1";"48,71261";"11,40468";"00000000";"-";"-";"-";"Served";"InOrder";"";"BEG";"-";"-";"-"
"781";"Q";"de:09161:8491:0:2";"de:09161:8491";"2";"48,71245";"11,40546";"00000000";"-";"-";"-";"Served";"InOrder";"";"BEG";"-";"-";"-"
"782";"S";"de:09161:85";"de:09161:85";"IN, Bajuwarenweg";"48,71222";"11,41523";"09161000";"Ingolstadt";"-";"-";"Served";"Unknown";"";"BEG";"-";"-";"-"
"783";"Q";"de:09161:85:0:1";"de:09161:85";"1";"48,71218";"11,41517";"00000000";"-";"-";"-";"Unknown";"Unknown";"1";"BEG";"-";"-";"-"
"784";"Q";"de:09161:85:0:2";"de:09161:85";"2";"48,71223";"11,41535";"00000000";"-";"-";"-";"Unknown";"Unknown";"2";"BEG";"-";"-";"-"
"785";"S";"de:09161:8505";"de:09161:8505";"IN, St. Salvator";"48,72662";"11,44237";"09161000";"Ingolstadt";"-";"-";"Served";"Unknown";"";"BEG";"-";"-";"-"
"786";"Q";"de:09161:8505:0:1";"de:09161:8505";"2";"48,72661";"11,44237";"00000000";"-";"-";"-";"Unknown";"Unknown";"2";"BEG";"-";"-";"-"
"787";"S";"de:09161:8512";"de:09161:8512";"IN, Kipfenberger Str.";"48,81072";"11,4069";"09161000";"Ingolstadt";"-";"-";"Served";"Unknown";"";"BEG";"-";"-";"-"
"788";"Q";"de:09161:8512:0:1";"de:09161:8512";"1";"48,81086";"11,40694";"00000000";"-";"-";"-";"Unknown";"Unknown";"1";"BEG";"-";"-";"-"
"789";"Q";"de:09161:8512:0:2";"de:09161:8512";"2";"48,8106";"11,40683";"00000000";"-";"-";"-";"Unknown";"Unknown";"2";"BEG";"-";"-";"-"
"790";"S";"de:09161:8576";"de:09161:8576";"IN, ZOB";"48,76864";"11,42386";"09161000";"Ingolstadt";"";"";"Served";"InOrder";"";"BEG";"-";"";""
"791";"A";"de:09161:788:1";"de:09161:8576";"Westteil";"48,76851";"11,42289";"00000000";"-";"-";"-";"Served";"InOrder";"";"BEG";"-";"-";"-"
"792";"A";"de:09161:788:2";"de:09161:8576";"Ostteil";"48,76859";"11,42467";"00000000";"-";"-";"-";"Served";"InOrder";"";"BEG";"-";"-";"-"
"793";"A";"de:09161:788:3";"de:09161:8576";"Sonstige";"48,76864";"11,42384";"00000000";"-";"-";"-";"Served";"InOrder";"";"BEG";"-";"-";"-"
"794";"A";"de:09161:788:4";"de:09161:8576";"Bedarf";"48,76851";"11,42531";"00000000";"-";"-";"-";"Unserved";"InOrder";"";"BEG";"-";"-";"-"
"795";"A";"de:09161:788:5";"de:09161:8576";"Harderstr.";"48,76823";"11,42197";"00000000";"-";"-";"-";"Served";"InOrder";"";"BEG";"-";"-";"-"
"796";"Q";"de:09161:8576:0:1";"de:09161:788:1";"";"48,76833";"11,42247";"00000000";"-";"-";"-";"Served";"InOrder";"";"BEG";"-";"-";"-"
"797";"Q";"de:09161:8576:0:10";"de:09161:788:1";"";"48,76846";"11,42345";"00000000";"-";"-";"-";"Served";"InOrder";"";"BEG";"-";"-";"-"
"798";"Q";"de:09161:8576:0:11";"de:09161:788:1";"";"48,76836";"11,42351";"00000000";"-";"-";"-";"Served";"InOrder";"";"BEG";"-";"-";"-"
"799";"Q";"de:09161:8576:0:12";"de:09161:788:1";"";"48,76847";"11,42369";"00000000";"-";"-";"-";"Served";"InOrder";"";"BEG";"-";"-";"-"
"800";"Q";"de:09161:8576:0:2";"de:09161:788:1";"";"48,76844";"11,42265";"00000000";"-";"-";"-";"Served";"InOrder";"";"BEG";"-";"-";"-"
"801";"Q";"de:09161:8576:0:3";"de:09161:788:1";"";"48,76834";"11,42268";"00000000";"-";"-";"-";"Served";"InOrder";"";"BEG";"-";"-";"-"
"802";"Q";"de:09161:8576:0:4";"de:09161:788:1";"";"48,76845";"11,42285";"00000000";"-";"-";"-";"Served";"InOrder";"";"BEG";"-";"-";"-"
"803";"Q";"de:09161:8576:0:5";"de:09161:788:1";"";"48,76834";"11,42289";"00000000";"-";"-";"-";"Served";"InOrder";"";"BEG";"-";"-";"-"
"804";"Q";"de:09161:8576:0:6";"de:09161:788:1";"";"48,76846";"11,42307";"00000000";"-";"-";"-";"Served";"InOrder";"";"BEG";"-";"-";"-"
"805";"Q";"de:09161:8576:0:7";"de:09161:788:1";"";"48,76834";"11,42309";"00000000";"-";"-";"-";"Served";"InOrder";"";"BEG";"-";"-";"-"
"806";"Q";"de:09161:8576:0:8";"de:09161:788:1";"";"48,76846";"11,42328";"00000000";"-";"-";"-";"Served";"InOrder";"";"BEG";"-";"-";"-"
"807";"Q";"de:09161:8576:0:9";"de:09161:788:1";"";"48,76835";"11,4233";"00000000";"-";"-";"-";"Served";"InOrder";"";"BEG";"-";"-";"-"
"808";"Q";"de:09161:788:2:17";"de:09161:788:2";"";"48,76848";"11,42473";"00000000";"-";"-";"-";"Unserved";"InOrder";"";"BEG";"-";"-";"-"
"809";"Q";"de:09161:788:2:18";"de:09161:788:2";"";"48,7684";"11,42504";"00000000";"-";"-";"-";"Unserved";"InOrder";"";"BEG";"-";"-";"-"
"810";"Q";"de:09161:788:2:19";"de:09161:788:2";"";"48,76848";"11,42494";"00000000";"-";"-";"-";"Unserved";"InOrder";"";"BEG";"-";"-";"-"
"811";"Q";"de:09161:788:2:20";"de:09161:788:2";"";"48,76841";"11,42522";"00000000";"-";"-";"-";"Served";"InOrder";"";"BEG";"-";"-";"-"
"812";"Q";"de:09161:8576:0:13";"de:09161:788:2";"";"48,7684";"11,42438";"00000000";"-";"-";"-";"Served";"InOrder";"";"BEG";"-";"-";"-"
"813";"Q";"de:09161:8576:0:14";"de:09161:788:2";"";"48,76839";"11,42462";"00000000";"-";"-";"-";"Served";"InOrder";"";"BEG";"-";"-";"-"
"814";"Q";"de:09161:8576:0:15";"de:09161:788:2";"";"48,76847";"11,42452";"00000000";"-";"-";"-";"Served";"InOrder";"";"BEG";"-";"-";"-"
"815";"Q";"de:09161:8576:0:16";"de:09161:788:2";"";"48,7684";"11,42482";"00000000";"-";"-";"-";"Served";"InOrder";"";"BEG";"-";"-";"-"
"816";"Q";"de:09161:788:3:33";"de:09161:788:3";"A";"48,76852";"11,42283";"00000000";"-";"-";"-";"Served";"InOrder";"";"BEG";"-";"-";"-"
"817";"Q";"de:09161:788:3:34";"de:09161:788:3";"B";"48,76853";"11,42317";"00000000";"-";"-";"-";"Served";"InOrder";"";"BEG";"-";"-";"-"
"818";"Q";"de:09161:788:3:35";"de:09161:788:3";"C";"48,76853";"11,42341";"00000000";"-";"-";"-";"Served";"InOrder";"";"BEG";"-";"-";"-"
"819";"Q";"de:09161:788:3:36";"de:09161:788:3";"D";"48,76857";"11,42441";"00000000";"-";"-";"-";"Unserved";"InOrder";"";"BEG";"-";"-";"-"
"820";"Q";"de:09161:788:3:37";"de:09161:788:3";"E";"48,76857";"11,42467";"00000000";"-";"-";"-";"Unserved";"InOrder";"";"BEG";"-";"-";"-"
"821";"Q";"de:09161:788:3:38";"de:09161:788:3";"F";"48,76858";"11,42493";"00000000";"-";"-";"-";"Unserved";"InOrder";"";"BEG";"-";"-";"-"
"822";"Q";"de:09161:788:5:31";"de:09161:788:5";"H2";"48,76833";"11,42191";"00000000";"-";"-";"-";"Served";"InOrder";"";"BEG";"-";"-";"-"
"823";"Q";"de:09161:788:5:32";"de:09161:788:5";"H1";"48,76797";"11,42216";"00000000";"-";"-";"-";"Served";"InOrder";"";"BEG";"-";"-";"-"
"824";"S";"de:09161:8580";"de:09161:8580";"IN, Rothenturmer Straße";"48,73695";"11,47162";"09161000";"Ingolstadt";"";"";"Served";"InOrder";"";"BEG";"-";"";""
"825";"Q";"de:09161:634:0:99";"de:09161:8580";"99";"48,73677";"11,47175";"00000000";"-";"-";"-";"Unserved";"InOrder";"";"BEG";"-";"-";"-"
"826";"Q";"de:09161:8580:0:1";"de:09161:8580";"2";"48,73634";"11,47126";"00000000";"-";"-";"-";"Served";"InOrder";"";"BEG";"-";"-";"-"
"827";"Q";"de:09161:8580:0:10";"de:09161:8580";"10";"48,73777";"11,47169";"00000000";"-";"-";"-";"Unserved";"InOrder";"";"BEG";"-";"-";"-"
"828";"Q";"de:09161:8580:0:2";"de:09161:8580";"1";"48,73629";"11,47126";"00000000";"-";"-";"-";"Served";"InOrder";"";"BEG";"-";"-";"-"
"829";"Q";"de:09161:8580:0:3";"de:09161:8580";"3";"48,73733";"11,47204";"00000000";"-";"-";"-";"Served";"InOrder";"";"BEG";"-";"-";"-"
"830";"S";"de:09161:8611";"de:09161:8611";"Irgertsheim, Am Kirchberg";"48,77023";"11,28045";"09161000";"Ingolstadt";"";"";"Served";"InOrder";"";"BEG";"-";"";""
"831";"Q";"de:09161:8611:0:1";"de:09161:8611";"1";"48,77026";"11,28045";"00000000";"-";"-";"-";"Served";"InOrder";"";"BEG";"-";"-";"-"
"832";"Q";"de:09161:8611:0:10";"de:09161:8611";"10";"48,77107";"11,28005";"00000000";"-";"-";"-";"Unserved";"InOrder";"";"BEG";"-";"-";"-"
"833";"Q";"de:09161:8611:0:2";"de:09161:8611";"2";"48,77019";"11,28041";"00000000";"-";"-";"-";"Served";"InOrder";"";"BEG";"-";"-";"-"
"834";"Q";"de:09161:8611:0:20";"de:09161:8611";"20";"48,77107";"11,28003";"00000000";"-";"-";"-";"Unserved";"InOrder";"";"BEG";"-";"-";"-"
"835";"S";"de:09161:8612";"de:09161:8612";"Irgertsheim, Erchanstraße";"48,76738";"11,27509";"09161000";"Ingolstadt";"";"";"Served";"InOrder";"";"BEG";"-";"";""
"836";"Q";"de:09161:8612:0:1";"de:09161:8612";"1";"48,76705";"11,27497";"00000000";"-";"-";"-";"Served";"InOrder";"";"BEG";"-";"-";"-"
"837";"Q";"de:09161:8612:0:2";"de:09161:8612";"2";"48,76773";"11,27523";"00000000";"-";"-";"-";"Served";"InOrder";"";"BEG";"-";"-";"-"
"838";"S";"de:09161:8613";"de:09161:8613";"Pettenhofen/IN, Pettostraße";"48,77662";"11,28554";"09161000";"Ingolstadt";"";"";"Served";"InOrder";"";"BEG";"-";"";""
"839";"Q";"de:09161:8613:0:1";"de:09161:8613";"1";"48,77656";"11,28525";"00000000";"-";"-";"-";"Served";"InOrder";"";"BEG";"-";"-";"-"
"840";"Q";"de:09161:8613:0:2";"de:09161:8613";"2";"48,77632";"11,28586";"00000000";"-";"-";"-";"Served";"InOrder";"";"BEG";"-";"-";"-"
"841";"Q";"de:09161:8613:0:99";"de:09161:8613";"99";"48,77694";"11,28542";"00000000";"-";"-";"-";"Unserved";"InOrder";"";"BEG";"-";"-";"-"
"842";"S";"de:09161:8614";"de:09161:8614";"Pettenhofen/IN, Schöne Au";"48,77739";"11,29049";"09161000";"Ingolstadt";"";"";"Served";"InOrder";"";"BEG";"-";"";""
"843";"Q";"de:09161:8614:0:1";"de:09161:8614";"1";"48,77686";"11,28995";"00000000";"-";"-";"-";"Served";"InOrder";"";"BEG";"-";"-";"-"
"844";"Q";"de:09161:8614:0:2";"de:09161:8614";"2";"48,77686";"11,29092";"00000000";"-";"-";"-";"Served";"InOrder";"";"BEG";"-";"-";"-"
"845";"Q";"de:09161:8614:0:99";"de:09161:8614";"99";"48,77822";"11,29057";"00000000";"-";"-";"-";"Unserved";"InOrder";"";"BEG";"-";"-";"-"
"846";"S";"de:09161:8615";"de:09161:8615";"Mühlhausen/IN, Hanfgartenstr.";"48,77757";"11,30464";"09161000";"Ingolstadt";"";"";"Served";"InOrder";"";"BEG";"-";"";""
"847";"Q";"de:09161:8615:0:1";"de:09161:8615";"1";"48,77765";"11,305";"00000000";"-";"-";"-";"Served";"InOrder";"";"BEG";"-";"-";"-"
"848";"Q";"de:09161:8615:0:2";"de:09161:8615";"2";"48,77747";"11,30428";"00000000";"-";"-";"-";"Served";"InOrder";"";"BEG";"-";"-";"-"
"849";"S";"de:09161:8616";"de:09161:8616";"Mühlhausen/IN, Greutweg";"48,77777";"11,30794";"09161000";"Ingolstadt";"";"";"Served";"InOrder";"";"BEG";"-";"";""
"850";"Q";"de:09161:8616:0:1";"de:09161:8616";"1";"48,77778";"11,30844";"00000000";"-";"-";"-";"Served";"InOrder";"";"BEG";"-";"-";"-"
"851";"Q";"de:09161:8616:0:2";"de:09161:8616";"2";"48,77778";"11,30744";"00000000";"-";"-";"-";"Served";"InOrder";"";"BEG";"-";"-";"-"
"852";"S";"de:09161:8617";"de:09161:8617";"Dünzlau, An der Breite";"48,77637";"11,3302";"09161000";"Ingolstadt";"";"";"Served";"InOrder";"";"BEG";"-";"";""
"853";"Q";"de:09161:8617:0:1";"de:09161:8617";"1";"48,77618";"11,33043";"00000000";"-";"-";"-";"Served";"InOrder";"";"BEG";"-";"-";"-"
"854";"Q";"de:09161:8617:0:2";"de:09161:8617";"2";"48,77654";"11,32997";"00000000";"-";"-";"-";"Served";"InOrder";"";"BEG";"-";"-";"-"
"855";"S";"de:09161:8618";"de:09161:8618";"Gerolfing, Barthlgasserstraße";"48,75809";"11,34876";"09161000";"Ingolstadt";"";"";"Served";"InOrder";"";"BEG";"-";"";""
"856";"Q";"de:09161:8618:0:1";"de:09161:8618";"98";"48,75816";"11,34865";"00000000";"-";"-";"-";"Served";"InOrder";"";"BEG";"-";"-";"-"
"857";"Q";"de:09161:8618:0:2";"de:09161:8618";"99";"48,75809";"11,34882";"00000000";"-";"-";"-";"Served";"InOrder";"";"BEG";"-";"-";"-"
"858";"S";"de:09161:8619";"de:09161:8619";"Gerolfin, Wilhelm-Busch-Straße";"48,75728";"11,35431";"09161000";"Ingolstadt";"";"";"Served";"InOrder";"";"BEG";"-";"";""
"859";"Q";"de:09161:8619:0:1";"de:09161:8619";"1";"48,75735";"11,35384";"00000000";"-";"-";"-";"Served";"InOrder";"";"BEG";"-";"-";"-"
"860";"Q";"de:09161:8619:0:10";"de:09161:8619";"10";"48,75705";"11,35386";"00000000";"-";"-";"-";"Unserved";"InOrder";"";"BEG";"-";"-";"-"
"861";"Q";"de:09161:8619:0:2";"de:09161:8619";"2";"48,75722";"11,3548";"00000000";"-";"-";"-";"Served";"InOrder";"";"BEG";"-";"-";"-"
"862";"S";"de:09161:8620";"de:09161:8620";"Gerolfing, Schaumühle";"48,75953";"11,36529";"09161000";"Ingolstadt";"";"";"Served";"InOrder";"";"BEG";"-";"";""
"863";"Q";"de:09161:8620:0:1";"de:09161:8620";"1";"48,75949";"11,36514";"00000000";"-";"-";"-";"Served";"InOrder";"";"BEG";"-";"-";"-"
"864";"Q";"de:09161:8620:0:2";"de:09161:8620";"2";"48,75956";"11,36542";"00000000";"-";"-";"-";"Served";"InOrder";"";"BEG";"-";"-";"-"
"865";"S";"de:09161:8621";"de:09161:8621";"Spitzlmühle";"48,7615";"11,37499";"09161000";"Ingolstadt";"";"";"Served";"InOrder";"";"BEG";"-";"";""
"866";"Q";"de:09161:8621:0:1";"de:09161:8621";"1";"48,76156";"11,37495";"00000000";"-";"-";"-";"Served";"InOrder";"";"BEG";"-";"-";"-"
"867";"Q";"de:09161:8621:0:2";"de:09161:8621";"2";"48,76146";"11,37503";"00000000";"-";"-";"-";"Served";"InOrder";"";"BEG";"-";"-";"-"
"868";"S";"de:09161:8665";"de:09161:8665";"Ingolstadt, M.-L.-Fleißer-Str.";"48,78035";"11,43958";"09161000";"Ingolstadt";"-";"-";"Served";"Unknown";"";"BEG";"-";"-";"-"
"869";"Q";"de:09161:8665:0:1";"de:09161:8665";"1";"48,78034";"11,43967";"00000000";"-";"-";"-";"Unknown";"Unknown";"";"BEG";"-";"-";"-"
"870";"S";"de:09161:8666";"de:09161:8666";"IN, Am Franziskanerwasser";"48,75497";"11,47551";"09161000";"Ingolstadt";"";"";"Served";"InOrder";"";"BEG";"-";"";""
"871";"Q";"de:09161:8666:0:1";"de:09161:8666";"1";"48,75491";"11,47591";"00000000";"-";"-";"-";"Served";"InOrder";"";"BEG";"-";"-";"-"
"872";"Q";"de:09161:8666:0:10";"de:09161:8666";"10";"48,75296";"11,47459";"00000000";"-";"-";"-";"Unserved";"InOrder";"";"BEG";"-";"-";"-"
"873";"Q";"de:09161:8666:0:2";"de:09161:8666";"2";"48,75501";"11,47512";"00000000";"-";"-";"-";"Unserved";"InOrder";"";"BEG";"-";"-";"-"
"874";"Q";"de:09161:8666:0:20";"de:09161:8666";"20";"48,75389";"11,47449";"00000000";"-";"-";"-";"Unserved";"InOrder";"";"BEG";"-";"-";"-"
"875";"S";"de:09161:8667";"de:09161:8667";"IN, Richard-Strauss-Straße";"48,77232";"11,40539";"09161000";"Ingolstadt";"";"";"Served";"InOrder";"";"BEG";"-";"";""
"876";"Q";"de:09161:8667:0:1";"de:09161:8667";"1";"48,77235";"11,40562";"00000000";"-";"-";"-";"Served";"InOrder";"";"BEG";"-";"-";"-"
"877";"Q";"de:09161:8667:0:2";"de:09161:8667";"2";"48,77231";"11,40512";"00000000";"-";"-";"-";"Unserved";"InOrder";"";"BEG";"-";"-";"-"
"878";"S";"de:09161:8770";"de:09161:8770";"IN, Audi-Tor 9/TE";"48,79207";"11,40744";"09161000";"Ingolstadt";"";"";"Unserved";"InOrder";"";"BEG";"-";"";""
"879";"Q";"de:09161:8770:0:95";"de:09161:8770";"95";"48,79239";"11,40619";"00000000";"-";"-";"-";"Unserved";"InOrder";"";"BEG";"-";"-";"-"
"880";"Q";"de:09161:8770:0:96";"de:09161:8770";"96";"48,79223";"11,40616";"00000000";"-";"-";"-";"Unserved";"InOrder";"";"BEG";"-";"-";"-"
"881";"Q";"de:09161:8770:0:97";"de:09161:8770";"97";"48,7923";"11,40602";"00000000";"-";"-";"-";"Unserved";"InOrder";"";"BEG";"-";"-";"-"
"882";"Q";"de:09161:8770:0:98";"de:09161:8770";"98";"48,79239";"11,40598";"00000000";"-";"-";"-";"Unserved";"InOrder";"";"BEG";"-";"-";"-"
"883";"Q";"de:09161:8770:0:99";"de:09161:8770";"99";"48,79246";"11,40595";"00000000";"-";"-";"-";"Unserved";"InOrder";"";"BEG";"-";"-";"-"
"884";"S";"de:09161:8777";"de:09161:8777";"IN, Jurastraße";"48,77535";"11,37396";"09161000";"Ingolstadt";"";"";"Served";"InOrder";"";"BEG";"-";"";""
"885";"Q";"de:09161:340:0:98";"de:09161:8777";"98";"48,77528";"11,3742";"00000000";"-";"-";"-";"Served";"InOrder";"";"BEG";"-";"-";"-"
"886";"Q";"de:09161:340:0:99";"de:09161:8777";"99";"48,7756";"11,37415";"00000000";"-";"-";"-";"Served";"InOrder";"";"BEG";"-";"-";"-"
"887";"Q";"de:09161:8777:0:2";"de:09161:8777";"2";"48,77523";"11,37358";"00000000";"-";"-";"-";"Served";"InOrder";"";"BEG";"-";"-";"-"
"888";"S";"de:09161:8778";"de:09161:8778";"IN, Werdenfelser Straße";"48,775";"11,37752";"09161000";"Ingolstadt";"";"";"Served";"InOrder";"";"BEG";"-";"";""
"889";"Q";"de:09161:8778:0:1";"de:09161:8778";"1";"48,7749";"11,37783";"00000000";"-";"-";"-";"Served";"InOrder";"";"BEG";"-";"-";"-"
"890";"Q";"de:09161:8778:0:2";"de:09161:8778";"2";"48,7751";"11,3772";"00000000";"-";"-";"-";"Served";"InOrder";"";"BEG";"-";"-";"-"
"891";"S";"de:09161:8779";"de:09161:8779";"IN, Schultheißstraße";"48,77312";"11,38025";"09161000";"Ingolstadt";"";"";"Served";"InOrder";"";"BEG";"-";"";""
"892";"Q";"de:09161:8779:0:1";"de:09161:8779";"1";"48,77305";"11,38039";"00000000";"-";"-";"-";"Served";"InOrder";"";"BEG";"-";"-";"-"
"893";"Q";"de:09161:8779:0:2";"de:09161:8779";"2";"48,77319";"11,38009";"00000000";"-";"-";"-";"Served";"InOrder";"";"BEG";"-";"-";"-"
"894";"S";"de:09161:8780";"de:09161:8780";"IN, Bei der Hollerstaude";"48,76889";"11,38581";"09161000";"Ingolstadt";"";"";"Served";"InOrder";"";"BEG";"-";"";""
"895";"Q";"de:09161:8780:0:1";"de:09161:8780";"1";"48,76883";"11,38578";"00000000";"-";"-";"-";"Served";"InOrder";"";"BEG";"-";"-";"-"
"896";"Q";"de:09161:8780:0:2";"de:09161:8780";"2";"48,76895";"11,38581";"00000000";"-";"-";"-";"Served";"InOrder";"";"BEG";"-";"-";"-"
"897";"S";"de:09161:8781";"de:09161:8781";"IN, Schatzgerstraße";"48,7679";"11,39143";"09161000";"Ingolstadt";"";"";"Served";"InOrder";"";"BEG";"-";"";""
"898";"Q";"de:09161:8781:0:1";"de:09161:8781";"1";"48,76794";"11,39137";"00000000";"-";"-";"-";"Served";"InOrder";"";"BEG";"-";"-";"-"
"899";"Q";"de:09161:8781:0:2";"de:09161:8781";"2";"48,76788";"11,39149";"00000000";"-";"-";"-";"Served";"InOrder";"";"BEG";"-";"-";"-"
"900";"S";"de:09161:8782";"de:09161:8782";"IN, Effnerstraße";"48,76649";"11,37977";"09161000";"Ingolstadt";"";"";"Served";"InOrder";"";"BEG";"-";"";""
"901";"Q";"de:09161:8782:0:1";"de:09161:8782";"98";"48,76622";"11,37972";"00000000";"-";"-";"-";"Served";"InOrder";"";"BEG";"-";"-";"-"
"902";"Q";"de:09161:8782:0:2";"de:09161:8782";"99";"48,76673";"11,37983";"00000000";"-";"-";"-";"Served";"InOrder";"";"BEG";"-";"-";"-"
"903";"S";"de:09161:8784";"de:09161:8784";"IN, Liegnitzer Straße";"48,76282";"11,44416";"09161000";"Ingolstadt";"";"";"Served";"InOrder";"";"BEG";"-";"";""
"904";"Q";"de:09161:1626:0:20";"de:09161:8784";"20";"48,76312";"11,44376";"00000000";"-";"-";"-";"Unserved";"InOrder";"";"BEG";"-";"-";"-"
"905";"Q";"de:09161:1626:0:3";"de:09161:8784";"3";"48,76264";"11,44385";"00000000";"-";"-";"-";"Served";"InOrder";"";"BEG";"-";"-";"-"
"906";"Q";"de:09161:8784:0:1";"de:09161:8784";"1";"48,76299";"11,44457";"00000000";"-";"-";"-";"Served";"InOrder";"";"BEG";"-";"-";"-"
"907";"Q";"de:09161:8784:0:2";"de:09161:8784";"2";"48,76283";"11,44398";"00000000";"-";"-";"-";"Served";"InOrder";"";"BEG";"-";"-";"-"
"908";"S";"de:09161:8785";"de:09161:8785";"IN, Breslauer Straße";"48,76226";"11,44819";"09161000";"Ingolstadt";"";"";"Served";"InOrder";"";"BEG";"-";"";""
"909";"Q";"de:09161:8785:0:1";"de:09161:8785";"1";"48,76294";"11,44837";"00000000";"-";"-";"-";"Served";"InOrder";"";"BEG";"-";"-";"-"
"910";"Q";"de:09161:8785:0:2";"de:09161:8785";"2";"48,76156";"11,44797";"00000000";"-";"-";"-";"Served";"InOrder";"";"BEG";"-";"-";"-"
"911";"Q";"de:09161:8785:0:20";"de:09161:8785";"20";"48,76278";"11,4492";"00000000";"-";"-";"-";"Unserved";"InOrder";"";"BEG";"-";"-";"-"
"912";"S";"de:09161:8786";"de:09161:8786";"IN, Peisserstraße";"48,76132";"11,45235";"09161000";"Ingolstadt";"";"";"Served";"InOrder";"";"BEG";"-";"";""
"913";"Q";"de:09161:574:0:1";"de:09161:8786";"1";"48,76133";"11,45224";"00000000";"-";"-";"-";"Served";"InOrder";"";"BEG";"-";"-";"-"
"914";"Q";"de:09161:574:0:2";"de:09161:8786";"2";"48,76133";"11,45248";"00000000";"-";"-";"-";"Served";"InOrder";"";"BEG";"-";"-";"-"
"915";"S";"de:09161:8787";"de:09161:8787";"IN, Am Auwaldsee";"48,75544";"11,46217";"09161000";"Ingolstadt";"";"";"Served";"InOrder";"";"BEG";"-";"";""
"916";"Q";"de:09161:8787:0:1";"de:09161:8787";"1";"48,75545";"11,462";"00000000";"-";"-";"-";"Served";"InOrder";"";"BEG";"-";"-";"-"
"917";"Q";"de:09161:8787:0:2";"de:09161:8787";"2";"48,75545";"11,46229";"00000000";"-";"-";"-";"Served";"InOrder";"";"BEG";"-";"-";"-"
"918";"S";"de:09161:8789";"de:09161:8789";"IN, Kälberschüttstr./IN Campus";"48,74991";"11,47702";"09161000";"Ingolstadt";"";"";"Served";"InOrder";"";"BEG";"-";"";""
"919";"Q";"de:09161:8789:0:1";"de:09161:8789";"1";"48,7498";"11,47747";"00000000";"-";"-";"-";"Served";"InOrder";"";"BEG";"-";"-";"-"
"920";"Q";"de:09161:8789:0:10";"de:09161:8789";"10";"48,74933";"11,47518";"00000000";"-";"-";"-";"Unserved";"InOrder";"";"BEG";"-";"-";"-"
"921";"Q";"de:09161:8789:0:2";"de:09161:8789";"2";"48,74982";"11,47722";"00000000";"-";"-";"-";"Served";"InOrder";"";"BEG";"-";"-";"-"
"922";"Q";"de:09161:8789:0:20";"de:09161:8789";"20";"48,74936";"11,47503";"00000000";"-";"-";"-";"Unserved";"InOrder";"";"BEG";"-";"-";"-"
"923";"Q";"de:09161:8789:0:3";"de:09161:8789";"3";"48,74994";"11,47657";"00000000";"-";"-";"-";"Unserved";"InOrder";"";"BEG";"-";"-";"-"
"924";"Q";"de:09161:8789:0:4";"de:09161:8789";"4";"48,75016";"11,47654";"00000000";"-";"-";"-";"Unserved";"InOrder";"";"BEG";"-";"-";"-"
"925";"Q";"de:09161:8789:0:5";"de:09161:8789";"5";"48,74902";"11,47552";"00000000";"-";"-";"-";"Unserved";"InOrder";"";"BEG";"-";"-";"-"
"926";"Q";"de:09161:8789:0:6";"de:09161:8789";"6";"48,74909";"11,4756";"00000000";"-";"-";"-";"Unserved";"InOrder";"";"BEG";"-";"-";"-"
"927";"Q";"de:09161:8789:0:99";"de:09161:8789";"99";"48,74952";"11,47568";"00000000";"-";"-";"-";"Unserved";"InOrder";"";"BEG";"-";"-";"-"
"928";"S";"de:09161:8794";"de:09161:8794";"IN, Semmerseeweg";"48,78733";"11,45491";"09161000";"Ingolstadt";"-";"-";"Served";"Unknown";"";"BEG";"-";"-";"-"
"929";"Q";"de:09161:672:0:1";"de:09161:8794";"1";"48,78735";"11,45504";"00000000";"-";"-";"-";"Unknown";"Unknown";"1";"BEG";"-";"-";"-"
"930";"Q";"de:09161:672:0:2";"de:09161:8794";"2";"48,78731";"11,4548";"00000000";"-";"-";"-";"Unknown";"Unknown";"2";"BEG";"-";"-";"-"
"931";"S";"de:09161:8795";"de:09161:8795";"IN, Georgstraße";"48,78619";"11,45092";"09161000";"Ingolstadt";"";"";"Served";"InOrder";"";"BEG";"-";"";""
"932";"Q";"de:09161:8795:0:1";"de:09161:8795";"1";"48,78632";"11,45098";"00000000";"-";"-";"-";"Served";"InOrder";"";"BEG";"-";"-";"-"
"933";"Q";"de:09161:8795:0:2";"de:09161:8795";"2";"48,78606";"11,45088";"00000000";"-";"-";"-";"Served";"InOrder";"";"BEG";"-";"-";"-"
"934";"S";"de:09161:8796";"de:09161:8796";"IN, Deschinger Straße";"48,78544";"11,44912";"09161000";"Ingolstadt";"";"";"Served";"InOrder";"";"BEG";"-";"";""
"935";"Q";"de:09161:8796:0:1";"de:09161:8796";"1";"48,7855";"11,44954";"00000000";"-";"-";"-";"Served";"InOrder";"";"BEG";"-";"-";"-"
"936";"Q";"de:09161:8796:0:10";"de:09161:8796";"10";"48,78521";"11,44866";"00000000";"-";"-";"-";"Unserved";"InOrder";"";"BEG";"-";"-";"-"
"937";"Q";"de:09161:8796:0:2";"de:09161:8796";"2";"48,78537";"11,44868";"00000000";"-";"-";"-";"Served";"InOrder";"";"BEG";"-";"-";"-"
"938";"Q";"de:09161:8796:0:20";"de:09161:8796";"20";"48,78564";"11,448";"00000000";"-";"-";"-";"Unserved";"InOrder";"";"BEG";"-";"-";"-"
"939";"Q";"de:09161:8796:0:3";"de:09161:8796";"3";"48,7852";"11,44866";"00000000";"-";"-";"-";"Unserved";"InOrder";"";"BEG";"-";"-";"-"
"940";"S";"de:09161:8797";"de:09161:8797";"IN, Hölderlinstraße";"48,78157";"11,44742";"09161000";"Ingolstadt";"-";"-";"Served";"Unknown";"";"BEG";"-";"-";"-"
"941";"Q";"de:09161:313:0:1";"de:09161:8797";"1";"48,78166";"11,44744";"00000000";"-";"-";"-";"Unknown";"Unknown";"1";"BEG";"-";"-";"-"
"942";"Q";"de:09161:313:0:2";"de:09161:8797";"2";"48,78149";"11,44739";"00000000";"-";"-";"-";"Unknown";"Unknown";"2";"BEG";"-";"-";"-"
"943";"S";"de:09161:8798";"de:09161:8798";"IN, Unterhaunstädter Weg";"48,7788";"11,4464";"09161000";"Ingolstadt";"";"";"Served";"InOrder";"";"BEG";"-";"";""
"944";"Q";"de:09161:8798:0:1";"de:09161:8798";"1";"48,77876";"11,4464";"00000000";"-";"-";"-";"Served";"InOrder";"";"BEG";"-";"-";"-"
"945";"Q";"de:09161:8798:0:2";"de:09161:8798";"2";"48,77885";"11,44641";"00000000";"-";"-";"-";"Served";"InOrder";"";"BEG";"-";"-";"-"
"946";"S";"de:09161:8799";"de:09161:8799";"IN, Haunwöhrer Straße";"48,75427";"11,4298";"09161000";"Ingolstadt";"-";"-";"Served";"Unknown";"";"BEG";"-";"-";"-"
"947";"Q";"de:09161:8799:0:1";"de:09161:8799";"1";"48,75414";"11,42978";"00000000";"-";"-";"-";"Unknown";"Unknown";"1";"BEG";"-";"-";"-"
"948";"Q";"de:09161:8799:0:2";"de:09161:8799";"2";"48,75438";"11,42977";"00000000";"-";"-";"-";"Unknown";"Unknown";"2";"BEG";"-";"-";"-"
"949";"S";"de:09161:8800";"de:09161:8800";"IN, Eigenheimstraße";"48,75192";"11,42797";"09161000";"Ingolstadt";"";"";"Served";"InOrder";"";"BEG";"-";"";""
"950";"Q";"de:09161:8800:0:1";"de:09161:8800";"1";"48,75185";"11,42749";"00000000";"-";"-";"-";"Served";"InOrder";"";"BEG";"-";"-";"-"
"951";"Q";"de:09161:8800:0:2";"de:09161:8800";"2";"48,75198";"11,4285";"00000000";"-";"-";"-";"Served";"InOrder";"";"BEG";"-";"-";"-"
"952";"S";"de:09161:8801";"de:09161:8801";"IN, Mendlstraße";"48,75121";"11,42442";"09161000";"Ingolstadt";"-";"-";"Served";"Unknown";"";"BEG";"-";"-";"-"
"953";"Q";"de:09161:8801:0:1";"de:09161:8801";"1";"48,75111";"11,42403";"00000000";"-";"-";"-";"Unknown";"Unknown";"1";"BEG";"-";"-";"-"
"954";"Q";"de:09161:8801:0:2";"de:09161:8801";"2";"48,75127";"11,42477";"00000000";"-";"-";"-";"Unknown";"Unknown";"2";"BEG";"-";"-";"-"
"955";"S";"de:09161:8802";"de:09161:8802";"IN, Auenstraße";"48,74956";"11,42062";"09161000";"Ingolstadt";"-";"-";"Served";"Unknown";"";"BEG";"-";"-";"-"
"956";"Q";"de:09161:75:0:1";"de:09161:8802";"1";"48,7496";"11,42066";"00000000";"-";"-";"-";"Unknown";"Unknown";"1";"BEG";"-";"-";"-"
"957";"Q";"de:09161:75:0:2";"de:09161:8802";"2";"48,74951";"11,42058";"00000000";"-";"-";"-";"Unknown";"Unknown";"2";"BEG";"-";"-";"-"
"958";"S";"de:09161:8803";"de:09161:8803";"IN, Spitalhofstraße";"48,7459";"11,41995";"09161000";"Ingolstadt";"";"";"Served";"InOrder";"";"BEG";"-";"";""
"959";"Q";"de:09161:675:0:1";"de:09161:8803";"1";"48,74593";"11,42006";"00000000";"-";"-";"-";"Served";"InOrder";"";"BEG";"-";"-";"-"
"960";"Q";"de:09161:675:0:2";"de:09161:8803";"2";"48,74589";"11,41983";"00000000";"-";"-";"-";"Served";"InOrder";"";"BEG";"-";"-";"-"
"961";"S";"de:09161:8804";"de:09161:8804";"IN, Zeppelinstraße";"48,74508";"11,41485";"09161000";"Ingolstadt";"";"";"Served";"InOrder";"";"BEG";"-";"";""
"962";"Q";"de:09161:785:0:1";"de:09161:8804";"1";"48,7451";"11,41487";"00000000";"-";"-";"-";"Served";"InOrder";"";"BEG";"-";"-";"-"
"963";"Q";"de:09161:785:0:2";"de:09161:8804";"2";"48,74503";"11,41487";"00000000";"-";"-";"-";"Served";"InOrder";"";"BEG";"-";"-";"-"
"964";"S";"de:09161:8805";"de:09161:8805";"IN, Oberringstraße";"48,74389";"11,41209";"09161000";"Ingolstadt";"";"";"Served";"InOrder";"";"BEG";"-";"";""
"965";"Q";"de:09161:555:0:1";"de:09161:8805";"1";"48,74394";"11,41206";"00000000";"-";"-";"-";"Served";"InOrder";"";"BEG";"-";"-";"-"
"966";"Q";"de:09161:555:0:2";"de:09161:8805";"2";"48,74387";"11,41208";"00000000";"-";"-";"-";"Served";"InOrder";"";"BEG";"-";"-";"-"
"967";"S";"de:09161:8807";"de:09161:8807";"IN, Berliner Straße";"48,74045";"11,40664";"09161000";"Ingolstadt";"-";"-";"Served";"Unknown";"";"BEG";"-";"-";"-"
"968";"Q";"de:09161:8807:0:1";"de:09161:8807";"1";"48,74007";"11,40773";"00000000";"-";"-";"-";"Unknown";"Unknown";"1";"BEG";"-";"-";"-"
"969";"Q";"de:09161:8807:0:10";"de:09161:8807";"10";"48,74049";"11,40539";"00000000";"-";"-";"-";"Unknown";"Unknown";"10";"BEG";"-";"-";"-"
"970";"Q";"de:09161:8807:0:2";"de:09161:8807";"2";"48,73995";"11,40789";"00000000";"-";"-";"-";"Unknown";"Unknown";"2";"BEG";"-";"-";"-"
"971";"Q";"de:09161:8807:0:20";"de:09161:8807";"3";"48,74087";"11,40595";"00000000";"-";"-";"-";"Unknown";"Unknown";"3";"BEG";"-";"-";"-"
"972";"S";"de:09161:8808";"de:09161:8808";"IN, Wittelsbacher Straße";"48,73859";"11,40347";"09161000";"Ingolstadt";"";"";"Served";"InOrder";"";"BEG";"-";"";""
"973";"Q";"de:09161:777:0:1";"de:09161:8808";"1";"48,73854";"11,40337";"00000000";"-";"-";"-";"Served";"InOrder";"";"BEG";"-";"-";"-"
"974";"Q";"de:09161:777:0:2";"de:09161:8808";"2";"48,73862";"11,40357";"00000000";"-";"-";"-";"Served";"InOrder";"";"BEG";"-";"-";"-"
"975";"S";"de:09161:8809";"de:09161:8809";"IN, Hackenschwaige";"48,73446";"11,39922";"09161000";"Ingolstadt";"";"";"Served";"InOrder";"";"BEG";"-";"";""
"976";"Q";"de:09161:8809:0:1";"de:09161:8809";"1";"48,7345";"11,3993";"00000000";"-";"-";"-";"Served";"InOrder";"";"BEG";"-";"-";"-"
"977";"Q";"de:09161:8809:0:2";"de:09161:8809";"2";"48,73446";"11,39919";"00000000";"-";"-";"-";"Served";"InOrder";"";"BEG";"-";"-";"-"
"978";"S";"de:09161:8810";"de:09161:8810";"IN, Isidor-Stürber-Straße";"48,73244";"11,40155";"09161000";"Ingolstadt";"";"";"Served";"InOrder";"";"BEG";"-";"";""
"979";"Q";"de:09161:8810:0:1";"de:09161:8810";"1";"48,73239";"11,40149";"00000000";"-";"-";"-";"Served";"InOrder";"";"BEG";"-";"-";"-"
"980";"Q";"de:09161:8810:0:2";"de:09161:8810";"2";"48,73247";"11,40161";"00000000";"-";"-";"-";"Served";"InOrder";"";"BEG";"-";"-";"-"
"981";"S";"de:09161:8811";"de:09161:8811";"IN, Hagauer Straße";"48,7309";"11,39612";"09161000";"Ingolstadt";"-";"-";"Served";"Unknown";"";"BEG";"-";"-";"-"
"982";"Q";"de:09161:270:0:1";"de:09161:8811";"1";"48,73083";"11,39604";"00000000";"-";"-";"-";"Unknown";"Unknown";"1";"BEG";"-";"-";"-"
"983";"Q";"de:09161:270:0:2";"de:09161:8811";"2";"48,73097";"11,39616";"00000000";"-";"-";"-";"Unknown";"Unknown";"2";"BEG";"-";"-";"-"
"984";"S";"de:09161:8812";"de:09161:8812";"Knoglersfreude";"48,7286";"11,3943";"09161000";"Ingolstadt";"-";"-";"Served";"Unknown";"";"BEG";"-";"-";"-"
"985";"Q";"de:09161:8812:0:1";"de:09161:8812";"1";"48,72846";"11,39418";"00000000";"-";"-";"-";"Unknown";"Unknown";"1";"BEG";"-";"-";"-"
"986";"Q";"de:09161:8812:0:98";"de:09161:8812";"98";"48,7286";"11,39431";"00000000";"-";"-";"-";"Unknown";"Unknown";"98";"BEG";"-";"-";"-"
"987";"Q";"de:09161:8812:0:99";"de:09161:8812";"99";"48,72877";"11,39453";"00000000";"-";"-";"-";"Unknown";"Unknown";"99";"BEG";"-";"-";"-"
"988";"S";"de:09161:8813";"de:09161:8813";"IN, Hans-Böckler-Straße";"48,72985";"11,39661";"09161000";"Ingolstadt";"";"";"Served";"InOrder";"";"BEG";"-";"";""
"989";"Q";"de:09161:8813:0:1";"de:09161:8813";"1";"48,73014";"11,39606";"00000000";"-";"-";"-";"Served";"InOrder";"";"BEG";"-";"-";"-"
"990";"Q";"de:09161:8813:0:2";"de:09161:8813";"2";"48,72957";"11,39714";"00000000";"-";"-";"-";"Served";"InOrder";"";"BEG";"-";"-";"-"
"991";"S";"de:09161:8814";"de:09161:8814";"IN, Silesiusstraße";"48,73008";"11,39984";"09161000";"Ingolstadt";"";"";"Served";"InOrder";"";"BEG";"-";"";""
"992";"Q";"de:09161:674:0:1";"de:09161:8814";"1";"48,73011";"11,39991";"00000000";"-";"-";"-";"Served";"InOrder";"";"BEG";"-";"-";"-"
"993";"Q";"de:09161:674:0:2";"de:09161:8814";"2";"48,73003";"11,39977";"00000000";"-";"-";"-";"Served";"InOrder";"";"BEG";"-";"-";"-"
"994";"S";"de:09161:8815";"de:09161:8815";"IN, Lechermannstraße";"48,73022";"11,40471";"09161000";"Ingolstadt";"";"";"Served";"InOrder";"";"BEG";"-";"";""
"995";"Q";"de:09161:8815:0:1";"de:09161:8815";"1";"48,73023";"11,40519";"00000000";"-";"-";"-";"Served";"InOrder";"";"BEG";"-";"-";"-"
"996";"Q";"de:09161:8815:0:2";"de:09161:8815";"2";"48,73019";"11,40428";"00000000";"-";"-";"-";"Served";"InOrder";"";"BEG";"-";"-";"-"
"997";"S";"de:09161:8816";"de:09161:8816";"IN, Kirchstraße";"48,72886";"11,40576";"09161000";"Ingolstadt";"";"";"Served";"InOrder";"";"BEG";"-";"";""
"998";"Q";"de:09161:8816:0:1";"de:09161:8816";"2";"48,72896";"11,40608";"00000000";"-";"-";"-";"Served";"InOrder";"";"BEG";"-";"-";"-"
"999";"Q";"de:09161:8816:0:2";"de:09161:8816";"4";"48,72879";"11,40552";"00000000";"-";"-";"-";"Served";"InOrder";"";"BEG";"-";"-";"-"
"1000";"Q";"de:09161:8816:0:3";"de:09161:8816";"3";"48,72881";"11,40558";"00000000";"-";"-";"-";"Unserved";"InOrder";"";"BEG";"-";"-";"-"
"1001";"S";"de:09161:8817";"de:09161:8817";"IN, Levelingstraße";"48,77182";"11,37697";"09161000";"Ingolstadt";"";"";"Served";"InOrder";"";"BEG";"-";"";""
"1002";"Q";"de:09161:8817:0:1";"de:09161:8817";"1";"48,77178";"11,37705";"00000000";"-";"-";"-";"Served";"InOrder";"";"BEG";"-";"-";"-"
"1003";"Q";"de:09161:8817:0:2";"de:09161:8817";"2";"48,77187";"11,37689";"00000000";"-";"-";"-";"Served";"InOrder";"";"BEG";"-";"-";"-"
"1004";"S";"de:09161:8818";"de:09161:8818";"IN, Parreutstraße";"48,7732";"11,37435";"09161000";"Ingolstadt";"";"";"Served";"InOrder";"";"BEG";"-";"";""
"1005";"Q";"de:09161:572:0:1";"de:09161:8818";"1";"48,77335";"11,37432";"00000000";"-";"-";"-";"Served";"InOrder";"";"BEG";"-";"-";"-"
"1006";"Q";"de:09161:572:0:2";"de:09161:8818";"2";"48,77306";"11,37436";"00000000";"-";"-";"-";"Served";"InOrder";"";"BEG";"-";"-";"-"
"1007";"S";"de:09161:8821";"de:09161:8821";"IN, Gabelsbergerstraße";"48,77378";"11,41063";"09161000";"Ingolstadt";"";"";"Served";"InOrder";"";"BEG";"-";"";""
"1008";"Q";"de:09161:204:0:1";"de:09161:8821";"1";"48,77398";"11,4105";"00000000";"-";"-";"-";"Served";"InOrder";"";"BEG";"-";"-";"-"
"1009";"Q";"de:09161:204:0:2";"de:09161:8821";"2";"48,77362";"11,41067";"00000000";"-";"-";"-";"Served";"InOrder";"";"BEG";"-";"-";"-"
"1010";"S";"de:09161:8823";"de:09161:8823";"IN, Egerlandstraße";"48,76199";"11,45443";"09161000";"Ingolstadt";"";"";"Served";"InOrder";"";"BEG";"-";"";""
"1011";"Q";"de:09161:148:0:99";"de:09161:8823";"99";"48,76199";"11,45441";"00000000";"-";"-";"-";"Served";"InOrder";"";"BEG";"-";"-";"-"
"1012";"S";"de:09161:8824";"de:09161:8824";"IN, Feldschlößl";"48,77827";"11,4448";"09161000";"Ingolstadt";"-";"-";"Served";"Unknown";"";"BEG";"-";"-";"-"
"1013";"Q";"de:09161:8824:0:1";"de:09161:8824";"1";"48,77836";"11,44468";"00000000";"-";"-";"-";"Unknown";"Unknown";"1";"BEG";"-";"-";"-"
"1014";"Q";"de:09161:8824:0:2";"de:09161:8824";"2";"48,77821";"11,44486";"00000000";"-";"-";"-";"Unknown";"Unknown";"2";"BEG";"-";"-";"-"
"1015";"S";"de:09161:8837";"de:09161:8837";"Ingolstadt, Audi N2";"48,78463";"11,4239";"09161000";"Ingolstadt";"-";"-";"Served";"Unknown";"";"BEG";"-";"-";"-"
"1016";"Q";"de:09161:8837:0:1";"de:09161:8837";"1";"48,78464";"11,42406";"00000000";"-";"-";"-";"Unknown";"Unknown";"";"BEG";"-";"-";"-"
"1017";"S";"de:09161:8838";"de:09161:8838";"IN, Audi-N56/Tor 7";"48,79036";"11,41936";"09161000";"Ingolstadt";"";"";"Served";"InOrder";"";"BEG";"-";"";""
"1018";"Q";"de:09161:1852:0:2";"de:09161:8838";"2";"48,79039";"11,41927";"00000000";"-";"-";"-";"Served";"InOrder";"";"BEG";"-";"-";"-"
"1019";"Q";"de:09161:8838:0:1";"de:09161:8838";"1";"48,79033";"11,41948";"00000000";"-";"-";"-";"Served";"InOrder";"";"BEG";"-";"-";"-"
"1020";"S";"de:09161:8839";"de:09161:8839";"Ingolstadt, Audi N53";"48,78778";"11,418";"09161000";"Ingolstadt";"-";"-";"Served";"Unknown";"";"BEG";"-";"-";"-"
"1021";"Q";"de:09161:8839:0:1";"de:09161:8839";"1";"48,7877";"11,41792";"00000000";"-";"-";"-";"Unknown";"Unknown";"";"BEG";"-";"-";"-"
"1022";"S";"de:09161:8886";"de:09161:8886";"IN, Friedrichshofener Str.";"48,77488";"11,38309";"09161000";"Ingolstadt";"-";"-";"Served";"Unknown";"";"BEG";"-";"-";"-"
"1023";"Q";"de:09161:8886:0:1";"de:09161:8886";"1";"48,77494";"11,38302";"00000000";"-";"-";"-";"Unknown";"Unknown";"1";"BEG";"-";"-";"-"
"1024";"Q";"de:09161:8886:0:2";"de:09161:8886";"2";"48,77481";"11,38315";"00000000";"-";"-";"-";"Unknown";"Unknown";"2";"BEG";"-";"-";"-"
"1025";"S";"de:09161:8887";"de:09161:8887";"IN, Permoserstraße";"48,76988";"11,39525";"09161000";"Ingolstadt";"";"";"Served";"InOrder";"";"BEG";"-";"";""
"1026";"Q";"de:09161:8887:0:1";"de:09161:8887";"1";"48,76946";"11,39558";"00000000";"-";"-";"-";"Served";"InOrder";"";"BEG";"-";"-";"-"
"1027";"Q";"de:09161:8887:0:2";"de:09161:8887";"2";"48,76954";"11,39519";"00000000";"-";"-";"-";"Served";"InOrder";"";"BEG";"-";"-";"-"
"1028";"Q";"de:09161:8887:0:3";"de:09161:8887";"3";"48,7704";"11,39515";"00000000";"-";"-";"-";"Unserved";"InOrder";"";"BEG";"-";"-";"-"
"1029";"Q";"de:09161:8887:0:4";"de:09161:8887";"4";"48,77019";"11,39505";"00000000";"-";"-";"-";"Unserved";"InOrder";"";"BEG";"-";"-";"-"
"1030";"S";"de:09161:8898";"de:09161:8898";"IN, Südfriedhof";"48,73805";"11,42443";"09161000";"Ingolstadt";"-";"-";"Served";"Unknown";"";"BEG";"-";"-";"-"
"1031";"Q";"de:09161:8898:0:1";"de:09161:8898";"1";"48,738";"11,42429";"00000000";"-";"-";"-";"Unknown";"Unknown";"1";"BEG";"-";"-";"-"
"1032";"Q";"de:09161:8898:0:2";"de:09161:8898";"2";"48,73808";"11,42454";"00000000";"-";"-";"-";"Unknown";"Unknown";"2";"BEG";"-";"-";"-"
"1033";"S";"de:09161:8899";"de:09161:8899";"IN, Wallensteinstraße";"48,73888";"11,42831";"09161000";"Ingolstadt";"-";"-";"Served";"Unknown";"";"BEG";"-";"-";"-"
"1034";"Q";"de:09161:8899:0:1";"de:09161:8899";"1";"48,73888";"11,42818";"00000000";"-";"-";"-";"Unknown";"Unknown";"1";"BEG";"-";"-";"-"
"1035";"Q";"de:09161:8899:0:2";"de:09161:8899";"2";"48,7389";"11,42841";"00000000";"-";"-";"-";"Unknown";"Unknown";"2";"BEG";"-";"-";"-"
"1036";"S";"de:09161:8900";"de:09161:8900";"IN, Fauststraße";"48,73949";"11,43291";"09161000";"Ingolstadt";"-";"-";"Served";"Unknown";"";"BEG";"-";"-";"-"
"1037";"Q";"de:09161:8900:0:1";"de:09161:8900";"1";"48,73948";"11,43278";"00000000";"-";"-";"-";"Unknown";"Unknown";"1";"BEG";"-";"-";"-"
"1038";"Q";"de:09161:8900:0:2";"de:09161:8900";"2";"48,7395";"11,43299";"00000000";"-";"-";"-";"Unknown";"Unknown";"2";"BEG";"-";"-";"-"
"1039";"S";"de:09161:8901";"de:09161:8901";"IN, Elisabethstraße";"48,74062";"11,43736";"09161000";"Ingolstadt";"-";"-";"Served";"Unknown";"";"BEG";"-";"-";"-"
"1040";"Q";"de:09161:8901:0:1";"de:09161:8901";"1";"48,74067";"11,43744";"00000000";"-";"-";"-";"Unknown";"Unknown";"1";"BEG";"-";"-";"-"
"1041";"Q";"de:09161:8901:0:2";"de:09161:8901";"2";"48,74057";"11,43725";"00000000";"-";"-";"-";"Unknown";"Unknown";"2";"BEG";"-";"-";"-"
"1042";"S";"de:09161:8926";"de:09161:8926";"IN, Boschstraße";"48,74184";"11,46998";"09161000";"Ingolstadt";"";"";"Served";"InOrder";"";"BEG";"-";"";""
"1043";"Q";"de:09161:8926:0:1";"de:09161:8926";"1";"48,7422";"11,47022";"00000000";"-";"-";"-";"Unserved";"InOrder";"";"BEG";"-";"-";"-"
"1044";"Q";"de:09161:8926:0:2";"de:09161:8926";"99";"48,74147";"11,46977";"00000000";"-";"-";"-";"Served";"InOrder";"";"BEG";"-";"-";"-"
"1045";"S";"de:09161:8938";"de:09161:8938";"Ingolstadt, Audi Piazza";"48,7831";"11,41574";"09161000";"Ingolstadt";"-";"-";"Served";"Unknown";"";"BEG";"-";"-";"-"
"1046";"Q";"de:09161:8938:0:1";"de:09161:8938";"1";"48,7831";"11,41574";"00000000";"-";"-";"-";"Unknown";"Unknown";"";"BEG";"-";"-";"-"
"1047";"S";"de:09161:8954";"de:09161:8954";"IN, Niederfelder Str.";"48,73607";"11,46368";"09161000";"Ingolstadt";"";"";"Served";"InOrder";"";"BEG";"-";"";""
"1048";"Q";"de:09161:8954:0:1";"de:09161:8954";"1";"48,73595";"11,46405";"00000000";"-";"-";"-";"Served";"InOrder";"";"BEG";"-";"-";"-"
"1049";"Q";"de:09161:8954:0:2";"de:09161:8954";"2";"48,73623";"11,46332";"00000000";"-";"-";"-";"Served";"InOrder";"";"BEG";"-";"-";"-"
"1050";"S";"de:09161:8955";"de:09161:8955";"IN, Meinlettenstr.";"48,73821";"11,45787";"09161000";"Ingolstadt";"";"";"Served";"InOrder";"";"BEG";"-";"";""
"1051";"Q";"de:09161:1866:0:20";"de:09161:8955";"20";"48,73657";"11,4559";"00000000";"-";"-";"-";"Unserved";"InOrder";"";"BEG";"-";"-";"-"
"1052";"Q";"de:09161:8955:0:1";"de:09161:8955";"1";"48,73828";"11,45758";"00000000";"-";"-";"-";"Served";"InOrder";"";"BEG";"-";"-";"-"
"1053";"Q";"de:09161:8955:0:2";"de:09161:8955";"2";"48,73816";"11,45815";"00000000";"-";"-";"-";"Served";"InOrder";"";"BEG";"-";"-";"-"
"1054";"S";"de:09161:8956";"de:09161:8956";"IN, Bezirkssportanl. Nord-West";"48,7722";"11,3971";"09161000";"Ingolstadt";"-";"-";"Served";"Unknown";"";"BEG";"-";"-";"-"
"1055";"Q";"de:09161:8956:0:1";"de:09161:8956";"1";"48,77231";"11,39671";"00000000";"-";"-";"-";"Unknown";"Unknown";"1";"BEG";"-";"-";"-"
"1056";"Q";"de:09161:8956:0:2";"de:09161:8956";"2";"48,77214";"11,39726";"00000000";"-";"-";"-";"Unknown";"Unknown";"2";"BEG";"-";"-";"-"
"1057";"S";"de:09161:8975";"de:09161:8975";"IN, Audi - N60H";"48,78901";"11,42054";"09161000";"Ingolstadt";"-";"-";"Served";"Unknown";"";"BEG";"-";"-";"-"
"1058";"Q";"de:09161:8975:0:1";"de:09161:8975";"1";"48,78888";"11,42029";"00000000";"-";"-";"-";"Unknown";"Unknown";"1";"BEG";"-";"-";"-"
"1059";"Q";"de:09161:8975:0:2";"de:09161:8975";"2";"48,78913";"11,42075";"00000000";"-";"-";"-";"Unknown";"Unknown";"2";"BEG";"-";"-";"-"
"1060";"S";"de:09161:8977";"de:09161:8977";"IN, Am Kirchsteig";"48,71411";"11,37786";"09161000";"Ingolstadt";"-";"-";"Served";"Unknown";"";"BEG";"-";"-";"-"
"1061";"Q";"de:09161:8977:0:1";"de:09161:8977";"1";"48,71416";"11,37777";"00000000";"-";"-";"-";"Unknown";"Unknown";"1";"BEG";"-";"-";"-"
"1062";"Q";"de:09161:8977:0:2";"de:09161:8977";"2";"48,71405";"11,37794";"00000000";"-";"-";"-";"Unknown";"Unknown";"2";"BEG";"-";"-";"-"
"1063";"S";"de:09161:90";"de:09161:90";"IN, Beim Schmalzbuckel";"48,7352";"11,41616";"09161000";"Ingolstadt";"";"";"Served";"InOrder";"";"BEG";"-";"";""
"1064";"Q";"de:09161:90:0:1";"de:09161:90";"1";"48,73505";"11,41617";"00000000";"-";"-";"-";"Served";"InOrder";"";"BEG";"-";"-";"-"
"1065";"Q";"de:09161:90:0:2";"de:09161:90";"2";"48,73536";"11,41616";"00000000";"-";"-";"-";"Served";"InOrder";"";"BEG";"-";"-";"-"
"1066";"S";"de:09161:9000";"de:09161:9000";"Ingolstadt Hbf";"48,74455";"11,43734";"09161000";"Ingolstadt";"";"";"Served";"InOrder";"";"BEG";"-";"";"-"
"1067";"A";"de:09161:9000:1";"de:09161:9000";"Gleis 1";"48,74454";"11,43728";"00000000";"-";"-";"-";"Served";"InOrder";"";"BEG";"-";"-";"-"
"1068";"A";"de:09161:9000:2";"de:09161:9000";"Bus";"48,7449";"11,43613";"00000000";"-";"-";"-";"Served";"InOrder";"";"BEG";"-";"-";"-"
"1069";"A";"de:09161:9000:3";"de:09161:9000";"Gleis 2+3";"48,74452";"11,43728";"00000000";"-";"-";"-";"Served";"InOrder";"";"BEG";"-";"-";"-"
"1070";"A";"de:09161:9000:4";"de:09161:9000";"Gleis 4+5";"48,7445";"11,4373";"00000000";"-";"-";"-";"Served";"InOrder";"";"BEG";"-";"-";"-"
"1071";"A";"de:09161:9000:5";"de:09161:9000";"Gleis 6+7";"48,74448";"11,4373";"00000000";"-";"-";"-";"Served";"InOrder";"";"BEG";"-";"-";"-"
"1072";"A";"de:09161:9000:70";"de:09161:9000";"Unterführung";"48,74449";"11,43735";"00000000";"-";"-";"-";"Unserved";"InOrder";"";"BEG";"-";"-";"-"
"1073";"A";"de:09161:9000:71";"de:09161:9000";"Brücke";"48,74377";"11,43726";"00000000";"-";"-";"-";"Unserved";"InOrder";"";"BEG";"-";"-";"-"
"1074";"A";"de:09161:9000:81";"de:09161:9000";"B+R Parkhaus";"48,74333";"11,43699";"00000000";"-";"-";"-";"Unserved";"InOrder";"";"BEG";"-";"-";"-"
"1075";"A";"de:09161:9000:82";"de:09161:9000";"B+R Nord";"48,74495";"11,43668";"00000000";"-";"-";"-";"Unserved";"InOrder";"";"BEG";"-";"-";"-"
"1076";"A";"de:09161:9000:83";"de:09161:9000";"B+R Ost";"48,74391";"11,43973";"00000000";"-";"-";"-";"Unserved";"InOrder";"";"BEG";"-";"-";"-"
"1077";"A";"de:09161:9000:90";"de:09161:9000";"Haupteingang";"48,74434";"11,43658";"00000000";"-";"-";"-";"Unserved";"InOrder";"";"BEG";"-";"-";"-"
"1078";"A";"de:09161:9000:91";"de:09161:9000";"Eingang Süd";"48,74404";"11,43705";"00000000";"-";"-";"-";"Unserved";"InOrder";"";"BEG";"-";"-";"-"
"1079";"A";"de:09161:9000:92";"de:09161:9000";"Eingang Ost";"48,74414";"11,4396";"00000000";"-";"-";"-";"Unserved";"InOrder";"";"BEG";"-";"-";"-"
"1080";"A";"de:09161:9000:93";"de:09161:9000";"Eingang Nord";"48,74491";"11,4367";"00000000";"-";"-";"-";"Unserved";"InOrder";"";"BEG";"-";"-";"-"
"1081";"A";"de:09161:9000:95";"de:09161:9000";"Parkhaus";"48,7435";"11,43707";"00000000";"-";"-";"-";"Unserved";"InOrder";"";"BEG";"-";"-";"-"
"1082";"A";"de:09161:9000:96";"de:09161:9000";"Taxi";"48,7449";"11,43631";"00000000";"-";"-";"-";"Unserved";"InOrder";"";"BEG";"-";"-";"-"
"1083";"Q";"de:09161:9000:1:1";"de:09161:9000:1";"Gleis 1";"48,74457";"11,43707";"00000000";"-";"-";"-";"Served";"InOrder";"";"BEG";"-";"-";"-"
"1084";"Q";"de:09161:9000:2:1";"de:09161:9000:2";"Bus 1";"48,74465";"11,43631";"00000000";"-";"-";"-";"Served";"InOrder";"";"BEG";"-";"-";"-"
"1085";"Q";"de:09161:9000:2:2";"de:09161:9000:2";"Bus 2";"48,74493";"11,43621";"00000000";"-";"-";"-";"Served";"InOrder";"";"BEG";"-";"-";"-"
"1086";"Q";"de:09161:9000:2:3";"de:09161:9000:2";"Bus 3";"48,7452";"11,43611";"00000000";"-";"-";"-";"Served";"InOrder";"";"BEG";"-";"-";"-"
"1087";"Q";"de:09161:9000:2:4";"de:09161:9000:2";"Bus 4";"48,74519";"11,43597";"00000000";"-";"-";"-";"Served";"InOrder";"";"BEG";"-";"-";"-"
"1088";"Q";"de:09161:9000:2:5";"de:09161:9000:2";"Bus 5";"48,7449";"11,43602";"00000000";"-";"-";"-";"Unserved";"InOrder";"";"BEG";"-";"-";"-"
"1089";"Q";"de:09161:9000:2:6";"de:09161:9000:2";"Bus 6";"48,74464";"11,43612";"00000000";"-";"-";"-";"Served";"InOrder";"";"BEG";"-";"-";"-"
"1090";"Q";"de:09161:9000:3:2";"de:09161:9000:3";"Gleis 2";"48,74458";"11,43713";"00000000";"-";"-";"-";"Served";"InOrder";"";"BEG";"-";"-";"-"
"1091";"Q";"de:09161:9000:3:3";"de:09161:9000:3";"Gleis 3";"48,7446";"11,43727";"00000000";"-";"-";"-";"Served";"InOrder";"";"BEG";"-";"-";"-"
"1092";"Q";"de:09161:9000:4:4";"de:09161:9000:4";"Gleis 4";"48,74461";"11,43733";"00000000";"-";"-";"-";"Served";"InOrder";"";"BEG";"-";"-";"-"
"1093";"Q";"de:09161:9000:4:5";"de:09161:9000:4";"Gleis 5";"48,74464";"11,43748";"00000000";"-";"-";"-";"Served";"InOrder";"";"BEG";"-";"-";"-"
"1094";"Q";"de:09161:9000:5:6";"de:09161:9000:5";"Gleis 6";"48,74465";"11,43754";"00000000";"-";"-";"-";"Served";"InOrder";"";"BEG";"-";"-";"-"
"1095";"Q";"de:09161:9000:5:7";"de:09161:9000:5";"Gleis 7";"48,74467";"11,43768";"00000000";"-";"-";"-";"Served";"InOrder";"";"BEG";"-";"-";"-"
"1096";"S";"de:09161:9009";"de:09161:9009";"Ingolstadt Nord";"48,77369";"11,43225";"09161000";"Ingolstadt";"-";"-";"Served";"Unknown";"";"BEG";"-";"-";"-"
"1097";"A";"de:09161:9009:1";"de:09161:9009";"1";"48,77388";"11,4318";"00000000";"-";"-";"-";"Unknown";"Unknown";"Gleis 3+4";"BEG";"-";"-";"-"
"1098";"A";"de:09161:9009:2";"de:09161:9009";"2";"48,77395";"11,43196";"00000000";"-";"-";"-";"Unknown";"Unknown";"Gleis 5+6";"BEG";"-";"-";"-"
"1099";"A";"de:09161:9009:3";"de:09161:9009";"3";"48,77402";"11,43212";"00000000";"-";"-";"-";"Unknown";"Unknown";"Gleis 7";"BEG";"-";"-";"-"
"1100";"A";"de:09161:9009:70";"de:09161:9009";"70";"48,7733";"11,43261";"00000000";"-";"-";"-";"Unknown";"Unknown";"Unterführung";"BEG";"-";"-";"-"
"1101";"A";"de:09161:9009:90";"de:09161:9009";"90";"48,77301";"11,43211";"00000000";"-";"-";"-";"Unknown";"Unknown";"Eingang West";"BEG";"-";"-";"-"
"1102";"A";"de:09161:9009:91";"de:09161:9009";"91";"48,77352";"11,43366";"00000000";"-";"-";"-";"Unknown";"Unknown";"Eingang Ost Trepp";"BEG";"-";"-";"-"
"1103";"A";"de:09161:9009:92";"de:09161:9009";"92";"48,77312";"11,4338";"00000000";"-";"-";"-";"Unknown";"Unknown";"Eingang Ost Rampe";"BEG";"-";"-";"-"
"1104";"A";"de:09161:9009:95";"de:09161:9009";"81";"48,77303";"11,43206";"00000000";"-";"-";"-";"Unknown";"Unknown";"B+R";"BEG";"-";"-";"-"
"1105";"A";"de:09161:9009:96";"de:09161:9009";"82";"48,77278";"11,43244";"00000000";"-";"-";"-";"Unknown";"Unknown";"Taxi";"BEG";"-";"-";"-"
"1106";"Q";"de:09161:9009:1:3";"de:09161:9009:1";"3";"48,77401";"11,43158";"00000000";"-";"-";"-";"Unknown";"Unknown";"Gleis 3";"BEG";"-";"-";"-"
"1107";"Q";"de:09161:9009:1:4";"de:09161:9009:1";"4";"48,77406";"11,4317";"00000000";"-";"-";"-";"Unknown";"Unknown";"Gleis 4";"BEG";"-";"-";"-"
"1108";"Q";"de:09161:9009:2:5";"de:09161:9009:2";"5";"48,77408";"11,43174";"00000000";"-";"-";"-";"Unknown";"Unknown";"Gleis 5";"BEG";"-";"-";"-"
"1109";"Q";"de:09161:9009:2:6";"de:09161:9009:2";"6";"48,77413";"11,43185";"00000000";"-";"-";"-";"Unknown";"Unknown";"Gleis 6";"BEG";"-";"-";"-"
"1110";"Q";"de:09161:9009:3:7";"de:09161:9009:3";"7";"48,77415";"11,43192";"00000000";"-";"-";"-";"Unknown";"Unknown";"Gleis 7";"BEG";"-";"-";"-"
"1111";"S";"de:09161:96";"de:09161:96";"IN, Blücherstraße";"48,74392";"11,43279";"09161000";"Ingolstadt";"";"";"Served";"InOrder";"";"BEG";"-";"";""
"1112";"Q";"de:09161:96:0:1";"de:09161:96";"1";"48,74394";"11,43289";"00000000";"-";"-";"-";"Served";"InOrder";"";"BEG";"-";"-";"-"
"1113";"Q";"de:09161:96:0:2";"de:09161:96";"2";"48,74392";"11,43273";"00000000";"-";"-";"-";"Served";"InOrder";"";"BEG";"-";"-";"-"
"1114";"S";"de:09185:8467";"de:09185:8467";"Ingolstadt, Audi 60";"48,78922";"11,42467";"09161000";"Ingolstadt";"-";"-";"Served";"Unknown";"";"BEG";"-";"-";"-"
"1115";"Q";"de:09185:8467:0:1";"de:09185:8467";"1";"48,78899";"11,42441";"00000000";"-";"-";"-";"Unknown";"Unknown";"";"BEG";"-";"-";"-"
"1116";"Q";"de:09185:8467:0:2";"de:09185:8467";"2";"48,78943";"11,42486";"00000000";"-";"-";"-";"Unknown";"Unknown";"";"BEG";"-";"-";"-"
"1117";"S";"de:09186:8130";"de:09186:8130";"IN, Am Eichelanger";"48,73443";"11,46179";"09161000";"Ingolstadt";"";"";"Served";"InOrder";"";"BEG";"-";"";""
"1118";"Q";"de:09186:8130:0:1";"de:09186:8130";"1";"48,73418";"11,46123";"00000000";"-";"-";"-";"Served";"InOrder";"";"BEG";"-";"-";"-"
"1119";"Q";"de:09186:8130:0:2";"de:09186:8130";"2";"48,73468";"11,46236";"00000000";"-";"-";"-";"Served";"InOrder";"";"BEG";"-";"-";"-"
